{"type":"FeatureCollection","features":[{"type":"Feature","properties":{"Quartier_Fr":"Cité Essalem","Quartier_Ar":"حيّ السلام","Quartier_id":"cite_14"},"geometry":{"type":"Polygon","coordinates":[[[9.620375633239746,36.34084840797916],[9.620976448059082,36.34554959127678],[9.617714881896973,36.345722423489235],[9.617629051208496,36.34395951692332],[9.617156982421875,36.34333730507727],[9.617629051208496,36.34205829844801],[9.620375633239746,36.34084840797916]]]}},{"type":"Feature","properties":{"Quartier_Fr":"Cité Ennakhil","Quartier_Ar":"حيّ النخيل","Quartier_id":"cite_11"},"geometry":{"type":"Polygon","coordinates":[[[9.620954990386963,36.34560144098079],[9.621126651763916,36.34713963316176],[9.62153434753418,36.34767540083118],[9.620590209960938,36.348072903494],[9.61951732635498,36.34798649004427],[9.618465900421143,36.34774453187486],[9.617178440093994,36.34769268359788],[9.617650508880615,36.345774273078185],[9.620954990386963,36.34560144098079]]]}},{"type":"Feature","properties":{"Quartier_Fr":"Cité Sidi Jaber","Quartier_Ar":"حيّ سيدي جابر","Quartier_id":"cite_21"},"geometry":{"type":"Polygon","coordinates":[[[9.612221717834473,36.34739887604279],[9.61129903793335,36.3481938821625],[9.604969024658203,36.34836670850569],[9.60777997970581,36.343976800514724],[9.611320495605469,36.344702707890654],[9.612221717834473,36.34739887604279]]]}},{"type":"Feature","properties":{"Quartier_Fr":"Cité Essanaoubar","Quartier_Ar":"حيّ الصنوبر","Quartier_id":"cite_13"},"geometry":{"type":"Polygon","coordinates":[[[9.62101936340332,36.34563600743097],[9.622671604156494,36.34546317502669],[9.622993469238281,36.34722604755135],[9.622199535369873,36.347416158870836],[9.621834754943848,36.34746800733196],[9.621555805206299,36.34764083528634],[9.621126651763916,36.34712235027235],[9.62101936340332,36.34563600743097]]]}},{"type":"Feature","properties":{"Quartier_Ar":"حيّ الصفاء","Quartier_Fr":"Cité Essafa","Quartier_id":"cite_12"},"geometry":{"type":"Polygon","coordinates":[[[9.611341953277588,36.34821116481408],[9.612221717834473,36.347381593210905],[9.617135524749756,36.34767540083118],[9.618465900421143,36.34774453187486],[9.61951732635498,36.34800377274188],[9.6205472946167,36.348072903494],[9.62104082107544,36.34784822832525],[9.620246887207031,36.350889929429556],[9.619710445404051,36.35087264737258],[9.617199897766113,36.35083808324713],[9.615504741668701,36.3510109037209],[9.613659381866455,36.35123556976327],[9.611341953277588,36.34821116481408]]]}},{"type":"Feature","properties":{"Quartier_Fr":"Cité des Artisans","Quartier_Ar":"حيّ الحرفيين","Quartier_id":"cite_19"},"geometry":{"type":"Polygon","coordinates":[[[9.614195823669434,36.35121828778301],[9.616234302520752,36.35094177557743],[9.61653470993042,36.352911903612544],[9.614839553833008,36.353015593180665],[9.614710807800293,36.3527563690014],[9.614324569702147,36.35220335453398],[9.614195823669434,36.35121828778301]]]}},{"type":"Feature","properties":{"Quartier_Fr":"Cité Essaada","Quartier_Ar":"حيّ السعادة","Quartier_id":"cite_10"},"geometry":{"type":"Polygon","coordinates":[[[9.616556167602539,36.352911903612544],[9.616212844848633,36.35094177557743],[9.617178440093994,36.350820801178685],[9.620246887207031,36.35090721148269],[9.619646072387695,36.3528254955336],[9.616556167602539,36.352911903612544]]]}},{"type":"Feature","properties":{"Quartier_Fr":"Cité Ennour 2","Quartier_Ar":"حيّ النور 2","Quartier_id":"cite_7"},"geometry":{"type":"Polygon","coordinates":[[[9.614818096160887,36.353015593180665],[9.619667530059813,36.35284277715706],[9.619560241699219,36.353153845723334],[9.619474411010742,36.35381054194802],[9.6195387840271,36.35427713853068],[9.619925022125244,36.35483013826634],[9.6205472946167,36.355607787497924],[9.617478847503662,36.357059378610735],[9.617199897766113,36.35652367551841],[9.616470336914062,36.35593612595201],[9.61627721786499,36.35564234950568],[9.616234302520752,36.3549338252794],[9.615719318389893,36.35417345064291],[9.615418910980225,36.353896948933595],[9.615097045898438,36.35362044624217],[9.615011215209961,36.353361224076984],[9.614818096160887,36.353015593180665]]]}},{"type":"Feature","properties":{"Quartier_Fr":"Cité Ennour 1","Quartier_Ar":"حيّ النور 1","Quartier_id":"cite_6"},"geometry":{"type":"Polygon","coordinates":[[[9.620590209960938,36.35559050648829],[9.62026834487915,36.35521032330572],[9.620096683502197,36.3549338252794],[9.619731903076172,36.35450179514708],[9.61951732635498,36.354069762617],[9.619495868682861,36.35370685343872],[9.619560241699219,36.35327481649678],[9.619667530059813,36.3528254955336],[9.622349739074707,36.352773650640195],[9.623358249664307,36.354121606647205],[9.620590209960938,36.35559050648829]]]}},{"type":"Feature","properties":{"Quartier_Fr":"Cité Castelli","Quartier_Ar":"حيّ القسطلي","Quartier_id":"cite_5"},"geometry":{"type":"Polygon","coordinates":[[[9.621577262878418,36.352773650640195],[9.619646072387695,36.35284277715706],[9.620311260223389,36.35090721148269],[9.624152183532715,36.35102818574719],[9.624345302581787,36.35132197960694],[9.621577262878418,36.352773650640195]]]}},{"type":"Feature","properties":{"Quartier_Fr":"Cité Ezzayatine Ouest","Quartier_Ar":"حيّ الزياتين الغربي","Quartier_id":"cite_9"},"geometry":{"type":"Polygon","coordinates":[[[9.624173641204834,36.3510109037209],[9.62028980255127,36.35090721148269],[9.621062278747559,36.34784822832525],[9.621469974517822,36.34767540083118],[9.624173641204834,36.3510109037209]]]}},{"type":"Feature","properties":{"Quartier_Ar":"حيّ الزياتين الشرقي","Quartier_Fr":"Cité Ezzayatine Est","Quartier_id":"cite_8"},"geometry":{"type":"Polygon","coordinates":[[[9.624173641204834,36.3510109037209],[9.621555805206299,36.34762355250817],[9.621813297271729,36.34745072451542],[9.622135162353514,36.34745072451542],[9.622993469238281,36.34719148180703],[9.624238014221191,36.34707050158105],[9.628314971923828,36.34745072451542],[9.62945222854614,36.35128741568097],[9.624173641204834,36.3510109037209]]]}},{"type":"Feature","properties":{"Quartier_Fr":"Cité Ibn Khaldoun","Quartier_Ar":"حيّ ابن خلدون","Quartier_id":"cite_15"},"geometry":{"type":"Polygon","coordinates":[[[9.628336429595947,36.34743344169506],[9.630439281463621,36.34776181462616],[9.631340503692625,36.35125285173966],[9.629473686218262,36.35125285173966],[9.628336429595947,36.34743344169506]]]}},{"type":"Feature","properties":{"Quartier_Fr":"Cité El Bassatine","Quartier_Ar":"حيّ البساتين","Quartier_id":"cite_16"},"geometry":{"type":"Polygon","coordinates":[[[9.638335704803467,36.35061341605773],[9.631297588348389,36.35120100579896],[9.630396366119383,36.347779097373646],[9.638035297393799,36.34802105543569],[9.638335704803467,36.35061341605773]]]}},{"type":"Feature","properties":{"Quartier_Fr":"Zone Industrielle","Quartier_Ar":"المنطقة الصناعيّة","Quartier_id":"cite_20"},"geometry":{"type":"Polygon","coordinates":[[[9.638357162475586,36.35059613393938],[9.638593196868896,36.351754027386605],[9.642369747161865,36.35483013826634],[9.63202714920044,36.35460548259754],[9.631211757659912,36.35121828778301],[9.638357162475586,36.35059613393938]]]}},{"type":"Feature","properties":{"Quartier_Fr":"Cité Erriadh","Quartier_Ar":"حيّ الريّاض","Quartier_id":"cite_17"},"geometry":{"type":"Polygon","coordinates":[[[9.629473686218262,36.35130469764586],[9.631233215332031,36.35125285173966],[9.63202714920044,36.35460548259754],[9.631168842315674,36.35453635764592],[9.630568027496338,36.35488198179012],[9.629473686218262,36.35130469764586]]]}},{"type":"Feature","properties":{"Quartier_Fr":"Cité Beau Séjour","Quartier_Ar":"حيّ الاقامة الطيبة","Quartier_id":"cite_18"},"geometry":{"type":"Polygon","coordinates":[[[9.630203247070312,36.353879667544156],[9.629237651824951,36.35398335582326],[9.62876558303833,36.352358890249995],[9.628100395202637,36.35120100579896],[9.62949514389038,36.35123556976327],[9.630203247070312,36.353879667544156]]]}},{"type":"Feature","properties":{"Quartier_Fr":"Cité El Malessine","Quartier_Ar":"حيّ الملاّسين","Quartier_id":"cite_2"},"geometry":{"type":"Polygon","coordinates":[[[9.6305251121521,36.35488198179012],[9.62797164916992,36.35595340688491],[9.626834392547607,36.35446723263293],[9.627242088317871,36.35431170112926],[9.627799987792969,36.35417345064291],[9.630289077758789,36.353896948933595],[9.6305251121521,36.35488198179012]]]}},{"type":"Feature","properties":{"Quartier_Fr":"Cité Centre Ville","Quartier_Ar":"حيّ وسط المدينة","Quartier_id":"cite_1"},"geometry":{"type":"Polygon","coordinates":[[[9.627714157104492,36.355625068503706],[9.625825881958008,36.35666192183068],[9.624195098876953,36.35534857195061],[9.621920585632324,36.3569211330044],[9.620590209960938,36.35559050648829],[9.623336791992188,36.35415616931484],[9.622414112091064,36.35279093227517],[9.621555805206299,36.35279093227517],[9.624366760253906,36.35130469764586],[9.624195098876953,36.35104546776964],[9.628100395202637,36.35121828778301],[9.62878704071045,36.35234160851911],[9.629194736480713,36.354017918552266],[9.62747812271118,36.35419073196714],[9.626812934875488,36.35446723263293],[9.627714157104492,36.355625068503706]]]}},{"type":"Feature","properties":{"Quartier_Fr":"Cité Ali Ben M'Barek 1","Quartier_Ar":"حيّ علي بن مبارك 1","Quartier_id":"cite_3"},"geometry":{"type":"Polygon","coordinates":[[[9.627671241760254,36.35564234950568],[9.62878704071045,36.356990255838255],[9.625740051269531,36.35870102641571],[9.624388217926025,36.35792340808739],[9.623444080352783,36.358459101546096],[9.621942043304443,36.35690385228634],[9.624216556549072,36.35536585301392],[9.625804424285889,36.35666192183068],[9.627671241760254,36.35564234950568]]]}},{"type":"Feature","properties":{"Quartier_Fr":"Cité Ali Ben M'Barek 2","Quartier_Ar":"حيّ علي بن مبارك 2","Quartier_id":"cite_4"},"geometry":{"type":"Polygon","coordinates":[[[9.623422622680664,36.358459101546096],[9.620225429534912,36.36037719950051],[9.619731903076172,36.360308079674546],[9.619324207305908,36.36003159975684],[9.61902379989624,36.35982423917399],[9.618487358093262,36.35947863697485],[9.618251323699951,36.35892567026414],[9.618144035339355,36.358320858425856],[9.618122577667236,36.357750602959364],[9.6175217628479,36.35704209792339],[9.620568752288818,36.355625068503706],[9.623422622680664,36.358459101546096]]]}}]}