{
  "type": "FeatureCollection",
  "features": [
    {
      "type": "Feature",
      "id": "osm:relation:7105456",
      "properties": {
        "sourceId": "isie-local-sector-2023-sidi-mtir-bouficha",
        "officialCode": "316159",
        "delegationCode": "3161",
        "governorateCode": "31",
        "nameAr": "سيدي مطير",
        "nameFr": "Sidi m'tir",
        "sourcePdfURL": "https://www.isie.tn/wp-content/uploads/2023/CartesCirconscriptionsElectoralesLocales2023/%D8%B3%D9%88%D8%B3%D8%A9/%D8%A8%D9%88%D9%81%D9%8A%D8%B4%D8%A9/%D8%B3%D9%8A%D8%AF%D9%8A%20%D9%85%D8%B7%D9%8A%D8%B1%20-%20%28%D8%A8%D9%88%D9%81%D9%8A%D8%B4%D8%A9%29.pdf",
        "sourcePdfSha256": "c86ef7a672fba608129954d5417f0792fc23afc60f71601c5365cba9abd8ed5e",
        "sourceDrawingDetails": {
          "drawingIndex": 345,
          "layer": "circonscription_isie2023",
          "pdfSha256": "c86ef7a672fba608129954d5417f0792fc23afc60f71601c5365cba9abd8ed5e",
          "segmentCount": 323,
          "seqno": 353,
          "sourceOrigin": "connected-official-maps",
          "sourceRingCompleteness": {
            "activeClipCount": 2,
            "activeClipOutsideAreasPoints2": [
              0.0,
              0.0
            ],
            "explicitlyClosed": true,
            "isValid": true,
            "viewportCoversCompleteRing": true
          },
          "sourceRingVertexCount": 324,
          "vertexCount": 324
        },
        "sourceGeometrySha256": "67361b7ae5e70e60115c76377391c92e922f64172b3916cb0577fc13c33c6fa1"
      },
      "geometry": {
        "coordinates": [
          [
            [
              10.506454310948046,
              36.391799501175264
            ],
            [
              10.506453183186762,
              36.39174115708297
            ],
            [
              10.507021480247884,
              36.391267114296376
            ],
            [
              10.508725194740665,
              36.389786636372
            ],
            [
              10.511568727800384,
              36.38753303316112
            ],
            [
              10.511781816881344,
              36.3873552587073
            ],
            [
              10.511780685322327,
              36.387296914714895
            ],
            [
              10.511852840241035,
              36.38729600055294
            ],
            [
              10.512136963194555,
              36.3870589671449
            ],
            [
              10.512635289558851,
              36.38670250131828
            ],
            [
              10.513205777779177,
              36.38634512827434
            ],
            [
              10.513345567259844,
              36.38610992222735
            ],
            [
              10.513486488691521,
              36.38593305998779
            ],
            [
              10.513627409493004,
              36.38575619759182
            ],
            [
              10.513626276621107,
              36.38569785363358
            ],
            [
              10.514335404152584,
              36.38504691510557
            ],
            [
              10.515825769253158,
              36.38374410963344
            ],
            [
              10.51639395140784,
              36.38327002926493
            ],
            [
              10.517885396508055,
              36.38202554305055
            ],
            [
              10.519517692525039,
              36.380604175055865
            ],
            [
              10.521151055223696,
              36.379241129793506
            ],
            [
              10.522213991027304,
              36.378235484831805
            ],
            [
              10.523708667685659,
              36.3771659656143
            ],
            [
              10.523707527639154,
              36.37710762184507
            ],
            [
              10.52463066389679,
              36.3763371738117
            ],
            [
              10.524843692756232,
              36.376159377145655
            ],
            [
              10.525056720743168,
              36.375981585062576
            ],
            [
              10.525269747664193,
              36.37580378767202
            ],
            [
              10.525624778143824,
              36.37550745803922
            ],
            [
              10.526475727659687,
              36.37473791872292
            ],
            [
              10.527041494928435,
              36.37414710264558
            ],
            [
              10.528106572340148,
              36.373258095229346
            ],
            [
              10.528744463535027,
              36.37266634275834
            ],
            [
              10.52902733218594,
              36.37237092747115
            ],
            [
              10.529381201127318,
              36.37201624833278
            ],
            [
              10.529733922460151,
              36.37160321959736
            ],
            [
              10.530090061570741,
              36.371365220996175
            ],
            [
              10.531089793367155,
              36.370827175035096
            ],
            [
              10.531732225210005,
              36.370468781870635
            ],
            [
              10.531803224317681,
              36.370409517275675
            ],
            [
              10.531875369084135,
              36.37040859130809
            ],
            [
              10.532021950559473,
              36.370523426458256
            ],
            [
              10.532024242427818,
              36.3706401087266
            ],
            [
              10.532166240284658,
              36.37052157421043
            ],
            [
              10.5335953710848,
              36.36980291933861
            ],
            [
              10.533666368054291,
              36.3697436487323
            ],
            [
              10.533738512142989,
              36.36974272165415
            ],
            [
              10.533739659373147,
              36.369801065221935
            ],
            [
              10.534103822554016,
              36.36997145983847
            ],
            [
              10.534614571856554,
              36.37025668025084
            ],
            [
              10.534905446300758,
              36.37036966134834
            ],
            [
              10.535194012545903,
              36.37036594988434
            ],
            [
              10.535265008763933,
              36.37030667834965
            ],
            [
              10.535336004776962,
              36.37024740182955
            ],
            [
              10.535407000877019,
              36.37018813515965
            ],
            [
              10.535477996772077,
              36.370128863504334
            ],
            [
              10.536328789967508,
              36.36935925700332
            ],
            [
              10.536542922279333,
              36.36923978384907
            ],
            [
              10.539113609611821,
              36.367864425471204
            ],
            [
              10.53940217826881,
              36.36786070390449
            ],
            [
              10.5399735441873,
              36.36756154175398
            ],
            [
              10.539972392396628,
              36.367503198335164
            ],
            [
              10.539821210978468,
              36.36715499917159
            ],
            [
              10.539528039225807,
              36.36692534794555
            ],
            [
              10.537822783620086,
              36.364613003889446
            ],
            [
              10.535966464935825,
              36.36195243233208
            ],
            [
              10.535888585595313,
              36.36166164265158
            ],
            [
              10.534035858611688,
              36.35917606241514
            ],
            [
              10.532328649007633,
              36.356746946633095
            ],
            [
              10.531364598406872,
              36.35541707882919
            ],
            [
              10.530471566674631,
              36.354027928657295
            ],
            [
              10.529061107333046,
              36.352003461450444
            ],
            [
              10.528539073299955,
              36.35113477424429
            ],
            [
              10.527800672107029,
              36.35026884888422
            ],
            [
              10.527499607654946,
              36.34963076259631
            ],
            [
              10.526684543250264,
              36.34853237653207
            ],
            [
              10.525270852753621,
              36.346332831155195
            ],
            [
              10.523928237527848,
              36.3440739965948
            ],
            [
              10.523185402928535,
              36.342974662490974
            ],
            [
              10.522734478278721,
              36.34204668139266
            ],
            [
              10.522285839651243,
              36.3412353865194
            ],
            [
              10.521319884283239,
              36.33978873241854
            ],
            [
              10.520569176037384,
              36.33828097482283
            ],
            [
              10.519975217433771,
              36.33741316229546
            ],
            [
              10.519155862862457,
              36.33608133988866
            ],
            [
              10.518108846666314,
              36.33416882356914
            ],
            [
              10.517514947800008,
              36.33330099685205
            ],
            [
              10.51632039429336,
              36.33121525687109
            ],
            [
              10.515199145218888,
              36.329186942094665
            ],
            [
              10.514672899239244,
              36.32808480097097
            ],
            [
              10.514222178874412,
              36.32715678095195
            ],
            [
              10.513467214765615,
              36.325415591395824
            ],
            [
              10.512713415018336,
              36.32373273543301
            ],
            [
              10.512188372405207,
              36.3226889302619
            ],
            [
              10.511436885486729,
              36.321122758470246
            ],
            [
              10.5107597842004,
              36.319672358090585
            ],
            [
              10.510385764276347,
              36.31897678681694
            ],
            [
              10.509708702158866,
              36.317526374138616
            ],
            [
              10.509407919193212,
              36.3168882275013
            ],
            [
              10.50835915994745,
              36.31485892355487
            ],
            [
              10.503782936053911,
              36.3056375603014
            ],
            [
              10.502849188562113,
              36.30582439097
            ],
            [
              10.501271134034345,
              36.30625275173577
            ],
            [
              10.498541910549399,
              36.30681225981606
            ],
            [
              10.497541635950673,
              36.307291679835345
            ],
            [
              10.49655474615526,
              36.30847123391816
            ],
            [
              10.496053479877872,
              36.3086525818379
            ],
            [
              10.495115206351015,
              36.30860597252933
            ],
            [
              10.493463846384643,
              36.308976799414054
            ],
            [
              10.492471309585804,
              36.30986458512145
            ],
            [
              10.49204767733196,
              36.31033675201089
            ],
            [
              10.491695017731923,
              36.31074967176107
            ],
            [
              10.49134792045147,
              36.311454316946445
            ],
            [
              10.49107848084135,
              36.31244978742282
            ],
            [
              10.490945424835962,
              36.31303503049651
            ],
            [
              10.490731370760749,
              36.31315442103606
            ],
            [
              10.49022782969785,
              36.313219064777954
            ],
            [
              10.490014886281157,
              36.3133967993642
            ],
            [
              10.489877372262656,
              36.31374867008641
            ],
            [
              10.489888494476679,
              36.314332123042576
            ],
            [
              10.489967262737922,
              36.314681295307366
            ],
            [
              10.490260091949171,
              36.31491107806553
            ],
            [
              10.491130797426518,
              36.31519200500032
            ],
            [
              10.492005958217279,
              36.31570630145997
            ],
            [
              10.492958805737793,
              36.31651142071111
            ],
            [
              10.494278845823546,
              36.317662087578526
            ],
            [
              10.494501832842568,
              36.31800945170068
            ],
            [
              10.495095358463004,
              36.318877408562294
            ],
            [
              10.495173038755327,
              36.31916823138748
            ],
            [
              10.495401616921699,
              36.31980731408773
            ],
            [
              10.496015267854132,
              36.32172547193525
            ],
            [
              10.496166173306522,
              36.32207373555913
            ],
            [
              10.496243861149166,
              36.32236455737132
            ],
            [
              10.496105249967325,
              36.32265808934465
            ],
            [
              10.496109718734884,
              36.32289146457701
            ],
            [
              10.496190753065054,
              36.32335732156222
            ],
            [
              10.49627067719114,
              36.32376483332818
            ],
            [
              10.496134298300811,
              36.32417505043729
            ],
            [
              10.493511809248758,
              36.32280727283964
            ],
            [
              10.48760600402339,
              36.3194378098724
            ],
            [
              10.487607114768403,
              36.3194961551754
            ],
            [
              10.487760200274618,
              36.31996112109969
            ],
            [
              10.485389787009142,
              36.32045749856799
            ],
            [
              10.484959403190134,
              36.320579574636184
            ],
            [
              10.481654958655838,
              36.32126256742064
            ],
            [
              10.476774143234175,
              36.32249021275028
            ],
            [
              10.477541509563602,
              36.32493179578229
            ],
            [
              10.47720636071948,
              36.32627820327654
            ],
            [
              10.477138667723201,
              36.32651247735265
            ],
            [
              10.477140874183014,
              36.326629168373195
            ],
            [
              10.47692896787651,
              36.32686522628644
            ],
            [
              10.476433050606136,
              36.32733822765239
            ],
            [
              10.475724105928848,
              36.32798893749303
            ],
            [
              10.47508615593303,
              36.32858041193058
            ],
            [
              10.474450398988978,
              36.329288574236166
            ],
            [
              10.47416967191745,
              36.32970055460848
            ],
            [
              10.473602711435733,
              36.33023278558909
            ],
            [
              10.473250966989239,
              36.3307039944894
            ],
            [
              10.472670786132161,
              36.3305360793283
            ],
            [
              10.471819765193061,
              36.33130523690951
            ],
            [
              10.471539011068781,
              36.331717211523504
            ],
            [
              10.470835486191378,
              36.33265962171418
            ],
            [
              10.469777962444455,
              36.333956545957186
            ],
            [
              10.46956491649406,
              36.334134245856845
            ],
            [
              10.469280853722163,
              36.334371178491814
            ],
            [
              10.468997892827602,
              36.33466645605159
            ],
            [
              10.469073293118958,
              36.33484060081339
            ],
            [
              10.470966939271614,
              36.33580938577548
            ],
            [
              10.4721328691805,
              36.33643696556005
            ],
            [
              10.47315459180263,
              36.33706631314798
            ],
            [
              10.47541332849318,
              36.33826395700775
            ],
            [
              10.476142218870365,
              36.3386634605815
            ],
            [
              10.475514110582647,
              36.339780042044694
            ],
            [
              10.475090218189719,
              36.34025215259621
            ],
            [
              10.474594201450419,
              36.34072515252308
            ],
            [
              10.473955046833787,
              36.34125827675424
            ],
            [
              10.473460117988646,
              36.34178961765211
            ],
            [
              10.473037303176595,
              36.34232006181325
            ],
            [
              10.472613382286083,
              36.34279216403832
            ],
            [
              10.47219165665422,
              36.3433809508477
            ],
            [
              10.471697808620402,
              36.34397063024558
            ],
            [
              10.471056403013334,
              36.34438704884086
            ],
            [
              10.47084443171241,
              36.34462309680185
            ],
            [
              10.470205213678163,
              36.34515619707409
            ],
            [
              10.469921114112633,
              36.3453931366228
            ],
            [
              10.46963591424198,
              36.345571720113945
            ],
            [
              10.469420646862133,
              36.34563272902745
            ],
            [
              10.469063320899926,
              36.34581220387519
            ],
            [
              10.468922366230071,
              36.3459890154902
            ],
            [
              10.46863825963839,
              36.34622594716811
            ],
            [
              10.468497303276244,
              36.34640275830859
            ],
            [
              10.468282026555125,
              36.34646376530957
            ],
            [
              10.467995721860875,
              36.34658400442156
            ],
            [
              10.467281052888865,
              36.346942944847015
            ],
            [
              10.466278976911324,
              36.34736377057176
            ],
            [
              10.46563532312464,
              36.34766346497602
            ],
            [
              10.465204757633456,
              36.34778546851578
            ],
            [
              10.46427259674177,
              36.34808870130756
            ],
            [
              10.463626741058304,
              36.34827169881735
            ],
            [
              10.463054102625136,
              36.348512154612486
            ],
            [
              10.462839909010452,
              36.348631497680884
            ],
            [
              10.462053075619771,
              36.34899128648449
            ],
            [
              10.461553646946438,
              36.349289197571984
            ],
            [
              10.461124157907863,
              36.34946953242074
            ],
            [
              10.460980994445931,
              36.34952964370264
            ],
            [
              10.461055306589191,
              36.34964545234957
            ],
            [
              10.4621525210336,
              36.35044904508384
            ],
            [
              10.460874960247223,
              36.351573503742294
            ],
            [
              10.45987824324094,
              36.35228600613609
            ],
            [
              10.458671657684523,
              36.35335121445032
            ],
            [
              10.45840166766213,
              36.354346617304
            ],
            [
              10.457915274262067,
              36.35534465779933
            ],
            [
              10.457161029901773,
              36.35745478808623
            ],
            [
              10.45630956557984,
              36.358223841949744
            ],
            [
              10.455603443526844,
              36.35904948146364
            ],
            [
              10.4552525564594,
              36.35957899122334
            ],
            [
              10.454698302247264,
              36.36081128198035
            ],
            [
              10.45377463854918,
              36.36158120285065
            ],
            [
              10.452862908691595,
              36.36299291565424
            ],
            [
              10.452365528437165,
              36.363407482041325
            ],
            [
              10.451726034847107,
              36.363940493020294
            ],
            [
              10.451226471636186,
              36.364238358299154
            ],
            [
              10.451011131700675,
              36.36429933540804
            ],
            [
              10.450655850707875,
              36.36459544914107
            ],
            [
              10.450374875903393,
              36.36500737693151
            ],
            [
              10.449959373067225,
              36.365946169550455
            ],
            [
              10.449467382570115,
              36.36665244864272
            ],
            [
              10.449332851361842,
              36.36717931342462
            ],
            [
              10.449777644110306,
              36.36781586028023
            ],
            [
              10.450152471086705,
              36.36856996849633
            ],
            [
              10.450521880238304,
              36.369032351284496
            ],
            [
              10.450524050374536,
              36.36914904286306
            ],
            [
              10.450883693322249,
              36.369086312388916
            ],
            [
              10.45124333871539,
              36.369023580806875
            ],
            [
              10.45153083742523,
              36.36896172561744
            ],
            [
              10.452462213998512,
              36.36860024078218
            ],
            [
              10.453678904005296,
              36.36806019711443
            ],
            [
              10.454110684208572,
              36.367996578340716
            ],
            [
              10.454254974398232,
              36.367994820294655
            ],
            [
              10.454326031717093,
              36.36793560044995
            ],
            [
              10.45432711948837,
              36.36799394120629
            ],
            [
              10.454472494575,
              36.36805052863365
            ],
            [
              10.454693282543754,
              36.36828127360183
            ],
            [
              10.454829955495821,
              36.3678710950278
            ],
            [
              10.455179795452944,
              36.36728324553989
            ],
            [
              10.455606129104872,
              36.36692789303282
            ],
            [
              10.455891435309923,
              36.366749336263794
            ],
            [
              10.456322119982973,
              36.36662736398123
            ],
            [
              10.457110251763119,
              36.36632594997508
            ],
            [
              10.457399912610738,
              36.36638077227713
            ],
            [
              10.458331233141758,
              36.36601924278915
            ],
            [
              10.458836231965531,
              36.36601307135022
            ],
            [
              10.45905920923935,
              36.36636049935634
            ],
            [
              10.45942865926226,
              36.36682285380535
            ],
            [
              10.459733609546914,
              36.36769450835432
            ],
            [
              10.45995768779149,
              36.368100275000295
            ],
            [
              10.460256098514135,
              36.368621854497526
            ],
            [
              10.460622285774432,
              36.3689091681255
            ],
            [
              10.460768765714228,
              36.36902409318905
            ],
            [
              10.460914150198095,
              36.36908067257922
            ],
            [
              10.461278155802187,
              36.369251293048926
            ],
            [
              10.461568926528058,
              36.3693644503667
            ],
            [
              10.461641072647582,
              36.369363566833385
            ],
            [
              10.461788645263153,
              36.36953683117031
            ],
            [
              10.46186188508775,
              36.36959429299085
            ],
            [
              10.462154845462841,
              36.36982413979406
            ],
            [
              10.46237237897417,
              36.36987983344735
            ],
            [
              10.462662059397246,
              36.36993464253513
            ],
            [
              10.462806352615575,
              36.369932874081
            ],
            [
              10.462879587431486,
              36.3699903353233
            ],
            [
              10.462951734086626,
              36.3699894509855
            ],
            [
              10.463024975178133,
              36.37004691205951
            ],
            [
              10.463170363130692,
              36.37010348861341
            ],
            [
              10.463242509880928,
              36.370102604097674
            ],
            [
              10.46375082200644,
              36.370271447572485
            ],
            [
              10.463968357811863,
              36.370327138260514
            ],
            [
              10.464474481797776,
              36.37037928774419
            ],
            [
              10.46468982698009,
              36.37031828627788
            ],
            [
              10.464906261551931,
              36.370315629908944
            ],
            [
              10.465266995970794,
              36.37031120163129
            ],
            [
              10.465627730310933,
              36.3703067722649
            ],
            [
              10.465843074322374,
              36.37024576874325
            ],
            [
              10.466200517814169,
              36.37006630153126
            ],
            [
              10.467131838582404,
              36.369704703556216
            ],
            [
              10.467775658878425,
              36.36940499823372
            ],
            [
              10.46984919888709,
              36.368387379478605
            ],
            [
              10.470419752932413,
              36.368030198552866
            ],
            [
              10.470778275613052,
              36.36790906332167
            ],
            [
              10.47099140822704,
              36.367731365138994
            ],
            [
              10.471416569762765,
              36.367317612530975
            ],
            [
              10.472128098640724,
              36.36678360898592
            ],
            [
              10.472482207384266,
              36.36642908782594
            ],
            [
              10.472553242914234,
              36.3663698525981
            ],
            [
              10.472696427396029,
              36.36630972710907
            ],
            [
              10.47276746877064,
              36.36625049168336
            ],
            [
              10.473268061146408,
              36.3660108782547
            ],
            [
              10.4738374858831,
              36.36559534126536
            ],
            [
              10.474265928683433,
              36.36535661461362
            ],
            [
              10.47440910994534,
              36.36529648713385
            ],
            [
              10.475620065515216,
              36.364464498401844
            ],
            [
              10.4757610366224,
              36.36428767899712
            ],
            [
              10.476116221555284,
              36.36399149272877
            ],
            [
              10.476470299666856,
              36.36363696523184
            ],
            [
              10.476896514501489,
              36.36328153917509
            ],
            [
              10.477464794920289,
              36.362807635506265
            ],
            [
              10.477676787103087,
              36.362571575896744
            ],
            [
              10.477959817954185,
              36.362276277475786
            ],
            [
              10.478454840519593,
              36.3617449223716
            ],
            [
              10.47894875033858,
              36.36115521525489
            ],
            [
              10.479303909029664,
              36.36085901995915
            ],
            [
              10.480369362843893,
              36.35997042809628
            ],
            [
              10.483242586136399,
              36.36308612855407
            ],
            [
              10.486705411305893,
              36.36683635409325
            ],
            [
              10.488032916119892,
              36.36833713205805
            ],
            [
              10.490095304677178,
              36.37052902539997
            ],
            [
              10.494740021212477,
              36.375664844801655
            ],
            [
              10.496142230577423,
              36.37728130866926
            ],
            [
              10.498218540173442,
              36.38017317624857
            ],
            [
              10.49962988246197,
              36.38225634950356
            ],
            [
              10.500740305686849,
              36.38370134648654
            ],
            [
              10.504527327232038,
              36.3891976978353
            ],
            [
              10.506307724883202,
              36.39168463508791
            ],
            [
              10.506382145569129,
              36.39180041224985
            ],
            [
              10.506454310948046,
              36.391799501175264
            ]
          ]
        ],
        "type": "Polygon"
      }
    }
  ]
}
