{
  "type": "FeatureCollection",
  "features": [
    {
      "type": "Feature",
      "id": "kabouti-red-sector-preservation-ring",
      "properties": {
        "officialSectorCode": "136257",
        "sourcePdfSha256": "f9a2edf4a8f8e07c86c6d8d054f3c98cb296af4d8f5e6630f94ffe1aa01d9a9a",
        "sourceLayer": "circonscription_isie2023",
        "drawingIndex": 369,
        "drawingMethod": "Continuous closed line-only native GeoPDF vector path; no raster tracing, simplification or repair.",
        "role": "Preservation mask only; not a replacement Kabouti boundary."
      },
      "geometry": {
        "type": "Polygon",
        "coordinates": [
          [
            [
              10.347589911520751,
              36.596984643420356
            ],
            [
              10.347895717890697,
              36.596781649346475
            ],
            [
              10.348514246390433,
              36.5967746442147
            ],
            [
              10.348763388218112,
              36.59687158757205
            ],
            [
              10.348756466318907,
              36.59647260232754
            ],
            [
              10.349003011283022,
              36.59641992574083
            ],
            [
              10.349125851048491,
              36.59636865913786
            ],
            [
              10.348687692427944,
              36.596074326277865
            ],
            [
              10.347875830853319,
              36.595634574720975
            ],
            [
              10.347184235416098,
              36.59499392463301
            ],
            [
              10.346616342881584,
              36.59435187111261
            ],
            [
              10.346047596444663,
              36.59365994138821
            ],
            [
              10.345787246581668,
              36.59291464828576
            ],
            [
              10.345266562215778,
              36.591424042883745
            ],
            [
              10.345006227858704,
              36.59067873903877
            ],
            [
              10.344678876940081,
              36.58963489746763
            ],
            [
              10.344480401473364,
              36.58888889767244
            ],
            [
              10.34428192997161,
              36.58814289314986
            ],
            [
              10.344021617110997,
              36.587397590559966
            ],
            [
              10.343638481249886,
              36.5867035523451
            ],
            [
              10.343193508024903,
              36.58601021043185
            ],
            [
              10.34274941447856,
              36.585366744097556
            ],
            [
              10.342365439751706,
              36.584622827734336
            ],
            [
              10.341920490373203,
              36.5839294845797
            ],
            [
              10.341476409154694,
              36.583286008711525
            ],
            [
              10.340908651988,
              36.58264392825507
            ],
            [
              10.340341763597724,
              36.5820517140566
            ],
            [
              10.337895651124658,
              36.58008390499651
            ],
            [
              10.337205983306884,
              36.579542942238795
            ],
            [
              10.33613501256686,
              36.57840765262891
            ],
            [
              10.335751998814935,
              36.57771358985163
            ],
            [
              10.335615480231835,
              36.576966873481666
            ],
            [
              10.335606918790319,
              36.57646814179451
            ],
            [
              10.335974509808842,
              36.57626448504815
            ],
            [
              10.339562747230499,
              36.57632393588819
            ],
            [
              10.340493735390659,
              36.57651299081508
            ],
            [
              10.342225167166939,
              36.576493485142215
            ],
            [
              10.343278965461295,
              36.57663124634821
            ],
            [
              10.343656016119306,
              36.57697617398492
            ],
            [
              10.34434742803465,
              36.57761685022501
            ],
            [
              10.34534459233598,
              36.578054535385775
            ],
            [
              10.346216364963826,
              36.578393859422945
            ],
            [
              10.347403373653167,
              36.57907879598303
            ],
            [
              10.34802953899064,
              36.57952065614358
            ],
            [
              10.348215920585101,
              36.57956842888864
            ],
            [
              10.34852425160898,
              36.57951505399484
            ],
            [
              10.348842959154968,
              36.58006015363321
            ],
            [
              10.349094641773274,
              36.5803067175272
            ],
            [
              10.34928275599612,
              36.58045423511017
            ],
            [
              10.349717365217117,
              36.580549075227694
            ],
            [
              10.349963859149671,
              36.580496397574116
            ],
            [
              10.350579659502976,
              36.58033976461022
            ],
            [
              10.3512581631331,
              36.58023229994426
            ],
            [
              10.351940121327685,
              36.580324324483584
            ],
            [
              10.352129974656432,
              36.58057158390484
            ],
            [
              10.352381669222506,
              36.58081814058538
            ],
            [
              10.352939964074457,
              36.58091156391778
            ],
            [
              10.353064511718863,
              36.58096003163185
            ],
            [
              10.353311872122678,
              36.58095722027207
            ],
            [
              10.353499127984321,
              36.58105485779448
            ],
            [
              10.353748224554039,
              36.58115179189369
            ],
            [
              10.35418023795306,
              36.581096995998095
            ],
            [
              10.354612250692611,
              36.58104219854843
            ],
            [
              10.354860479868558,
              36.58108925713252
            ],
            [
              10.355171418320646,
              36.58118548026415
            ],
            [
              10.35554419789521,
              36.58128100274278
            ],
            [
              10.3557906793827,
              36.58122831742295
            ],
            [
              10.356037170859334,
              36.581175623025835
            ],
            [
              10.356222691452906,
              36.58117350991714
            ],
            [
              10.356408212027153,
              36.581171396519814
            ],
            [
              10.35684457316647,
              36.58136596083747
            ],
            [
              10.357093674635575,
              36.58146288360371
            ],
            [
              10.357526557404608,
              36.58145794869816
            ],
            [
              10.357775660054124,
              36.581554874240695
            ],
            [
              10.357901082249848,
              36.581653209904694
            ],
            [
              10.357904564839759,
              36.58185270227403
            ],
            [
              10.358035212140722,
              36.582250276304535
            ],
            [
              10.358224218639878,
              36.58244765235617
            ],
            [
              10.358658849017315,
              36.58254245937274
            ],
            [
              10.35940268682642,
              36.58263373472436
            ],
            [
              10.360020216971938,
              36.58257679928524
            ],
            [
              10.360635139312471,
              36.582370241454434
            ],
            [
              10.361253549563076,
              36.58236317258661
            ],
            [
              10.361811864968688,
              36.582456553875474
            ],
            [
              10.36230659349489,
              36.58245089414269
            ],
            [
              10.362735985736682,
              36.58224644824374
            ],
            [
              10.36304169425875,
              36.58204341684105
            ],
            [
              10.363347401171096,
              36.58184038468071
            ],
            [
              10.36358951749779,
              36.581538314074834
            ],
            [
              10.363836004209054,
              36.58148560786537
            ],
            [
              10.36401277937865,
              36.58098475713087
            ],
            [
              10.364006657559974,
              36.58063564631468
            ],
            [
              10.364249631860325,
              36.58038344753467
            ],
            [
              10.365111006476134,
              36.5801241596522
            ],
            [
              10.365587333440388,
              36.579071158792665
            ],
            [
              10.366070654075417,
              36.57841713551296
            ],
            [
              10.36587113038039,
              36.57762130070542
            ],
            [
              10.366291727466496,
              36.576918112987954
            ],
            [
              10.36708245656324,
              36.576160795902744
            ],
            [
              10.367631965957074,
              36.575755421376606
            ],
            [
              10.368247679842598,
              36.5755986986415
            ],
            [
              10.368609919117981,
              36.57509570544581
            ],
            [
              10.368546329528842,
              36.57499667031734
            ],
            [
              10.368665612745096,
              36.57474588843042
            ],
            [
              10.368844097328465,
              36.574344772582705
            ],
            [
              10.368905931751627,
              36.574344061714676
            ],
            [
              10.369215103834941,
              36.57434050689368
            ],
            [
              10.369339650420066,
              36.574388957657796
            ],
            [
              10.369523397980057,
              36.57428707835765
            ],
            [
              10.36958435441804,
              36.57423649422558
            ],
            [
              10.369581720666204,
              36.57408687548497
            ],
            [
              10.369455418768847,
              36.57393867912921
            ],
            [
              10.36951374139849,
              36.57373847628023
            ],
            [
              10.369573819527472,
              36.57363801923957
            ],
            [
              10.370125932782637,
              36.57338225243404
            ],
            [
              10.37024872170588,
              36.57333095646178
            ],
            [
              10.370371510463656,
              36.573279660365955
            ],
            [
              10.370492542188076,
              36.57312862256824
            ],
            [
              10.370737239944528,
              36.57297615686825
            ],
            [
              10.370860027734052,
              36.572924856057455
            ],
            [
              10.370919224841655,
              36.57277452970468
            ],
            [
              10.370853876970088,
              36.57257574999307
            ],
            [
              10.370976664127463,
              36.57252445330089
            ],
            [
              10.371099451119377,
              36.57247315648517
            ],
            [
              10.37116128399201,
              36.572472444478436
            ],
            [
              10.3711586473678,
              36.57232282579213
            ],
            [
              10.37121784339512,
              36.572172495070795
            ],
            [
              10.371278797081612,
              36.57212191011261
            ],
            [
              10.371587959999756,
              36.572118349322416
            ],
            [
              10.371774336985865,
              36.57216608534837
            ],
            [
              10.371898881547283,
              36.57221453349474
            ],
            [
              10.371959834810374,
              36.572163948197186
            ],
            [
              10.3719589554299,
              36.57211407531627
            ],
            [
              10.371957196675448,
              36.572014329553134
            ],
            [
              10.372018149746356,
              36.571963744228206
            ],
            [
              10.3721409246532,
              36.571912446488646
            ],
            [
              10.372326421842597,
              36.571910308779714
            ],
            [
              10.372573751398058,
              36.57190745805233
            ],
            [
              10.372759248541845,
              36.5719053196702
            ],
            [
              10.37294386566068,
              36.571853308136994
            ],
            [
              10.373065770156604,
              36.57175213647762
            ],
            [
              10.373247746187971,
              36.57155051013266
            ],
            [
              10.373246865924468,
              36.57150063304627
            ],
            [
              10.373245105627781,
              36.571400891553886
            ],
            [
              10.373119681493193,
              36.57130257193472
            ],
            [
              10.372996017712532,
              36.571303997908714
            ],
            [
              10.372872353923178,
              36.57130542375447
            ],
            [
              10.372871473983526,
              36.571255550885404
            ],
            [
              10.372868834177567,
              36.57110593227564
            ],
            [
              10.372929785943676,
              36.571055346504416
            ],
            [
              10.3729898576242,
              36.57095488783419
            ],
            [
              10.373049929152286,
              36.5708544291353
            ],
            [
              10.37304904911294,
              36.570804556266175
            ],
            [
              10.37311088060485,
              36.57080384327602
            ],
            [
              10.373234543582152,
              36.570802417199545
            ],
            [
              10.373297255265822,
              36.5708515769772
            ],
            [
              10.373360847271298,
              36.5709506095816
            ],
            [
              10.373361727515816,
              36.57100048244298
            ],
            [
              10.373423559155793,
              36.570999769287404
            ],
            [
              10.373484510469615,
              36.570949183240955
            ],
            [
              10.373667363934254,
              36.570797424922084
            ],
            [
              10.373728314930192,
              36.570746838755966
            ],
            [
              10.373849336136459,
              36.57059579347982
            ],
            [
              10.37390940627383,
              36.570495334371046
            ],
            [
              10.373781341338027,
              36.57024739684927
            ],
            [
              10.373904122823822,
              36.57019609723952
            ],
            [
              10.374152327478065,
              36.57024311620439
            ],
            [
              10.37427510869938,
              36.57019181621768
            ],
            [
              10.374397889829902,
              36.5701405203347
            ],
            [
              10.37458338260609,
              36.570138379202554
            ],
            [
              10.374706163289575,
              36.57008707455314
            ],
            [
              10.37476711312191,
              36.570036492103085
            ],
            [
              10.374766231930085,
              36.56998661503579
            ],
            [
              10.374578096550247,
              36.56983913791042
            ],
            [
              10.374514504043184,
              36.56974011017833
            ],
            [
              10.374573691700286,
              36.569589777904895
            ],
            [
              10.374695590552538,
              36.56948860466051
            ],
            [
              10.374819251350749,
              36.56948717698406
            ],
            [
              10.374942030927803,
              36.56943587633839
            ],
            [
              10.375189352321796,
              36.56943302034954
            ],
            [
              10.375313013005739,
              36.56943159216281
            ],
            [
              10.37543491062689,
              36.569330418185125
            ],
            [
              10.37549585931827,
              36.56927983115141
            ],
            [
              10.375556807930186,
              36.569229244087786
            ],
            [
              10.375681349950703,
              36.56927768835399
            ],
            [
              10.37580677388794,
              36.569376005310225
            ],
            [
              10.375994028499663,
              36.56947360766291
            ],
            [
              10.37611768920647,
              36.56947217864016
            ],
            [
              10.37617775554466,
              36.569371718449794
            ],
            [
              10.37629788776382,
              36.56917079798311
            ],
            [
              10.376357953644794,
              36.56907033770681
            ],
            [
              10.37629347741813,
              36.56892143390236
            ],
            [
              10.37616805363429,
              36.56882311744855
            ],
            [
              10.376167171655474,
              36.568773244627636
            ],
            [
              10.376165407704358,
              36.5686734989845
            ],
            [
              10.37635001474321,
              36.56862148235733
            ],
            [
              10.37647367407309,
              36.56862005299378
            ],
            [
              10.376536375460491,
              36.5686692111996
            ],
            [
              10.376661809928475,
              36.568767527142434
            ],
            [
              10.376724511554213,
              36.56881668524307
            ],
            [
              10.37678545898999,
              36.56876609757183
            ],
            [
              10.376846406346306,
              36.56871550987066
            ],
            [
              10.376906471174125,
              36.56861504933284
            ],
            [
              10.376966535849546,
              36.56851458876638
            ],
            [
              10.377088429855725,
              36.56841341315808
            ],
            [
              10.377333982336204,
              36.56831080718458
            ],
            [
              10.377519470508075,
              36.56830866157581
            ],
            [
              10.37763871482225,
              36.56805787126095
            ],
            [
              10.377759724255743,
              36.567906822196434
            ],
            [
              10.377881616271075,
              36.567805645808804
            ],
            [
              10.378004391093564,
              36.567754342092925
            ],
            [
              10.378372714568316,
              36.56760043020437
            ],
            [
              10.378620029753492,
              36.56759756722126
            ],
            [
              10.378923871432399,
              36.56729475112469
            ],
            [
              10.37898304875744,
              36.567144416821
            ],
            [
              10.378916801882976,
              36.56689576890491
            ],
            [
              10.378974211510483,
              36.56664568904172
            ],
            [
              10.379096100046985,
              36.56654451569361
            ],
            [
              10.379278932143484,
              36.566392749106306
            ],
            [
              10.379463531557636,
              36.566340727795556
            ],
            [
              10.37946087951181,
              36.5661911094764
            ],
            [
              10.379272744885988,
              36.56604363966477
            ],
            [
              10.379210033502929,
              36.56599448299075
            ],
            [
              10.379208265818468,
              36.56589473742864
            ],
            [
              10.379637521246353,
              36.56569023294475
            ],
            [
              10.379878640385469,
              36.565338258071804
            ],
            [
              10.379680781914074,
              36.56464219252307
            ],
            [
              10.379603926736209,
              36.563795071437376
            ],
            [
              10.379784099173468,
              36.563493690021375
            ],
            [
              10.379648955677924,
              36.56284677631285
            ],
            [
              10.379951891034501,
              36.56249408504199
            ],
            [
              10.380499457199832,
              36.561988912506365
            ],
            [
              10.380429672475106,
              36.561540774067744
            ],
            [
              10.38066901691061,
              36.561089051999495
            ],
            [
              10.380972815263645,
              36.56078623118694
            ],
            [
              10.381277506737641,
              36.560533282296774
            ],
            [
              10.381270426905852,
              36.56013430424635
            ],
            [
              10.381321629605207,
              36.55953511371752
            ],
            [
              10.381253612686313,
              36.55918672122493
            ],
            [
              10.381182056912417,
              36.55863883746092
            ],
            [
              10.380747536639682,
              36.55854411420267
            ],
            [
              10.380376607466195,
              36.558548414196274
            ],
            [
              10.38000215225221,
              36.55835322160626
            ],
            [
              10.3793812871258,
              36.55821076519996
            ],
            [
              10.379377752329624,
              36.55801127382742
            ],
            [
              10.379745143377614,
              36.55780748564656
            ],
            [
              10.379862597324463,
              36.5574569432645
            ],
            [
              10.379793705199058,
              36.55705868102833
            ],
            [
              10.379479300994957,
              36.55676302473334
            ],
            [
              10.379284121100767,
              36.55621657136757
            ],
            [
              10.37940157497021,
              36.55586602935567
            ],
            [
              10.379264683016416,
              36.55511937254685
            ],
            [
              10.379797188368906,
              36.55376636470395
            ],
            [
              10.379851051394459,
              36.5533167926558
            ],
            [
              10.379469543909963,
              36.55272261473073
            ],
            [
              10.379274375171931,
              36.55217616077244
            ],
            [
              10.37888934532475,
              36.55138249327071
            ],
            [
              10.37819613002447,
              36.550642274115184
            ],
            [
              10.378181124475548,
              36.549794434232595
            ],
            [
              10.378180241815768,
              36.54974456129439
            ],
            [
              10.37587108232566,
              36.54852418417983
            ],
            [
              10.375808387560593,
              36.54847502523153
            ],
            [
              10.375240615469673,
              36.5478331052865
            ],
            [
              10.374610159859326,
              36.547142018516844
            ],
            [
              10.373919663133778,
              36.54655138724335
            ],
            [
              10.37316824455452,
              36.546011337404906
            ],
            [
              10.372854790261181,
              36.54576553471064
            ],
            [
              10.372417715221204,
              36.5455211556569
            ],
            [
              10.371543583874374,
              36.545032396645475
            ],
            [
              10.370671208285456,
              36.544643377351775
            ],
            [
              10.36979884122448,
              36.54425434723827
            ],
            [
              10.368866425600544,
              36.54396576726956
            ],
            [
              10.367873082536393,
              36.543727762908716
            ],
            [
              10.366941565695555,
              36.54348904067528
            ],
            [
              10.366010043892786,
              36.543250311153706
            ],
            [
              10.365015844063901,
              36.54296240931849
            ],
            [
              10.364084334073175,
              36.54272366447239
            ],
            [
              10.363091030967386,
              36.542485623683376
            ],
            [
              10.36215866005777,
              36.54219699019941
            ],
            [
              10.361909680167727,
              36.54210007067535
            ],
            [
              10.361287233106939,
              36.54185776952669
            ],
            [
              10.360663918780423,
              36.5415655958928
            ],
            [
              10.360414071726694,
              36.541418799777496
            ],
            [
              10.359601857663465,
              36.54092924027624
            ],
            [
              10.35885060197745,
              36.54038909635524
            ],
            [
              10.358099346234166,
              36.53984894755413
            ],
            [
              10.357409907798118,
              36.539308093651925
            ],
            [
              10.356781416721619,
              36.53871665381696
            ],
            [
              10.356214741231863,
              36.53812451094962
            ],
            [
              10.355586268929821,
              36.53753306431105
            ],
            [
              10.354957816722612,
              36.53694161398401
            ],
            [
              10.354330230633858,
              36.53640003798094
            ],
            [
              10.353763590868315,
              36.53580787827158
            ],
            [
              10.353134290109995,
              36.53516654835707
            ],
            [
              10.352373603142038,
              36.53407775155977
            ],
            [
              10.351678200257915,
              36.53318774676151
            ],
            [
              10.351233478186549,
              36.53249442394133
            ],
            [
              10.35072782772426,
              36.53185167787961
            ],
            [
              10.350284860839382,
              36.53125809825588
            ],
            [
              10.350221332030628,
              36.531159051411926
            ],
            [
              10.349773179799572,
              36.53026622765575
            ],
            [
              10.349698424071605,
              36.529518830895384
            ],
            [
              10.349671649722476,
              36.52797274601273
            ],
            [
              10.349124100845767,
              36.528477783275726
            ],
            [
              10.348766256862007,
              36.52923008780044
            ],
            [
              10.348337115099282,
              36.52943447983402
            ],
            [
              10.347850484248752,
              36.529888929829994
            ],
            [
              10.34772774774344,
              36.529940210430276
            ],
            [
              10.346988738212598,
              36.53009821101006
            ],
            [
              10.346866000637565,
              36.53014948228548
            ],
            [
              10.345878936781736,
              36.530260405306954
            ],
            [
              10.345140781069711,
              36.53046827679893
            ],
            [
              10.344905630244847,
              36.5311693009243
            ],
            [
              10.344666172548656,
              36.531620955675066
            ],
            [
              10.343745176842775,
              36.531980532913146
            ],
            [
              10.343123725168702,
              36.53178800749286
            ],
            [
              10.342373530374884,
              36.53129762857035
            ],
            [
              10.34168599358906,
              36.53085642262234
            ],
            [
              10.340941813204116,
              36.53071515141415
            ],
            [
              10.340325524676828,
              36.53082185427887
            ],
            [
              10.339835407844376,
              36.53107678552226
            ],
            [
              10.339040567814704,
              36.531584558177066
            ],
            [
              10.338551298500194,
              36.53188935819948
            ],
            [
              10.337509244806174,
              36.53239989415671
            ],
            [
              10.336771044968991,
              36.53260771886214
            ],
            [
              10.336151314531804,
              36.532514900532824
            ],
            [
              10.335716991197874,
              36.532420004349575
            ],
            [
              10.33490844077821,
              36.53212977088267
            ],
            [
              10.333978005916611,
              36.53194065973232
            ],
            [
              10.333424352008453,
              36.53209650920406
            ],
            [
              10.331893804991338,
              36.53296164848589
            ],
            [
              10.330357263582155,
              36.533477654508175
            ],
            [
              10.329563186365782,
              36.534035235388124
            ],
            [
              10.328701346465348,
              36.53424438613727
            ],
            [
              10.328085861270361,
              36.53440090068169
            ],
            [
              10.327781941840971,
              36.534703590244305
            ],
            [
              10.327477170429521,
              36.53495640495937
            ],
            [
              10.325991330547971,
              36.5348233035536
            ],
            [
              10.325250530156449,
              36.534881431276816
            ],
            [
              10.324452162764416,
              36.53518961245903
            ],
            [
              10.324142298659332,
              36.53514317381856
            ],
            [
              10.323580976793256,
              36.534850110744785
            ],
            [
              10.323150888451565,
              36.535004539729094
            ],
            [
              10.322846100440609,
              36.53525734292335
            ],
            [
              10.322493048882196,
              36.5363088145207
            ],
            [
              10.322195029143169,
              36.53696060542287
            ],
            [
              10.321960498064394,
              36.53771146235855
            ],
            [
              10.321223894873016,
              36.53801893666663
            ],
            [
              10.320604982480791,
              36.53797591654963
            ],
            [
              10.31806669898827,
              36.53775461336868
            ],
            [
              10.316528275643302,
              36.538170696020266
            ],
            [
              10.316345382554548,
              36.53832236820191
            ],
            [
              10.316348752888508,
              36.53852186540655
            ],
            [
              10.315507034489347,
              36.53992790142905
            ],
            [
              10.315454488739249,
              36.54047719716995
            ],
            [
              10.315644968317557,
              36.540774394948215
            ],
            [
              10.316085208666168,
              36.5412184837251
            ],
            [
              10.316213882929272,
              36.541516363419824
            ],
            [
              10.316669308325471,
              36.54285818231201
            ],
            [
              10.316483876325323,
              36.542860232029284
            ],
            [
              10.315991923621617,
              36.54301531928627
            ],
            [
              10.315683711867278,
              36.54306860785438
            ],
            [
              10.315126572140361,
              36.543024877287245
            ],
            [
              10.314629560534966,
              36.54288071329116
            ],
            [
              10.314438237890823,
              36.54253363971405
            ],
            [
              10.31425112384514,
              36.5424359415559
            ],
            [
              10.313939548403749,
              36.54228972834186
            ],
            [
              10.313322291511978,
              36.542346419643906
            ],
            [
              10.31307505013795,
              36.54234914556443
            ],
            [
              10.312826968287835,
              36.54230199663369
            ],
            [
              10.312701666930314,
              36.542203610459204
            ],
            [
              10.312638176055037,
              36.54210454297529
            ],
            [
              10.312573004807437,
              36.54190572675864
            ],
            [
              10.312509514349655,
              36.54180665919318
            ],
            [
              10.312070965225747,
              36.541462305691034
            ],
            [
              10.311760237406709,
              36.5413659609629
            ],
            [
              10.31144783653173,
              36.541169866598814
            ],
            [
              10.311132914049821,
              36.54082414828186
            ],
            [
              10.310882320723378,
              36.5406273720023
            ],
            [
              10.310695215578974,
              36.54052966382274
            ],
            [
              10.3104437854571,
              36.5402830121689
            ],
            [
              10.310379460268464,
              36.54013406895601
            ],
            [
              10.310190679655657,
              36.53993661534794
            ],
            [
              10.310003577040076,
              36.53983890602091
            ],
            [
              10.309816480130902,
              36.53974119633157
            ],
            [
              10.309690343139236,
              36.539592932425464
            ],
            [
              10.309442277228444,
              36.539545776154206
            ],
            [
              10.309194206363356,
              36.539498619417955
            ],
            [
              10.308759873603245,
              36.539403625260896
            ],
            [
              10.308573611714358,
              36.539355792294074
            ],
            [
              10.307893722748002,
              36.53936325974691
            ],
            [
              10.307523716231422,
              36.53941720145416
            ],
            [
              10.307339128668461,
              36.53946911548681
            ],
            [
              10.306967442786059,
              36.53942330658806
            ],
            [
              10.306719373730376,
              36.53937614889057
            ],
            [
              10.306102128205142,
              36.53943279830739
            ],
            [
              10.305854059589231,
              36.53938563879948
            ],
            [
              10.305669470762929,
              36.539437541813356
            ],
            [
              10.305610174950605,
              36.539587842790326
            ],
            [
              10.30499459749352,
              36.539744239773526
            ],
            [
              10.30474819875625,
              36.5397968227854
            ],
            [
              10.30419275679555,
              36.539852789558815
            ],
            [
              10.304007331045767,
              36.53985481973327
            ],
            [
              10.303699122593109,
              36.53990807725799
            ],
            [
              10.303205492866695,
              36.53996336286944
            ],
            [
              10.302834640674655,
              36.53996741987056
            ],
            [
              10.302771998057,
              36.539918221366364
            ],
            [
              10.302462120983758,
              36.53987172658828
            ],
            [
              10.302211552225906,
              36.53967493155107
            ],
            [
              10.301778892763824,
              36.539679660969114
            ],
            [
              10.301284429924372,
              36.53968506403967
            ],
            [
              10.301038028625504,
              36.5397376394303
            ],
            [
              10.300914411489096,
              36.53973898963829
            ],
            [
              10.300666344639106,
              36.53969181506738
            ],
            [
              10.300481751446897,
              36.539743714357456
            ],
            [
              10.30023534936866,
              36.539796288103126
            ],
            [
              10.299926306180216,
              36.539799661307455
            ],
            [
              10.299801856891381,
              36.539751135745846
            ],
            [
              10.29949447743284,
              36.539854257073365
            ],
            [
              10.29924641098484,
              36.539807079538924
            ],
            [
              10.298877227010024,
              36.539910873430195
            ],
            [
              10.298259970349713,
              36.53996748666572
            ],
            [
              10.29801190420951,
              36.53992030655568
            ],
            [
              10.297514942257987,
              36.539776070103784
            ],
            [
              10.297451477837864,
              36.5396769940093
            ],
            [
              10.297266046770234,
              36.539679013750956
            ],
            [
              10.297141604495861,
              36.53963048531737
            ],
            [
              10.297017987338794,
              36.53963183148311
            ],
            [
              10.296830901417051,
              36.53953410113257
            ],
            [
              10.296521858854529,
              36.539537465494035
            ],
            [
              10.29621032719025,
              36.539391204976766
            ],
            [
              10.295961434499098,
              36.53929414583719
            ],
            [
              10.295835329584238,
              36.53914587088993
            ],
            [
              10.295769374423541,
              36.53889716977863
            ],
            [
              10.295766886285909,
              36.53874754565807
            ],
            [
              10.295269941034727,
              36.53860329953112
            ],
            [
              10.294528247230236,
              36.53861136277023
            ],
            [
              10.294151601898173,
              36.53826626946763
            ],
            [
              10.293839251566292,
              36.53807012778539
            ],
            [
              10.293648861355779,
              36.53777289324134
            ],
            [
              10.293337342057828,
              36.53762662492651
            ],
            [
              10.293090118983237,
              36.53762930906071
            ],
            [
              10.292778601277918,
              36.5374830392502
            ],
            [
              10.292528064341372,
              36.537286223143326
            ],
            [
              10.292218203215649,
              36.537239705616
            ],
            [
              10.291905861823365,
              36.53704355865676
            ],
            [
              10.29172126860431,
              36.53709544439633
            ],
            [
              10.29159434863901,
              36.53689728564706
            ],
            [
              10.291408929019385,
              36.53689929609421
            ],
            [
              10.290846889569178,
              36.53655620192989
            ],
            [
              10.290844411127683,
              36.53640657745983
            ],
            [
              10.29028485243175,
              36.536213105026796
            ],
            [
              10.290094483117045,
              36.53591586855569
            ],
            [
              10.289651112881923,
              36.53527218049868
            ],
            [
              10.289341261257547,
              36.53522565105827
            ],
            [
              10.28883362476695,
              36.53443300400707
            ],
            [
              10.288270787470957,
              36.53404002212013
            ],
            [
              10.287896667347745,
              36.53384453671334
            ],
            [
              10.287267092655831,
              36.53315297281329
            ],
            [
              10.286956429770346,
              36.533056557781926
            ],
            [
              10.28657572868589,
              36.53246206857643
            ],
            [
              10.28632769302619,
              36.532414863482614
            ],
            [
              10.285190570793247,
              36.530930622173074
            ],
            [
              10.284060881707898,
              36.52989525243334
            ],
            [
              10.283315985948736,
              36.52970374419992
            ],
            [
              10.28312565699627,
              36.52940649124544
            ],
            [
              10.282876814836934,
              36.529309403649755
            ],
            [
              10.282309122143365,
              36.528617141657456
            ],
            [
              10.281926841197997,
              36.52792288165815
            ],
            [
              10.28085658015603,
              36.52673718900784
            ],
            [
              10.280602833712058,
              36.52634084576555
            ],
            [
              10.279526887779598,
              36.52480600562807
            ],
            [
              10.27635834674235,
              36.527583613168616
            ],
            [
              10.278554860788407,
              36.52960529000696
            ],
            [
              10.28140313109885,
              36.5336651493733
            ],
            [
              10.282671224689123,
              36.53559696643732
            ],
            [
              10.282625835933136,
              36.53659512750052
            ],
            [
              10.282626656806046,
              36.53664500248368
            ],
            [
              10.282504685287028,
              36.53674608348081
            ],
            [
              10.282507147691994,
              36.536895708432255
            ],
            [
              10.281711865227548,
              36.53740310277637
            ],
            [
              10.281467097023077,
              36.53755539207689
            ],
            [
              10.28122478773394,
              36.53785729743745
            ],
            [
              10.280605075502281,
              36.53776419416316
            ],
            [
              10.28023341113335,
              36.53771830565871
            ],
            [
              10.279988638892673,
              36.53787058776504
            ],
            [
              10.279993554227786,
              36.538169837901854
            ],
            [
              10.280060277703955,
              36.53846842379509
            ],
            [
              10.280250618329665,
              36.53876568099587
            ],
            [
              10.280005842883424,
              36.538917963175535
            ],
            [
              10.279761069091078,
              36.53907024483955
            ],
            [
              10.279450388486099,
              36.53897381488065
            ],
            [
              10.279081993549637,
              36.5391274230142
            ],
            [
              10.27877704283876,
              36.53938011653046
            ],
            [
              10.278282574802132,
              36.53938542422194
            ],
            [
              10.277662035620665,
              36.53924243078951
            ],
            [
              10.277479879980358,
              36.539443919926924
            ],
            [
              10.277112296180027,
              36.53964739714516
            ],
            [
              10.276740624429454,
              36.53960149367503
            ],
            [
              10.276558468230418,
              36.539802985655406
            ],
            [
              10.275937111857521,
              36.539610103946394
            ],
            [
              10.275507713918447,
              36.539814242645605
            ],
            [
              10.275017320218351,
              36.540068908153174
            ],
            [
              10.274706643720933,
              36.53997246578291
            ],
            [
              10.274461850703142,
              36.54012473686503
            ],
            [
              10.27414872804063,
              36.53987866767863
            ],
            [
              10.273964115441872,
              36.53993052626463
            ],
            [
              10.273841312011827,
              36.5399817235409
            ],
            [
              10.27359570727783,
              36.540084117694114
            ],
            [
              10.273219960590414,
              36.539788831799534
            ],
            [
              10.272908469973318,
              36.539642509557
            ],
            [
              10.272601053197016,
              36.53974556646646
            ],
            [
              10.272357076169435,
              36.53994770416918
            ],
            [
              10.271859344507538,
              36.53975348890634
            ],
            [
              10.271241254148547,
              36.53976008741224
            ],
            [
              10.27093627482174,
              36.54001275716556
            ],
            [
              10.27037755246289,
              36.53986907034019
            ],
            [
              10.269882264221126,
              36.539824463862765
            ],
            [
              10.26933085552015,
              36.540129644740325
            ],
            [
              10.267918975405767,
              36.54074328514293
            ],
            [
              10.26748873930119,
              36.54089751597486
            ],
            [
              10.266933258722505,
              36.5409533098082
            ],
            [
              10.266683584977699,
              36.54080631369724
            ],
            [
              10.266077639338231,
              36.54156101454267
            ],
            [
              10.265344820622593,
              36.54211752476482
            ],
            [
              10.26467380185897,
              36.54267337433115
            ],
            [
              10.263874296105685,
              36.542931276186536
            ],
            [
              10.263191130962213,
              36.542738992392664
            ],
            [
              10.262509585292484,
              36.54264645103028
            ],
            [
              10.261943587037539,
              36.542053842601014
            ],
            [
              10.261449904868044,
              36.54210895618565
            ],
            [
              10.260890375093222,
              36.54191534533054
            ],
            [
              10.26027629829471,
              36.542171264167315
            ],
            [
              10.260029857536248,
              36.54222375548706
            ],
            [
              10.259968047308352,
              36.542224409377376
            ],
            [
              10.26078450682792,
              36.543013911844604
            ],
            [
              10.260912166646794,
              36.54326197565047
            ],
            [
              10.261039020157254,
              36.54346016817775
            ],
            [
              10.261169910776013,
              36.543907733016056
            ],
            [
              10.261175561984603,
              36.54425686036722
            ],
            [
              10.261119399883448,
              36.54460664223449
            ],
            [
              10.261123436391843,
              36.54485601889162
            ],
            [
              10.261375535630712,
              36.545152652472275
            ],
            [
              10.26169025594851,
              36.54549850599649
            ],
            [
              10.261943976513018,
              36.54589488886375
            ],
            [
              10.26207164377095,
              36.5461429553888
            ],
            [
              10.262074875533338,
              36.5463424523633
            ],
            [
              10.262138306306541,
              36.546441547900116
            ],
            [
              10.262262742767648,
              36.546490112989815
            ],
            [
              10.262510003584088,
              36.54648749214844
            ],
            [
              10.262822309093078,
              36.54668371655416
            ],
            [
              10.26338511336248,
              36.547076814280956
            ],
            [
              10.263760051903517,
              36.54732225558939
            ],
            [
              10.263948733891585,
              36.54751978868241
            ],
            [
              10.264074791745617,
              36.547668102319314
            ],
            [
              10.264204898276365,
              36.54806579202262
            ],
            [
              10.264269142635255,
              36.548214761560104
            ],
            [
              10.264457018579897,
              36.548362418514614
            ],
            [
              10.264644086873522,
              36.548460199909435
            ],
            [
              10.264706714290758,
              36.54850941870316
            ],
            [
              10.264831154323142,
              36.548557981013914
            ],
            [
              10.265081661323295,
              36.54875485560995
            ],
            [
              10.265207723383247,
              36.548903167937944
            ],
            [
              10.265396412882707,
              36.54910069431506
            ],
            [
              10.26583318332466,
              36.54934547189571
            ],
            [
              10.266331773749663,
              36.5495895905292
            ],
            [
              10.266520467847029,
              36.54978711924439
            ],
            [
              10.267206136094176,
              36.550129012123286
            ],
            [
              10.26745502971166,
              36.550226126922695
            ],
            [
              10.267891811552007,
              36.55047089668038
            ],
            [
              10.26864093453491,
              36.550911873170264
            ],
            [
              10.269140356297624,
              36.55120585475319
            ],
            [
              10.269452700018945,
              36.55140206091421
            ],
            [
              10.269953751711435,
              36.55179578918438
            ],
            [
              10.27001963678147,
              36.55204450545632
            ],
            [
              10.270085522296611,
              36.55229322167349
            ],
            [
              10.270400313275474,
              36.5526390504525
            ],
            [
              10.270463759865725,
              36.55273813692291
            ],
            [
              10.270654911815516,
              36.55308527966372
            ],
            [
              10.27078099294432,
              36.553233585634615
            ],
            [
              10.270845254396642,
              36.55338255117303
            ],
            [
              10.270908704874175,
              36.5534816415711
            ],
            [
              10.270974591961684,
              36.55373035718701
            ],
            [
              10.270977847572167,
              36.553929857448175
            ],
            [
              10.271167379507041,
              36.55417725327776
            ],
            [
              10.271606636935324,
              36.554571633769946
            ],
            [
              10.272226477220313,
              36.55466478112774
            ],
            [
              10.272786127876554,
              36.55485833601662
            ],
            [
              10.273534505270693,
              36.55524940506005
            ],
            [
              10.274218620130542,
              36.555491505767826
            ],
            [
              10.274282073977847,
              36.55559059001895
            ],
            [
              10.274542421391404,
              36.55638594335983
            ],
            [
              10.274610774333995,
              36.55678427723031
            ],
            [
              10.274439998029003,
              36.557684011650565
            ],
            [
              10.274325328941114,
              36.55823395946741
            ],
            [
              10.27427003416048,
              36.558633616504814
            ],
            [
              10.274396131419914,
              36.55878191820629
            ],
            [
              10.27452141283371,
              36.55888034480727
            ],
            [
              10.274708519094668,
              36.558978109497616
            ],
            [
              10.274957447801926,
              36.55907521200977
            ],
            [
              10.275082730395036,
              36.55917363799289
            ],
            [
              10.275208830091094,
              36.559321938774005
            ],
            [
              10.275522038966793,
              36.55956800276477
            ],
            [
              10.275716499649327,
              36.56011464014883
            ],
            [
              10.275846690805762,
              36.5605123105075
            ],
            [
              10.275980150127367,
              36.56110948456012
            ],
            [
              10.276176253094246,
              36.561755866489705
            ],
            [
              10.276557026068522,
              36.562350389025205
            ],
            [
              10.276747414782182,
              36.56264764977229
            ],
            [
              10.276872705496126,
              36.56274607365919
            ],
            [
              10.276935350972257,
              36.56279528555033
            ],
            [
              10.277060642162851,
              36.56289370922797
            ],
            [
              10.277312041127267,
              36.563140431057484
            ],
            [
              10.277565081096633,
              36.56348689777398
            ],
            [
              10.27763100149706,
              36.56373560869127
            ],
            [
              10.27769855939657,
              36.56408406925252
            ],
            [
              10.277954057766301,
              36.5645801595505
            ],
            [
              10.277896324838146,
              36.56483019726298
            ],
            [
              10.277714111737222,
              36.5650316870774
            ],
            [
              10.277715748875362,
              36.56513143675801
            ],
            [
              10.27778085269281,
              36.56533027265141
            ],
            [
              10.277722297508587,
              36.565530435463046
            ],
            [
              10.27772393468706,
              36.56563018513497
            ],
            [
              10.27778658307439,
              36.56567939649931
            ],
            [
              10.277910242658463,
              36.565678069461235
            ],
            [
              10.278157559181103,
              36.56567541502852
            ],
            [
              10.278344689124173,
              36.56577317346357
            ],
            [
              10.278531814291371,
              36.565870931650295
            ],
            [
              10.278844241191612,
              36.5660671111112
            ],
            [
              10.27915748912555,
              36.56631316029062
            ],
            [
              10.279406446940673,
              36.56641025282466
            ],
            [
              10.279962919895262,
              36.56640427248103
            ],
            [
              10.280334719445793,
              36.56645015894903
            ],
            [
              10.28064223017255,
              36.56634708490178
            ],
            [
              10.280948919379716,
              36.566194135307605
            ],
            [
              10.281131947431001,
              36.56604251969071
            ],
            [
              10.281192956599314,
              36.56599197968242
            ],
            [
              10.28144109741852,
              36.56603919315241
            ],
            [
              10.282250635075096,
              36.566379659401385
            ],
            [
              10.283121188190078,
              36.566669583245144
            ],
            [
              10.28380625565333,
              36.56696150061894
            ],
            [
              10.2840576918447,
              36.567208207347235
            ],
            [
              10.284561392099313,
              36.56775149377288
            ],
            [
              10.284623220758506,
              36.56775082675251
            ],
            [
              10.286573790912902,
              36.56603372612713
            ],
            [
              10.286634793892613,
              36.56598318765881
            ],
            [
              10.286950539203653,
              36.56637883983632
            ],
            [
              10.28745095426573,
              36.56672261527444
            ],
            [
              10.287764228980746,
              36.56696864547322
            ],
            [
              10.288386662118834,
              36.56721133013149
            ],
            [
              10.289126150544352,
              36.56705367595441
            ],
            [
              10.28968427863848,
              36.56714739933336
            ],
            [
              10.290620005170085,
              36.567636092016315
            ],
            [
              10.291552433217081,
              36.567925283127686
            ],
            [
              10.292418896001239,
              36.56796576528876
            ],
            [
              10.293223530847328,
              36.56800691264901
            ],
            [
              10.293658002288424,
              36.56810196022459
            ],
            [
              10.29416094531358,
              36.568595330064
            ],
            [
              10.294476739526782,
              36.56899096539098
            ],
            [
              10.294602892214646,
              36.56913924436728
            ],
            [
              10.295039866323759,
              36.569383910077796
            ],
            [
              10.29547850334922,
              36.56972831880229
            ],
            [
              10.295855306240254,
              36.5700734030425
            ],
            [
              10.296676582458964,
              36.57111201094405
            ],
            [
              10.29800752972226,
              36.57304295989506
            ],
            [
              10.302820543017976,
              36.57977451828241
            ],
            [
              10.303140604813818,
              36.58041949499241
            ],
            [
              10.316234292762882,
              36.58661062193919
            ],
            [
              10.317543181466114,
              36.58719473819962
            ],
            [
              10.31760502744013,
              36.587194053735665
            ],
            [
              10.317667718347128,
              36.587243243105334
            ],
            [
              10.31797779351032,
              36.58728969399691
            ],
            [
              10.318287023684194,
              36.58728627022128
            ],
            [
              10.318717409006556,
              36.58713185405399
            ],
            [
              10.319148633212405,
              36.587027310258776
            ],
            [
              10.319330786618051,
              36.58682575894076
            ],
            [
              10.319577322994691,
              36.5867731433752
            ],
            [
              10.319825551640317,
              36.58682027495815
            ],
            [
              10.32025931751582,
              36.58686534860615
            ],
            [
              10.320632931846104,
              36.587010854342935
            ],
            [
              10.320821009967895,
              36.587158417464934
            ],
            [
              10.321013319026571,
              36.58755534931414
            ],
            [
              10.3210811003908,
              36.58790377530896
            ],
            [
              10.321269181564015,
              36.588051337640984
            ],
            [
              10.321455563405856,
              36.58809915215273
            ],
            [
              10.321763101182276,
              36.587995971737115
            ],
            [
              10.322191787429142,
              36.58774179978008
            ],
            [
              10.322625559588218,
              36.58778686467548
            ],
            [
              10.323058483781452,
              36.587782054228825
            ],
            [
              10.32349225132861,
              36.58782711601239
            ],
            [
              10.323741334361552,
              36.587924113053134
            ],
            [
              10.324050566346564,
              36.587920674274564
            ],
            [
              10.324171711705839,
              36.58776967734959
            ],
            [
              10.324480093686239,
              36.58771636374256
            ],
            [
              10.324667331240887,
              36.5878140468725
            ],
            [
              10.324974863363154,
              36.587710858272104
            ],
            [
              10.325406086864145,
              36.58760629188862
            ],
            [
              10.325714462005248,
              36.58755297517431
            ],
            [
              10.326149085157347,
              36.58764790091892
            ],
            [
              10.326648958369068,
              36.587941626383575
            ],
            [
              10.327083584754288,
              36.58803654864614
            ],
            [
              10.327391960308788,
              36.587983227582924
            ],
            [
              10.327703746396402,
              36.5881294045262
            ],
            [
              10.327893543440226,
              36.58837669920638
            ],
            [
              10.3282053319672,
              36.58852287054917
            ],
            [
              10.328953458712833,
              36.58886370360655
            ],
            [
              10.330323471899227,
              36.58939711675519
            ],
            [
              10.330448019873522,
              36.58944560382457
            ],
            [
              10.331873921959001,
              36.589629192501455
            ],
            [
              10.33255253580402,
              36.589521832319754
            ],
            [
              10.333295560183462,
              36.58956339626438
            ],
            [
              10.333547220940005,
              36.58980999305291
            ],
            [
              10.33379461680971,
              36.58980722156224
            ],
            [
              10.334972285027703,
              36.5899436707924
            ],
            [
              10.335285805447127,
              36.590189570145355
            ],
            [
              10.336467767312623,
              36.59057537175102
            ],
            [
              10.33777859072374,
              36.591259007694845
            ],
            [
              10.338475237110085,
              36.592198955355194
            ],
            [
              10.339476845242144,
              36.592886052456734
            ],
            [
              10.340165790511856,
              36.59337712054806
            ],
            [
              10.340551510127368,
              36.594220789167466
            ],
            [
              10.340930357242614,
              36.59466546960248
            ],
            [
              10.341119352315186,
              36.59486287265921
            ],
            [
              10.341307487967294,
              36.595010402068205
            ],
            [
              10.341682040143112,
              36.59520571331559
            ],
            [
              10.34187189921987,
              36.595452988403274
            ],
            [
              10.342061759524004,
              36.595700263153574
            ],
            [
              10.342620151263185,
              36.59579373266415
            ],
            [
              10.343053978193092,
              36.59583872196559
            ],
            [
              10.34324555604842,
              36.596185741384254
            ],
            [
              10.344048776222285,
              36.59612679232906
            ],
            [
              10.344551358139348,
              36.5965700552841
            ],
            [
              10.34512097653949,
              36.59731186488215
            ],
            [
              10.345932840949205,
              36.59775163505049
            ],
            [
              10.346489524026662,
              36.5977453396018
            ],
            [
              10.346551377691272,
              36.59774463994705
            ],
            [
              10.34673261885298,
              36.59749317484443
            ],
            [
              10.346915586993866,
              36.5973414558564
            ],
            [
              10.347159543400956,
              36.59713916345236
            ],
            [
              10.347406081173803,
              36.597086490228634
            ],
            [
              10.347589911520751,
              36.596984643420356
            ]
          ]
        ]
      }
    }
  ]
}
