{"type":"FeatureCollection","features":[{"type":"Feature","id":"osm:relation:7142912","properties":{"sourceId":"isie-best-effort-imada-525258-20260928","officialCode":"525258","governorateCode":"52","delegationCode":"5252","nameAr":"السويطير","officialSourceNameAr":"السويطير","sourcePdfURL":"https://www.isie.tn/wp-content/uploads/2023/CartesCirconscriptionsElectoralesLocales2023/مدنين/مدنين الجنوبية/السويطير - (مدنين الجنوبية).pdf","sourcePdfSha256":"b673594091ac14a88573ea7480cdaa14a18f132e1e358fdbd50e157aa80183a0","sourceGeometrySha256":"8f6fbe6e25f593637e8e96e6616376239bc9e7d893613b5f9d27c06ce31f4569","geometryMethod":"Pinned native ISIE red-face linework; exact registered EPSG:32632 face WKB; transformed to EPSG:4326 with always-XY axis order."},"geometry":{"type":"Polygon","coordinates":[[[10.648688270786707,33.365226325129164],[10.649587132380294,33.36483414214051],[10.650035367587929,33.364574702460956],[10.65048120925523,33.36418854548887],[10.650776042114249,33.363804396331695],[10.65284698258267,33.36149547311849],[10.65698854827493,33.35687753054289],[10.660978696630883,33.35226147305418],[10.661129680790205,33.35225945194128],[10.661127275771817,33.35213274469097],[10.6614244231439,33.351875287592435],[10.661573000820528,33.35174655067043],[10.661723984045361,33.35174452886235],[10.661874967255121,33.35174250687081],[10.66202595044981,33.351740484695796],[10.662478890344998,33.3517344171986],[10.662780847000262,33.35173037132604],[10.662931830104482,33.351728348050266],[10.663085221161039,33.35185303978198],[10.663238612501564,33.351977723249924],[10.663540569880187,33.35197367550406],[10.664446460850769,33.351961527606065],[10.664595034211294,33.35183279525967],[10.665050384663099,33.35195342538108],[10.665956274727725,33.35194126647536],[10.667317517969119,33.352049722653426],[10.667621889385043,33.352172371815115],[10.66777287288013,33.35217034262973],[10.668077255065176,33.35229299856854],[10.668379212788125,33.352288939023126],[10.668832163656727,33.35228284813548],[10.669134121228332,33.35227878675548],[10.669436088337829,33.35227472451252],[10.669587071869865,33.35227269311584],[10.669889029290061,33.35226862990126],[10.670190996248117,33.35226456582366],[10.670641518017385,33.35213175376576],[10.671396424228853,33.352121587787096],[10.672000347005477,33.352113451727746],[10.67275525253464,33.35210327749336],[10.67290381344972,33.3519745355769],[10.673054796196004,33.35197249998004],[10.673205769328723,33.35197046432915],[10.67335675204466,33.351968428365375],[10.673507734745415,33.35196639221813],[10.67381211387917,33.352089025937616],[10.674265062454907,33.35208291526513],[10.674416035684716,33.352080878136896],[10.674718001295572,33.35207680307102],[10.675019966845666,33.35207272727128],[10.675170939999532,33.3520706892258],[10.67547290545847,33.3520666123253],[10.675925843934506,33.35206049572822],[10.676227809241453,33.35205641699311],[10.676680747489463,33.352050297644176],[10.676831730074516,33.35204825745105],[10.676982712644357,33.352046217074474],[10.677133685600609,33.35204417664414],[10.677438079455031,33.35216680922983],[10.677740035296525,33.35216272693576],[10.677891017993645,33.35216068544864],[10.678042000675543,33.352158643778075],[10.678341535891555,33.352027845688994],[10.678492518309234,33.35202580347781],[10.678945455872547,33.35201967587333],[10.679247410972495,33.35201558992971],[10.679546943929216,33.35188479705841],[10.67969549412253,33.351756047332415],[10.679846466367726,33.35175400361958],[10.67999988051708,33.35187866563072],[10.680457692719937,33.35212595248788],[10.68091306402274,33.35224652366972],[10.681215019600675,33.352242432917166],[10.681366002165962,33.35224038720068],[10.681519419283383,33.35236504722925],[10.681826254984326,33.35261437472716],[10.682130647177791,33.35273698759551],[10.682286502138075,33.35298836053162],[10.682439921878023,33.353113019325434],[10.682746753225656,33.35336234448391],[10.682902610963687,33.35361370847321],[10.683053595765239,33.35361166063088],[10.683209455000101,33.353863032241584],[10.683360430609698,33.35386098414294],[10.683961932887321,33.35372607559584],[10.684110469751527,33.353597320857936],[10.684108031316311,33.353470615123435],[10.684254138515398,33.35321515436552],[10.684251699752341,33.353088440574474],[10.684249261159637,33.352961734838786],[10.684397805779877,33.35283297160752],[10.68439536699916,33.35270626587615],[10.686645431040226,33.351915253199145],[10.687395443106782,33.351651578876776],[10.688293976984207,33.35125913262309],[10.688595937603466,33.35125502389914],[10.688746908291886,33.3512529693926],[10.688897888563227,33.35125091457201],[10.691274364691346,33.349190687267374],[10.691276813266837,33.349317400679055],[10.691427789999771,33.34931534288749],[10.691875811780506,33.34905574985382],[10.693361039980942,33.34776808029553],[10.6936654300627,33.34789067304461],[10.69485603825155,33.34698723089031],[10.695007001085276,33.34698516900498],[10.695467281163417,33.34735909721985],[10.6957716725169,33.347481684762535],[10.695925100723596,33.34760632668979],[10.696080984766164,33.347857681537526],[10.696239315482154,33.34823573327463],[10.696241771161045,33.34836244638015],[10.696395201614118,33.34848708763914],[10.696548632504173,33.34861172869222],[10.696855495751462,33.348861018238615],[10.697159894066592,33.34898359406278],[10.697313326907713,33.349108234098786],[10.697464302807475,33.34910616897969],[10.697768702934516,33.34922875130994],[10.697919679006608,33.34922668563066],[10.69837259753253,33.34922048762355],[10.699582856039868,33.34933065612261],[10.699733822547621,33.34932858836369],[10.700040697132048,33.349577869639006],[10.70034757330799,33.34982714203236],[10.700501002453434,33.34995177805156],[10.700503464466204,33.350078490841724],[10.700357420046192,33.3503339690529],[10.700359881886687,33.35046068184471],[10.700364805300799,33.35071409130395],[10.70052069820432,33.35096544000553],[10.700827580745266,33.351214710960534],[10.701134455592788,33.351463989281164],[10.701436414910015,33.35145984931153],[10.701740828356666,33.35158241335961],[10.702045252229308,33.35170497649988],[10.701896736398513,33.351833759992516],[10.701899200452662,33.351960464594235],[10.702354606521391,33.352080956063205],[10.702208555086738,33.352336444498064],[10.702666419138676,33.35258363941914],[10.702817400617452,33.35258156760234],[10.703121829580486,33.35270413598234],[10.703426249616188,33.35282669565982],[10.703728213277994,33.352822549968536],[10.703879185487384,33.352820476979524],[10.704183616669017,33.35294304267652],[10.704641489232845,33.353190230008835],[10.706166115650404,33.35392972134053],[10.707054704872533,33.353030316131445],[10.707349242775884,33.352646041001215],[10.707653677662682,33.35276858999541],[10.707802186383143,33.352639807909355],[10.708383839570335,33.3514911329857],[10.708685788242006,33.35148697551742],[10.709750058463317,33.35185253859175],[10.709901038122057,33.351850458202364],[10.709898562486082,33.35172375412701],[10.709896086708165,33.3515970419909],[10.709891135513708,33.35134363382641],[10.709888659939725,33.35121692974004],[10.710037152957762,33.35108813721209],[10.710334157193833,33.3508305675088],[10.710631149926183,33.350572989214704],[10.710782127306622,33.350570907824235],[10.711081604791893,33.35044004046976],[10.711685503562244,33.3504317117782],[10.711836480615535,33.35042962911363],[10.711984979128703,33.350300842299404],[10.712423024825243,33.34953435302552],[10.712715048005606,33.3490233621336],[10.713012037163235,33.34876577835815],[10.71315805111014,33.34851028632508],[10.71330406407192,33.34825478607948],[10.713601039323937,33.34799720113557],[10.71390050363807,33.347866327343866],[10.714194994339817,33.347482037178644],[10.714491974103714,33.3472244581656],[10.714793907081903,33.34722028631412],[10.714942395682503,33.34709148815344],[10.715093366713067,33.34708940171282],[10.715684823165034,33.346447527221706],[10.716150144296172,33.34707479175839],[10.716590632496624,33.346435000756884],[10.716887591769355,33.34617740838478],[10.717184559049945,33.345919823273206],[10.71748400103424,33.34578894132574],[10.717632483190082,33.34566014012315],[10.717931933180342,33.34552925700693],[10.71838234050064,33.345396282981575],[10.718681788241962,33.345265390057875],[10.718981225623486,33.34513450462873],[10.719132192956694,33.3451324133861],[10.719280671681872,33.34500361837037],[10.71943411797893,33.34512823048359],[10.720040467133957,33.345246565881745],[10.720349872666704,33.345622499217484],[10.72081024958973,33.34599633834451],[10.721265637528195,33.346116760824216],[10.72172102681101,33.346237189648406],[10.721871995829549,33.346235095014386],[10.722168938312658,33.34597749051942],[10.722770318632046,33.345842405422275],[10.723371687371994,33.345707317601374],[10.723819591055463,33.34544761273916],[10.724269988030374,33.34531461764718],[10.724871359966492,33.345179514549],[10.725475218046041,33.34517111996124],[10.725777142193255,33.34516692163374],[10.725774644192107,33.34504021847797],[10.725923112618531,33.34491141583395],[10.726222546770252,33.34478051318166],[10.726371004332547,33.344651702107754],[10.726519471214194,33.344522898792235],[10.72696735912072,33.34426318301969],[10.727717173892241,33.343999270716004],[10.727865637653101,33.34387046587694],[10.728016602098293,33.34386836390441],[10.728167566527816,33.34386626174849],[10.728318530941669,33.34386415940917],[10.728469485742625,33.34386205702013],[10.728617947971102,33.34373324326382],[10.728768912119495,33.343731140384406],[10.729216789183171,33.34347142486723],[10.729365249632771,33.343342610266234],[10.72951621304748,33.343340506500105],[10.729664663388135,33.34321169975148],[10.729662159942599,33.34308499681585],[10.729810619240814,33.342956189774796],[10.73011004058046,33.34282527810835],[10.730258498452336,33.34269645444611],[10.730703860805356,33.342310030944894],[10.731003268943391,33.342179117359166],[10.73145114085889,33.341919394054756],[10.73190150702719,33.341786372158666],[10.73220092107931,33.341655455655335],[10.732502832020858,33.3416512413673],[10.73280224433362,33.34152030733892],[10.73295068668589,33.34139149688049],[10.73309913819829,33.34126268612211],[10.734135766986029,33.34023428749146],[10.734286724656426,33.34023217809938],[10.734435162640818,33.340103365981676],[10.734581099205489,33.33984783477632],[10.73488050244434,33.339716912114866],[10.734877991778562,33.33959020945776],[10.735021406123519,33.33920799137597],[10.736063012816045,33.33843298309862],[10.736362399328533,33.33830205719734],[10.736510840592327,33.33817324263019],[10.736810234790173,33.33804229944401],[10.737104600960384,33.337657966586924],[10.738171313703477,33.33814999900993],[10.738931105499146,33.338392831232674],[10.739386475258357,33.33851318784217],[10.739690901331041,33.338635658658376],[10.739844373560132,33.338760244946236],[10.740453210269358,33.33900518371813],[10.740752601236695,33.33887424725449],[10.741054510807832,33.3388700123541],[10.741207985328517,33.33899459687488],[10.741210505423581,33.3391213152339],[10.741514936000652,33.33924378141306],[10.74181934821052,33.33936624708488],[10.741970303767001,33.33936412840238],[10.742428213495241,33.339611175559675],[10.74273264737678,33.33973363863197],[10.74319306497912,33.340107401304344],[10.74350507127639,33.3406099685825],[10.743663599632836,33.34098797002444],[10.744280035621145,33.341613011204615],[10.744430994855852,33.34161088940572],[10.744579429179947,33.34148206545859],[10.745329171697703,33.34121803289537],[10.746383333984816,33.34107646609965],[10.746831152156933,33.34081668892374],[10.747130519423884,33.34068572137596],[10.747729290224848,33.340423815884975],[10.748179630898651,33.34029073581495],[10.748775845659793,33.33990212399504],[10.749077757485036,33.339897869476665],[10.749226181914864,33.339769040256925],[10.749523029142182,33.339511365204466],[10.749822388020304,33.339380407531195],[10.749968277997247,33.3391248758269],[10.750260055151196,33.3386137958417],[10.750254989508933,33.33836039255528],[10.7503958103605,33.33785144099561],[10.750695181459852,33.33772048114172],[10.750841066294754,33.33746494852032],[10.750994551638163,33.33758952059248],[10.75114548419723,33.33758739112894],[10.751298970179787,33.33771196280111],[10.751605943777408,33.33796112164167],[10.752386064599259,33.33921749841008],[10.75254714507056,33.339722189152695],[10.75196616228515,33.34087104354804],[10.751676923529025,33.341508828773414],[10.75138261082787,33.34189319429536],[10.751095918339521,33.342657679542214],[10.751111125405227,33.34341789655757],[10.751433310530242,33.34442727203787],[10.751765665555588,33.34594345158761],[10.752243928875815,33.3472040952316],[10.752271832226471,33.34859783387326],[10.752148764436505,33.349993704014786],[10.75231242245124,33.350625094610784],[10.752954369742598,33.35251711565593],[10.754051847279822,33.35452943063238],[10.756039985708673,33.35576871097899],[10.758652492946943,33.35801300425926],[10.76051530315522,33.360521368925234],[10.761139652380258,33.36152641736484],[10.763742264728004,33.363263790195404],[10.76743521053449,33.36663318280087],[10.769290771921675,33.36876129069199],[10.770091935889429,33.37103115445208],[10.77149462413163,33.373165686505644],[10.77165077016862,33.37341693684157],[10.771804349523277,33.37354147942752],[10.77211921365524,33.374170678376224],[10.773086941327573,33.377198563204495],[10.774645973676249,33.379584299354924],[10.774973745456343,33.380846992655904],[10.77439536727195,33.382122651528654],[10.772299012949778,33.38303979238638],[10.768976420109933,33.38308722595837],[10.767916674107719,33.382975600189134],[10.766698218634591,33.382486001689976],[10.76609666647424,33.38262130496598],[10.765349221218692,33.3830121703732],[10.765208427407867,33.383521118784145],[10.765065073734453,33.383903383458765],[10.76492939428156,33.3846657390449],[10.764931952999056,33.38479244680246],[10.76478347919502,33.38492129566941],[10.763301293109732,33.38633649889549],[10.762704839033029,33.3867251940742],[10.761964987642521,33.38749614027101],[10.761524665266794,33.388136083959],[10.761227696028975,33.38839378199841],[10.761079210672149,33.38852262674034],[10.760930724877513,33.38865147131633],[10.75989388330556,33.38968009448851],[10.759453516087602,33.39032003979796],[10.75915908412659,33.39070443320856],[10.758711074977818,33.3909642597884],[10.757963505504708,33.391355075827924],[10.757361896549991,33.39149033873144],[10.756762813940444,33.391752307219306],[10.7563173197477,33.39213883397743],[10.75587184081873,33.39252535896946],[10.755723340511029,33.39265419770615],[10.755431429894887,33.393165283094525],[10.7548476179314,33.39418745175295],[10.754432635607571,33.3960944067949],[10.753697720143395,33.397118707950234],[10.750702079042947,33.3984284240542],[10.749818579698696,33.399581536999854],[10.749680229696944,33.40021718658212],[10.750002638333216,33.401226542604185],[10.751098154040172,33.40311215085861],[10.750841763685376,33.405397070160966],[10.750280657746044,33.40755953828148],[10.750157518764317,33.40895540559828],[10.750354311523703,33.411233916317634],[10.751757219437026,33.41336865306695],[10.75544175727616,33.41623150713474],[10.757825397544714,33.42202767601028],[10.758980100352131,33.42682733482252],[10.759671398470111,33.43112660776365],[10.759458608680013,33.43556544677758],[10.758323731455498,33.43925694995592],[10.757237274565409,33.445355757227986],[10.758341208413691,33.44762137824845],[10.767269060536863,33.45547880426491],[10.767182146665041,33.45864846006538],[10.76631627317382,33.46068861129827],[10.732270216588185,33.41376921284925],[10.732267702645228,33.413642511530135],[10.732265188558126,33.41351580215045],[10.732363469031691,33.410852914566455],[10.732360955231474,33.410726213193975],[10.730998745164484,33.41061850352197],[10.729938696736703,33.41050656295239],[10.729183308840673,33.41051710099387],[10.727513941437056,33.41016015522372],[10.7272117832962,33.41016436510189],[10.726756049814838,33.41004396858686],[10.726297803168952,33.409796876748224],[10.72599315124163,33.40967438167042],[10.725688490380085,33.40955187789012],[10.725383840111773,33.40942938125566],[10.724777025493738,33.4093110878309],[10.723711996270088,33.40894568125049],[10.72325627363739,33.408825279548154],[10.722493399650151,33.40845566215401],[10.721886604588342,33.40833734603202],[10.720511957842934,33.40759600046244],[10.719288398287658,33.40685253606355],[10.717762732918999,33.40611324499324],[10.71730453139731,33.405866118292884],[10.716848832664077,33.405745684129144],[10.716695269822266,33.405621073407644],[10.716242063182062,33.40562734754626],[10.715939918941231,33.4056315294749],[10.715486712067124,33.40563780085626],[10.715335639876551,33.40563989099339],[10.715033505052727,33.405644070583314],[10.715031016905941,33.40551736794762],[10.71457282571409,33.405270222725655],[10.714419276467709,33.40514560891319],[10.713963575600488,33.405025172076414],[10.713810017875364,33.40490054953811],[10.71319828681267,33.40452878414095],[10.71289367055713,33.40440625560417],[10.71213087708743,33.40403657157051],[10.71182377103065,33.40378733754855],[10.711672701752875,33.40378942312439],[10.711368089941464,33.40366688261765],[10.709864858993896,33.40406784132412],[10.709258109213422,33.40394946986338],[10.708802430541237,33.40382901347964],[10.708346743297822,33.403708547453576],[10.707737520396595,33.40346346525228],[10.707128300656937,33.40321837188199],[10.706667676753533,33.40284449289959],[10.705439359325199,33.40184747865692],[10.704208588346587,33.400723747885515],[10.703899054070625,33.400347781359585],[10.703589512897073,33.399971814086605],[10.702673263505824,33.399477440903745],[10.70190809566477,33.39898098721134],[10.70114786151339,33.39873793600923],[10.700689743809528,33.398490736855635],[10.700538692423299,33.398492808455636],[10.700385165201144,33.398368176253214],[10.699471414991137,33.39800048198668],[10.698862255639032,33.39775535391661],[10.698409085613962,33.39776156163485],[10.697646408871535,33.39739178434301],[10.697339366665364,33.397142504086816],[10.69642565095295,33.396774786367075],[10.69612107435849,33.396652215012764],[10.695816508197039,33.3965296427498],[10.6927659242635,33.39505043729124],[10.692307858504055,33.39480321360178],[10.692156803237479,33.394805274930064],[10.690304947902597,33.39280268376945],[10.689225547986904,33.39167673366102],[10.689069599416946,33.391425373743246],[10.688918549740489,33.39142743094709],[10.688148633326987,33.390677469611745],[10.688146185598095,33.390550764898606],[10.688143737884527,33.39042406018273],[10.68767346450889,33.38954327828929],[10.687671017574724,33.389416573521906],[10.686250499064887,33.38626737843093],[10.685941084759923,33.38589137038628],[10.685332046318319,33.385646163492666],[10.684874050776704,33.38539890171993],[10.684413616139299,33.38502494115355],[10.683490308390924,33.384150293323806],[10.682257640847311,33.38289960344047],[10.682104167140883,33.38277494662756],[10.681643758249692,33.382400974822595],[10.680099336329103,33.38064753494609],[10.679329582834923,33.37989751239963],[10.677790115740176,33.378397451476204],[10.677324886506941,33.37777003463468],[10.67670620842354,33.37701795967745],[10.675157127856695,33.37501103099066],[10.674226742102453,33.3737561888274],[10.672526770985348,33.371751260656744],[10.671287174304878,33.3701203304047],[10.670052454170097,33.36874280678118],[10.669431485840231,33.36786397611427],[10.66927563886685,33.36761259534149],[10.669124638419426,33.36761462705102],[10.666097231519723,33.367275088788325],[10.661406363559005,33.366831041407394],[10.650507508114991,33.365582354065694],[10.650356500136514,33.365584362968136],[10.648688270786707,33.365226325129164]]]}}]}
