{"type":"FeatureCollection","features":[{"type":"Feature","id":"osm:relation:7142940","properties":{"sourceId":"isie-best-effort-imada-525563-20260928","officialCode":"525563","governorateCode":"52","delegationCode":"5255","nameAr":"القريبيس","officialSourceNameAr":"القريبيس","sourcePdfURL":"https://www.isie.tn/wp-content/uploads/2023/CartesCirconscriptionsElectoralesLocales2023/مدنين/جرجيس/القريبيس.pdf","sourcePdfSha256":"9cf3ee3c4687322c6db032d2cbbb3b1793496120c7a97c9beb26aa8af9a13347","sourceGeometrySha256":"0d8ea203dc17e39be7fe52288c0f10f381765e29cace20bd544fb40393870dda","geometryMethod":"Pinned native ISIE red-face linework; exact registered EPSG:32632 face WKB; transformed to EPSG:4326 with always-XY axis order."},"geometry":{"type":"Polygon","coordinates":[[[11.011799196635486,33.565219341844276],[11.010894935471422,33.565832123543785],[11.0107968869894,33.56600459415732],[11.010594835071814,33.56609331230461],[11.01049480126012,33.566180377488635],[11.00989062640156,33.56653195653768],[11.009388465819347,33.56688187379313],[11.00868424448502,33.567320511567786],[11.008584207321261,33.5674075753137],[11.00818009209489,33.5675850189124],[11.007777957057057,33.567847866585765],[11.007473877147202,33.567938244845074],[11.00737383803569,33.568025307675114],[11.006969717309122,33.568202747500365],[11.006667615898438,33.568378521995406],[11.006163450936208,33.5686430215319],[11.005861346466741,33.5688188014018],[11.004953063659235,33.56926073108042],[11.004246821293723,33.5696139394861],[11.00374264143542,33.56987842964253],[11.003440527570042,33.57005420390619],[11.003138412459071,33.570229977472344],[11.002936342587423,33.57031869094316],[11.00293831990721,33.57040409650011],[11.002334083908528,33.57075564062769],[11.001631770241634,33.57127963882888],[11.00132964708827,33.57145540823647],[11.00122959766868,33.571542466427374],[11.001129548215868,33.571629531782584],[11.000529246112555,33.57215187167252],[10.999726857951286,33.57276292463735],[10.999226593251912,33.57319820884957],[10.99872435012204,33.57354808546172],[10.998624295668646,33.57363514170252],[10.998526214243611,33.57380760360922],[10.997725786183874,33.57450404276197],[10.996825269986257,33.575287539552036],[10.99582664811719,33.57624349029046],[10.994623939557421,33.577202721208245],[10.99362527150204,33.57815865559381],[10.992824746886448,33.57885507300385],[10.992026176516921,33.57963688438968],[10.991930042701128,33.579894747637546],[10.99143168191258,33.580415408525596],[10.991331594950111,33.5805024596138],[10.990640949122172,33.581538843142965],[10.990342699111167,33.5818853996676],[10.989553904328078,33.58309422691938],[10.98895541837611,33.583701928519815],[10.98835888809953,33.584395033598454],[10.987664233142121,33.58526059033373],[10.986270957879217,33.586820873644356],[10.983291936764793,33.590457119549484],[10.980805302364832,33.5933164613148],[10.977029384767699,33.593376958328335],[10.975702702263922,33.59339818680134],[10.9751943910952,33.59349175449406],[10.9745801236762,33.593416138254376],[10.973763702261051,33.59342918746506],[10.967232329353287,33.593533387109325],[10.96478304937839,33.59357237326962],[10.961925567432624,33.593617795622706],[10.955496188049482,33.59371975518384],[10.952534684246954,33.59368116904447],[10.948862658353798,33.59382460183387],[10.942739379097237,33.59392106781867],[10.942028830553351,33.59410311199212],[10.941824719651581,33.594106321162656],[10.941522390380095,33.59428195107279],[10.941418416380111,33.59419815413201],[10.941012120511774,33.59428997118117],[10.940299647620026,33.59438660444333],[10.938776472052902,33.594752277912576],[10.938472218412963,33.59484249211484],[10.938167964105709,33.59493270558972],[10.937861794108562,33.59493750977008],[10.937251376969723,33.59503252432209],[10.936642863523014,33.59521294466866],[10.9359361163939,33.59556577915812],[10.935633769500397,33.59574139523655],[10.935433479341294,33.595915411351406],[10.935244663427047,33.596601872012776],[10.934953785322485,33.59728993866849],[10.934373936477847,33.59875147875996],[10.933790237590086,33.600042191994284],[10.932821190717007,33.60236420491133],[10.93127023116044,33.6060623156784],[10.93059201341533,33.60769624694446],[10.929911854724933,33.609244773593396],[10.929333748782536,33.61079170214632],[10.92913913489161,33.611221935695305],[10.92865163818559,33.61225479952833],[10.928551467635073,33.6123418026746],[10.928354939766274,33.612686626349344],[10.92835684669611,33.612772035151345],[10.92825668391975,33.61285903794837],[10.928160317145663,33.613116858556076],[10.928062051803188,33.61328927015525],[10.927765355739124,33.613721095587465],[10.926678684029632,33.615361389794366],[10.926476426445028,33.615449984267855],[10.92637625008147,33.61553698581713],[10.92627607351676,33.61562398729119],[10.926175896750904,33.615710988690026],[10.926073814886317,33.61571258113859],[10.925973637810715,33.61579958238315],[10.925767569244462,33.61571735797925],[10.925769473840308,33.615802766869635],[10.925565309837841,33.61580595101941],[10.925673105376992,33.61606058566544],[10.925572927496777,33.616147586609074],[10.925574831931558,33.61623299550332],[10.925576736374353,33.61631840439626],[10.925578640825165,33.616403813287945],[10.925580545283996,33.61648922217834],[10.925582449750845,33.61657463106746],[10.925688341820216,33.61674385675281],[10.925792329615888,33.61682767345464],[10.925794234315973,33.61691308232844],[10.9257980437402,33.617083900072174],[10.925903936895594,33.6172531255227],[10.925709292444667,33.61768333988603],[10.925410657326315,33.61802975158767],[10.925212200679937,33.61828916198588],[10.925009934779156,33.61837775431505],[10.924807677107669,33.61846634619172],[10.924705583256523,33.61846793776032],[10.924503325042037,33.618556529156166],[10.923990995319736,33.61847907530384],[10.923992898361547,33.61856448424541],[10.923994801411368,33.61864989318568],[10.923894618907891,33.61873689290019],[10.923896521873143,33.61882230184301],[10.923898424846408,33.61890771078458],[10.923796339075905,33.618909301486106],[10.923696156077481,33.61899630105397],[10.923594070190369,33.618997891592244],[10.923389898392124,33.61900107241621],[10.923287812480993,33.6190026627019],[10.923083640634713,33.61900584302075],[10.922985358875449,33.61917825102257],[10.922885174730467,33.61926524996928],[10.922989163083363,33.61934906898617],[10.922991065199332,33.619434477966045],[10.922888978753205,33.61943606794053],[10.922786892299074,33.61943765783082],[10.922784990384297,33.61935224884073],[10.922679100418419,33.619183020647505],[10.922577014250066,33.61918461035408],[10.922473026484742,33.61910079096725],[10.922270755697,33.61918937896874],[10.92216866949664,33.61919096833856],[10.92206658328828,33.61919255762422],[10.92196449707192,33.61919414682566],[10.921864311840965,33.61928114498153],[10.921866212842371,33.61936655401886],[10.921767928234445,33.61953896114317],[10.921769829159265,33.61962437018177],[10.921771730092086,33.61970977921908],[10.921671544088372,33.61979677723975],[10.921569457135835,33.61979836614017],[10.921467370175298,33.619799954956385],[10.921465469536269,33.61971454590504],[10.921463568905242,33.61962913685242],[10.921461668282218,33.6195437277985],[10.921457867060168,33.61937290968686],[10.921455966461144,33.61928750062911],[10.921454065870124,33.619202091570095],[10.92124800160736,33.619119859673354],[10.921144006498603,33.619036039254006],[10.92104192906721,33.61903762755288],[10.920939842972059,33.619039215902234],[10.920839648184593,33.61912621339425],[10.920837748213147,33.61904080430207],[10.920733770894907,33.61895698324982],[10.920731871040042,33.61887157414999],[10.920728071354304,33.61870075594649],[10.920622186184985,33.61853152580407],[10.920518201047726,33.618447704669656],[10.920310231376767,33.61828006211381],[10.920308331988249,33.618194652983355],[10.920206246843065,33.61819624069239],[10.920104161689888,33.618197828317236],[10.920002076528721,33.6181994158579],[10.919901890345713,33.61828641246522],[10.91979980506797,33.6182879998426],[10.91979790618241,33.61820259068666],[10.919695820997266,33.618204177974754],[10.919593735804137,33.618205765178665],[10.91969392222029,33.61811876881243],[10.91979410843527,33.61803177237093],[10.919894294770982,33.61794479033275],[10.919896193411239,33.618030185008834],[10.920100363339206,33.61802701003211],[10.920202448291201,33.61802542241746],[10.920302634192657,33.617938440062936],[10.920404719028095,33.61793685228502],[10.920506803855538,33.61793526442292],[10.920508703099232,33.61802065906841],[10.920408517644328,33.61810765606351],[10.920412316614549,33.618278474315495],[10.920514401844336,33.61827688643299],[10.920512502254638,33.61819147731273],[10.920612687693549,33.61810448023471],[10.920714772706168,33.618102892194045],[10.920816849055122,33.61810130420383],[10.920814949179654,33.618015895096335],[10.920813049634251,33.61793050046613],[10.920811149452716,33.617845076877515],[10.920709073405508,33.617846664852415],[10.920605089044354,33.61776284375627],[10.920603189402051,33.61767743463346],[10.920501104884384,33.617679022564445],[10.920499205350662,33.61759361343526],[10.92039712092559,33.61759520127696],[10.920395221822446,33.617509806619985],[10.920293137489951,33.61751139437241],[10.920291237851425,33.61742597075189],[10.920187254725526,33.61734216374529],[10.92008327147883,33.617258342164455],[10.919979288433312,33.61717452048796],[10.9199773894505,33.61708911132562],[10.919873406714736,33.61700528954709],[10.919771322945799,33.61700687684798],[10.919667340503802,33.616923054884516],[10.919563358262979,33.61683923282539],[10.919461274671242,33.61684081986353],[10.919359191071516,33.61684240681751],[10.919259005718537,33.61692940288915],[10.91936108942684,33.61692781601426],[10.919362987790151,33.61701322520975],[10.91926280225199,33.617100221289036],[10.919162616512658,33.617187217293065],[10.919164514698776,33.61727262649491],[10.919166412892887,33.61735803569549],[10.919168310773202,33.61744343041619],[10.919068124876699,33.617530440835],[10.919066226445429,33.61744501715329],[10.919064328665682,33.617359622427486],[10.918962244430489,33.617361209075305],[10.918960346437553,33.617275799864544],[10.918958448452608,33.617190390652496],[10.918856364410601,33.61719197720594],[10.918752382584824,33.61710815445169],[10.91875048481703,33.6170227452269],[10.918646503301003,33.61693892237062],[10.918544419536795,33.61694050865624],[10.91854252198615,33.6168550994187],[10.918644605649774,33.61685351313819],[10.918642708006532,33.61676810390448],[10.918538726908825,33.61668428093981],[10.918536829382145,33.616598871698464],[10.918534931863453,33.61651346245581],[10.918430951184058,33.61642963938275],[10.918222990428774,33.61626199294969],[10.918120907437293,33.616263578857804],[10.91801882443783,33.61626516468175],[10.917916741430385,33.616266750421495],[10.917914844547138,33.61618134114319],[10.917810864857607,33.61609751750899],[10.917706885369244,33.61601369377915],[10.917604811295076,33.61601527911666],[10.917500823444994,33.61593145533632],[10.91739874945544,33.615933040500394],[10.917396853107023,33.61584763119151],[10.917294770554594,33.61584921640073],[10.917292874314743,33.61576380708547],[10.917190791854914,33.61576539220541],[10.917088709387105,33.61576697724119],[10.916984730981186,33.61568315286097],[10.916882648598,33.61568473772328],[10.916780566206837,33.6156863225014],[10.916678483807694,33.61568790719535],[10.916576401400574,33.61568949180513],[10.916472423566224,33.61560566697221],[10.916368445933035,33.61552184204364],[10.916366550630316,33.61543643267746],[10.916464841969,33.61526402952535],[10.916362760048818,33.615265613941304],[10.91636086477004,33.61518020457131],[10.916256887772235,33.61509637952165],[10.91625499260999,33.61501097014402],[10.916253097455721,33.61492556076511],[10.916151015921894,33.61492714499235],[10.916047039434957,33.61484331974506],[10.915944957985754,33.61484490379888],[10.91584098179257,33.61476107836669],[10.915737005800539,33.61467725283887],[10.915633030009658,33.614593427215425],[10.915631135498725,33.61450801779962],[10.915529054419931,33.614509601496366],[10.915527160017545,33.614424192074175],[10.915425079031351,33.614425775681674],[10.915423184737516,33.614340366253124],[10.915319209658634,33.614256540336434],[10.915215234780904,33.61417271432413],[10.915111260104318,33.614088888216195],[10.91500728562888,33.61400506201264],[10.914903311354585,33.61392123571346],[10.914799337281439,33.613837409318656],[10.914697256943457,33.613838992301325],[10.914695363409434,33.61375358282823],[10.914593283164056,33.61375516572165],[10.914489318241058,33.61367133891215],[10.914387229425047,33.61367292176631],[10.914281371687952,33.61350368527471],[10.914177390057874,33.61341985844675],[10.914075310174937,33.61342144089894],[10.913971346149077,33.61333761361775],[10.913867365013896,33.61325378650928],[10.913765293963422,33.61325536856465],[10.913763401390302,33.613169959036895],[10.91365942931262,33.61308613160303],[10.913557349792129,33.61308771361404],[10.91345337800819,33.61300388599534],[10.913451485760671,33.6129184764485],[10.9133475142864,33.612834648727805],[10.913345622155378,33.61274923917333],[10.913243543013262,33.6127508209115],[10.913037492883788,33.61266857456435],[10.913035601070392,33.61258316499208],[10.912927847014817,33.61232851772791],[10.91292595565452,33.61224312262412],[10.912823877083927,33.61224470399512],[10.912721798505375,33.61224628528196],[10.91271990703349,33.61216087568808],[10.912820093946994,33.612073884816255],[10.912816310521258,33.61190305115361],[10.912916497369102,33.61181607469276],[10.912914605735908,33.611730665102684],[10.912806853218571,33.61147601765003],[10.912600806563947,33.61139377043766],[10.912194387058175,33.61148550383422],[10.911992122311977,33.61157407486192],[10.911786076125422,33.61149182627368],[10.911683998372343,33.611493406673134],[10.911275687280485,33.61149972742926],[10.91107153168683,33.611502887302315],[10.911073421486057,33.61158829698764],[10.91097134357674,33.611589876803],[10.910969453878074,33.611504467112596],[10.911682107977716,33.61140799701699],[10.911782295143007,33.611321006970286],[10.911986450223061,33.6113178459392],[10.912088527751152,33.6113162652974],[10.912090418540055,33.61140167493451],[10.912803070224976,33.611305198448186],[10.912903256103993,33.61121820753532],[10.912901364526546,33.61113279793631],[10.91279739579431,33.61104896963588],[10.9126953186236,33.6110505508516],[10.912693427263193,33.61096514123987],[10.912591350185078,33.61096672236635],[10.91258945893319,33.61088131274825],[10.912587567689265,33.610795903128896],[10.912585676453304,33.61071049350826],[10.912583785225301,33.61062508388634],[10.91247981742197,33.610541255280054],[10.91237584981975,33.61045742657819],[10.912476035206886,33.61037043601969],[10.912578111589072,33.61036885501296],[10.912576220392921,33.61028344538594],[10.91247225302365,33.61019961675425],[10.912370176834614,33.61020119766666],[10.91236828585549,33.61011578802695],[10.912468470872259,33.61002879748368],[10.912364503921125,33.609944968743676],[10.912464688752712,33.60985797820802],[10.912462797704883,33.60977256856827],[10.912460906665013,33.609687158927244],[10.912459015633104,33.60960174928496],[10.912457124609157,33.60951633964138],[10.912557308869289,33.609429349045655],[10.91265938413745,33.60942776801062],[10.91265749292833,33.60934235837466],[10.912655601727169,33.60925694873741],[10.912653710533972,33.6091715390989],[10.912648037002146,33.60891531017571],[10.912542180223625,33.60874607188162],[10.912434432942757,33.60849142381908],[10.912328577132834,33.60832218529819],[10.912122538552115,33.608239936969184],[10.912018574157415,33.608156107828044],[10.911914609963803,33.608072278591315],[10.911912719585866,33.60798686889941],[10.911810645971281,33.60798844925901],[10.911808755701841,33.60790303956074],[10.911704792018908,33.607819210126486],[10.911702901865924,33.60773380042059],[10.91170101188111,33.60764839795276],[10.911699121744043,33.60756298824432],[10.911697231614934,33.6074775785346],[10.91169534149378,33.6073921688236],[10.911693451380586,33.60730675911133],[10.91169156127535,33.60722134939778],[10.911587598552968,33.60713751982349],[10.911687781088748,33.60705052996686],[10.911685891007382,33.606965120249505],[10.911684000933974,33.60687971053084],[10.91178418308352,33.60679272060656],[10.91178229292549,33.60670731089045],[10.911882474781391,33.60662032089469],[10.911880584538743,33.60653491118109],[10.911878694304052,33.60644950146622],[10.911876804077316,33.60636409175009],[10.91197887577373,33.6063625114028],[10.912079057042346,33.60627552126411],[10.912181128622315,33.6062739407536],[10.912179238109896,33.606188531050144],[10.912279418976386,33.60610154076092],[10.912277528379352,33.606016131059974],[10.912379599641813,33.60601455039641],[10.912377708952206,33.605929140699274],[10.912475998549784,33.60575674056871],[10.91247410778353,33.60567133087284],[10.912572397078524,33.6054989379152],[10.912570506075351,33.60541352098125],[10.912466544958365,33.60532969931594],[10.91246276351341,33.60515887991016],[10.912460872802878,33.60507347020537],[10.9124589821003,33.60498806049928],[10.912457091405685,33.60490265079193],[10.912557270558173,33.604815660322544],[10.91255537977895,33.60473025061773],[10.912553489007689,33.604644840911625],[10.912551598244386,33.60455943120426],[10.91265177691813,33.60447244067101],[10.912649886070225,33.604387030966166],[10.91264799523028,33.604301621260056],[10.91254403527078,33.60421779236202],[10.912542144547281,33.60413238264827],[10.912642322758208,33.604045392134054],[10.912640431950104,33.603959982422836],[10.912638541149962,33.60387457271034],[10.912636650357777,33.60378916299656],[10.912634759573557,33.60370375328152],[10.912632868797294,33.603618343565216],[10.9127349372132,33.603616762707254],[10.91283700562115,33.60361518176518],[10.912939074021137,33.603613600738946],[10.913041142413169,33.60361201962858],[10.913349239021413,33.60369268547337],[10.913553375934884,33.6036895224852],[10.91375751281651,33.60368635916045],[10.913859572591113,33.603684777505975],[10.91416577782995,33.60368003163539],[10.914267854881237,33.6036784493761],[10.914369914616028,33.60367686730094],[10.91447198299712,33.60367528500752],[10.914572158684111,33.60358829301019],[10.914674226948753,33.60358671055356],[10.914776295205431,33.60358512801278],[10.914878363454143,33.603583545387885],[10.915080606746901,33.603494970290015],[10.915384917621523,33.603404811839205],[10.915587159945877,33.603316235943154],[10.915789401844254,33.603227659729626],[10.915787507991748,33.60314225016451],[10.915889575658186,33.60314066672364],[10.915989749431628,33.60305368088171],[10.916091816981616,33.60305209727765],[10.916191990124451,33.602965096802784],[10.916292163226807,33.60287810349203],[10.916290268903614,33.60279269394725],[10.916392336128132,33.602791110106025],[10.916492508828432,33.60270411664478],[10.91659457593649,33.602702532640365],[10.916592681488291,33.60261713034764],[10.91669474848787,33.602615546264175],[10.916692853625952,33.602530129496614],[10.916793025883777,33.602443143048994],[10.916893197779984,33.60235614928682],[10.91699336947517,33.602269155449434],[10.917093540969331,33.60218216153679],[10.917297673875638,33.602178992495254],[10.917499902630416,33.60209041375765],[10.917700243962733,33.601916425081974],[10.917800414327365,33.6018294306313],[10.917900584490978,33.60174243610541],[10.917898688663314,33.60165702662551],[10.918000754453576,33.60165544150429],[10.91810282023586,33.60165385629893],[10.918204886010164,33.60165227100943],[10.91830505555477,33.601565276175016],[10.918407121212606,33.60156369072234],[10.918509186862462,33.60156210518553],[10.918713318138229,33.60155893385952],[10.91881538376414,33.60155734807033],[10.918813487047863,33.601471938633715],[10.919017618074724,33.60146876681309],[10.919320020141464,33.60129318962508],[10.91952225329059,33.60120460757875],[10.919624318450605,33.60120302113688],[10.919826551057271,33.60111443860995],[10.91992861609282,33.60111285192075],[10.92002878323796,33.60102585576561],[10.92013084815703,33.60102426891326],[10.920232913068112,33.60102268197677],[10.920333079795258,33.60093568558835],[10.920435135935902,33.60093409862328],[10.920535311007505,33.60084710194605],[10.920637375685626,33.60084551468322],[10.92073753313983,33.60075851812093],[10.920941662255112,33.60075534318483],[10.921045625664258,33.60083916492524],[10.921149589274416,33.60092298657005],[10.921353718727786,33.6009198109405],[10.921557848149186,33.60091663497444],[10.921761977538615,33.60091345867185],[10.921964207120043,33.600824872745285],[10.922064371817742,33.60073787502102],[10.922166436275473,33.60073628650133],[10.922168336244505,33.60082169577984],[10.922270400794746,33.600820107170925],[10.92237436551503,33.60090392774491],[10.922476430149782,33.60090233896263],[10.922578494776534,33.600900750096216],[10.922680559395287,33.60089916114566],[10.922884688608805,33.600895982992185],[10.923190882369086,33.60089121513095],[10.92339501150261,33.600888036136155],[10.92349707605737,33.60088644651256],[10.923599140604129,33.600884856804825],[10.923701205142885,33.60088326701296],[10.92380136808854,33.60079626794145],[10.923903432510789,33.60079467798642],[10.924003586493017,33.6007076788955],[10.924105659452673,33.60070608864252],[10.924207723750408,33.60070449844022],[10.924309779386224,33.600702908288646],[10.924411852321866,33.60070131778322],[10.924614069834286,33.60061272776737],[10.924714231525899,33.600525727996164],[10.924814393016508,33.60043872814977],[10.925014715394735,33.60026472823144],[10.925116779117907,33.60026313729754],[10.92531710063642,33.60008914415973],[10.925415357900517,33.59991673473188],[10.92551551782284,33.59982972711994],[10.925615677705476,33.599742726672105],[10.925717740777602,33.599741135264104],[10.925819803841717,33.59973954377197],[10.925923770497311,33.59982336129924],[10.926025833645902,33.599821769633735],[10.926127896786483,33.599820177884105],[10.926229959919048,33.59981858605037],[10.926332023043607,33.59981699413248],[10.926330119042122,33.59973158504943],[10.926430278125595,33.5996445912126],[10.926428373878256,33.599559174892846],[10.926530436685292,33.599557582822044],[10.926532341033138,33.59964299913671],[10.926634403932667,33.59964140697667],[10.926736466824181,33.59963981473253],[10.926836625058321,33.59955280610493],[10.926938687833303,33.599551213697644],[10.927036941407906,33.599378810342095],[10.927135194443151,33.5992063996785],[10.927233447100479,33.59903398894615],[10.927333604306153,33.598946987189684],[10.927331699379891,33.59886157814503],[10.92743185629211,33.59877457631723],[10.927429951281397,33.598689167275154],[10.927630264317942,33.59851516340178],[10.927728506600976,33.598342752455565],[10.927926921443355,33.598083338978405],[10.928027068218665,33.59799633684626],[10.928125317812714,33.59782392548486],[10.928221661318547,33.59756610503699],[10.928321815867182,33.59747910255582],[10.928421970214847,33.597392099999496],[10.928420064327607,33.597306690988184],[10.928418158609935,33.597221289214865],[10.928520218543396,33.597219695599826],[10.92851831241017,33.59713427935179],[10.928618466332539,33.59704728389214],[10.928616560276426,33.596961874885956],[10.928614654228339,33.596876465878495],[10.928714807603276,33.59678946311209],[10.928712901309192,33.596704046867934],[10.928813054552275,33.5966170512695],[10.928911301123426,33.59644463935815],[10.92890748852869,33.596273821357386],[10.929007640930926,33.59618681838091],[10.929005734553144,33.596101409382456],[10.929105886661972,33.596014406334675],[10.929206038569845,33.59592740321175],[10.929204132015183,33.59584199421971],[10.929304283629653,33.59575499102548],[10.92940062158813,33.59549716978359],[10.929398714872653,33.59541176079541],[10.929498865807876,33.595324757462436],[10.92959901654215,33.595237754054324],[10.929597109649807,33.595152345072556],[10.929595202765489,33.59506693608953],[10.92969535311393,33.59497993261397],[10.929693446145196,33.59489452363349],[10.929793596200245,33.59480752008664],[10.929893746054356,33.59472051646465],[10.929891838908762,33.5946351074906],[10.930084508749342,33.59411947138998],[10.930184657538442,33.59403246756182],[10.93018275015568,33.59394705859293],[10.930180842780947,33.59386164962276],[10.930076879636225,33.59377783549139],[10.929972916692439,33.59369402126437],[10.92997100954273,33.59360861228012],[10.92996910240105,33.5935232032946],[10.930071157885697,33.593521608554035],[10.930069250651583,33.593436199572366],[10.930171306027736,33.59343460475281],[10.930273361395864,33.59343300984913],[10.93027145396885,33.59334760087645],[10.93026954654986,33.593262191902454],[10.930267639138908,33.593176782927216],[10.930163676769713,33.593092968833844],[10.930161769475282,33.59300755985092],[10.930159862188882,33.59292215086671],[10.930157954910511,33.59283674188123],[10.930258102204586,33.592749738031806],[10.930256194841814,33.5926643290489],[10.930254287487072,33.59257892006471],[10.930252380140358,33.592493511079255],[10.930250472801678,33.59240810209251],[10.930350619525107,33.592321098183355],[10.93034871210203,33.59223568919918],[10.930549004761286,33.592061681163194],[10.930649150789543,33.5919746770325],[10.930849442405032,33.59180067578501],[10.931049732893447,33.591626659758475],[10.931047824993144,33.59154125803926],[10.931147961109737,33.59145424643281],[10.931146053125058,33.59136884471616],[10.931144144986678,33.59128343575896],[10.931244289532223,33.59119643118908],[10.931242381309458,33.59111102223447],[10.931344442529785,33.59110942640879],[10.93134253421459,33.59102401745802],[10.931444578020598,33.591022421823965],[10.93154853898758,33.59110623491105],[10.931652500155474,33.59119004790249],[10.931754552791206,33.59118845187059],[10.931856605418906,33.5911868557546],[10.931958658038573,33.59118525955451],[10.931956749112627,33.59109985063578],[10.932058801623807,33.59109825435673],[10.932155126794623,33.59084043126051],[10.93215130861326,33.590669613432084],[10.932251451427032,33.590582608099496],[10.932249542255994,33.59049719918721],[10.932349684776455,33.59041019378335],[10.932347775521043,33.590324784873665],[10.932447917748195,33.590237779398535],[10.93244600840841,33.590152370491424],[10.932444099076664,33.59006696158302],[10.932544240918102,33.58997995604051],[10.932646292075212,33.58997835932356],[10.932746433607273,33.58989135362695],[10.932744523998302,33.58980594473014],[10.932844665237067,33.58971893896229],[10.932946716068722,33.58971734200844],[10.93304685699811,33.58963033608653],[10.933146997726613,33.5895433300895],[10.933145087748018,33.589457921208094],[10.933245228183228,33.589370915139824],[10.93324331812027,33.589285506260985],[10.933343458262192,33.58919850012146],[10.933443598203226,33.58911149390685],[10.93344168796351,33.589026085034455],[10.933541827773182,33.588939085987846],[10.933539917287188,33.58885366987876],[10.933538007133073,33.588768268246945],[10.933536096825085,33.58868285937458],[10.93353418636322,33.58859744326166],[10.93363432560242,33.58851044415539],[10.933736374963571,33.58850884660067],[10.933836513731498,33.58842184010106],[10.933936652298547,33.588334833526375],[10.934038701434696,33.588333235729664],[10.934036790664722,33.58824782687659],[10.93413883969239,33.588246229000916],[10.934238977749208,33.58815922219707],[10.934339115605155,33.588072215318135],[10.934335293518895,33.58790139763384],[10.934433511213168,33.58772898198283],[10.93443160009777,33.587643573141364],[10.93442968899042,33.58755816429861],[10.934427777891118,33.587472755454584],[10.93442586679986,33.58738734660927],[10.934422044641481,33.58721652891484],[10.934420133574365,33.5871311200657],[10.93441822251529,33.58704571121529],[10.934416311464265,33.58696030236359],[10.934312361677193,33.5868764914209],[10.934412489386347,33.586789484656386],[10.93451263419959,33.58670247754578],[10.934510723080308,33.586617068694125],[10.934610850295384,33.58653006178331],[10.93460893909177,33.586444652934226],[10.934709074666065,33.586357645816676],[10.934707163378118,33.58627223697019],[10.934803475922655,33.58601441209231],[10.934799653380331,33.585843601637364],[10.934897876658548,33.58567118554377],[10.93499801107601,33.58558417822413],[10.935098145292626,33.5854971708294],[10.935096233683444,33.58541176199068],[10.935196367606837,33.585324754524734],[10.935194455913328,33.5852393456886],[10.9352945895435,33.58515233815143],[10.935394722972827,33.58506533053918],[10.93539281110262,33.5849799217095],[10.935492944238733,33.58489291402602],[10.935593077174005,33.58480590626747],[10.93569512205576,33.584804307251964],[10.935797166929467,33.58480270815235],[10.93600125665274,33.584799509700915],[10.936101388953293,33.58471250155155],[10.93620152105301,33.584625493327096],[10.936301652951888,33.58453848502757],[10.93640178464993,33.58445147665297],[10.936503829065613,33.58444987698539],[10.936501916147135,33.58436446820329],[10.936602047443508,33.58427745967856],[10.93670409164225,33.5842758598531],[10.936702178539043,33.58419045107874],[10.936804222629316,33.584188851174346],[10.936904353415551,33.58410184242054],[10.937006397389302,33.58410024235314],[10.937108441355,33.58409864220166],[10.937206658142332,33.58392622446243],[10.937306788217603,33.583839215404474],[10.937406909439886,33.583752206407155],[10.937508961623859,33.58375060580427],[10.937610996495467,33.5837490053887],[10.937609082699081,33.58366360389223],[10.937809349716803,33.58348957771805],[10.938011521931603,33.583400974578105],[10.938213684743953,33.58331235677842],[10.93831381325032,33.58322535419751],[10.93841585610715,33.58322375300451],[10.938515983979647,33.58313673579111],[10.93851406933603,33.583051334332005],[10.938616111975922,33.583049732981166],[10.938714324618454,33.58287731416627],[10.938816367041404,33.582875712657575],[10.938918409456294,33.58287411106481],[10.939018536579336,33.58278710071151],[10.939114832773486,33.58252927293416],[10.939112917421543,33.58244386425773],[10.939211128429694,33.58227144509211],[10.939209213001538,33.58218603641702],[10.939207297581445,33.58210062774064],[10.939205382169417,33.58201521906297],[10.939305508043603,33.58192820851161],[10.93940754931369,33.581926606555136],[10.9395076748786,33.581839595849814],[10.939607800242703,33.581752585069445],[10.93960588446131,33.58166717640727],[10.939706009532262,33.58158016555573],[10.939704093666599,33.58149475689614],[10.939702177809,33.58140934823529],[10.93970026195947,33.58132393957317],[10.939698346118005,33.58123853090976],[10.939694514459273,33.5810677135791],[10.939688767194056,33.58081149481279],[10.939686851238605,33.58072607890247],[10.939684935615984,33.58064067746937],[10.939786975347785,33.580639075253856],[10.939887099093784,33.58055206429095],[10.939987222476583,33.58046504601376],[10.940089261983385,33.580463443556354],[10.940189385381748,33.5803764396037],[10.940289508254473,33.58028942109752],[10.940287592069842,33.58020401968893],[10.94028567573085,33.58011861103981],[10.940381965542118,33.579860782411274],[10.940474421857026,33.579432136421296],[10.940570710440289,33.57917430766611],[10.940561127804227,33.578747264408406],[10.94086723147997,33.57874245571591],[10.940865314675802,33.578657047075986],[10.940969277557935,33.57874085246906],[10.940967360653369,33.5786554438343],[10.94106938931961,33.5786538407804],[10.941169509532148,33.578566828880795],[10.94126963819552,33.578479816770205],[10.941267721014,33.578394408147055],[10.941367832081069,33.57830739623721],[10.9414660342409,33.57813497549973],[10.941464116890902,33.57804956688181],[10.941460282215127,33.57787874964208],[10.941560401325521,33.577791744700995],[10.941558483907428,33.577706336083104],[10.941556566497411,33.57762092746394],[10.941554649095465,33.57753551884349],[10.941552731539073,33.57745010298252],[10.941550814315791,33.57736470159876],[10.94165285007946,33.57736309798191],[10.941650932601348,33.577277689362795],[10.941649015131311,33.57719228074239],[10.941751050686145,33.57719067705178],[10.941851168570178,33.57710366466576],[10.941847333268944,33.57693284743918],[10.941947450767604,33.5768458349859],[10.94194553303679,33.576760426374584],[10.94194361531405,33.57667501776198],[10.941941697599388,33.5765896091481],[10.941939779892797,33.576504200532945],[10.94203989682148,33.57641718802015],[10.942036061247915,33.576246370793775],[10.942034143473244,33.576160962178655],[10.942032225706647,33.57607555356226],[10.94213042421454,33.57590313237619],[10.942230540280208,33.57581611973276],[10.942228622345159,33.57573071112157],[10.942328738117777,33.575643698407],[10.942326820098504,33.57555828979841],[10.94242693557808,33.57547127701271],[10.942425017474585,33.57538586840672],[10.942423099379166,33.57530045979947],[10.942523214473404,33.57521344694651],[10.942521296456347,33.575128045581096],[10.942621411094963,33.57504102541777],[10.942619492993698,33.57495562405496],[10.942617574737913,33.57487021545161],[10.942613738250577,33.57469939824112],[10.942611820019025,33.57461398963395],[10.942711934158027,33.574526976654255],[10.942710015842255,33.574441568049686],[10.942708097534565,33.57435615944385],[10.942706179234946,33.57427075083673],[10.942806292896341,33.57418373779365],[10.9429083248412,33.57418213327495],[10.942906406357004,33.57409672467559],[10.94300843819342,33.574095120077985],[10.943006519616935,33.57400971148251],[10.943108551344912,33.57400810680602],[10.943106632676137,33.573922698214425],[10.943104714015442,33.573837289621565],[10.943204826781631,33.57375027628235],[10.943202908036726,33.573664867692074],[10.943304939347092,33.57366326286814],[10.943405051711828,33.573576249378924],[10.943507082905674,33.573574644392075],[10.943505163875837,33.57348923581472],[10.943607194961244,33.57348763074897],[10.943605275839122,33.57340222217551],[10.943603356725083,33.57331681360076],[10.943703468395363,33.573229799890434],[10.943803579864923,33.5731427861051],[10.943903691133762,33.57305577224478],[10.943901771750959,33.5729703636804],[10.9440018827268,33.57288334974896],[10.943999963259799,33.57279794118719],[10.944101993501922,33.57279633574252],[10.944100074105345,33.572710934423874],[10.944200184424771,33.5726239131071],[10.944300286217901,33.57253690632995],[10.944298366319442,33.57245149053931],[10.944400404786885,33.57244988472703],[10.944500506015888,33.57236287056065],[10.944602535715822,33.57236126472162],[10.944600615857913,33.57227586342239],[10.944702645449416,33.572274257504475],[10.9448027546568,33.57218723573385],[10.944904784131774,33.572185629653035],[10.945004893355534,33.57209862220703],[10.945002972957711,33.57201321368538],[10.945105002215819,33.5720116074468],[10.945103081725724,33.57192619892905],[10.945099240769798,33.57175538188968],[10.945199349152567,33.571668367066124],[10.945197428594463,33.57158295854842],[10.94529753668426,33.57149594365376],[10.945399565315988,33.57149433719406],[10.945397644573353,33.57140892868412],[10.945499673096643,33.57140732214555],[10.945497752261742,33.5713219136395],[10.945495831434927,33.57123650513217],[10.9454939106162,33.571151096623566],[10.94559401791936,33.57106408151172],[10.945696046025077,33.57106247482576],[10.94579807412271,33.57106086805574],[10.945900102212255,33.571059261201704],[10.946002130293714,33.57105765426362],[10.946104158367087,33.57105604724151],[10.946206186432374,33.57105444013536],[10.946308214489575,33.5710528329452],[10.946306292884216,33.57096742447534],[10.94640832083298,33.570965817206314],[10.946510348773652,33.57096420985322],[10.94661045480792,33.570877193960506],[10.946712482632067,33.570875586444515],[10.946814510448124,33.570873978844524],[10.946914616064817,33.57078696271908],[10.947016643764345,33.570785354956186],[10.947014721480814,33.57069994651869],[10.947116749071903,33.57069833867692],[10.947114826696119,33.570612930243314],[10.947216854178768,33.57061132232268],[10.947214931710725,33.570525913892965],[10.947316959084935,33.570524305893464],[10.947315036524644,33.57043889746764],[10.947313113972443,33.570353489040535],[10.947311191428339,33.57026808061215],[10.947305423844591,33.57001185531933],[10.947303501332867,33.569926446885844],[10.947301578992187,33.569841045690296],[10.947299656333696,33.56975563001502],[10.947399760371875,33.5696686207851],[10.947401682796702,33.56975402197802],[10.947503700600906,33.569752413993356],[10.94750177807575,33.56966701280559],[10.947603813072938,33.56966540446935],[10.947601890129583,33.56957998880702],[10.947703916367622,33.56957838052828],[10.947805933946881,33.56957677230188],[10.947804011136911,33.56949137112708],[10.94770199365798,33.56949297934829],[10.947599967520274,33.56949458762188],[10.94749793272379,33.56949619594777],[10.947496010059954,33.56941078751696],[10.94759612183702,33.569323763530065],[10.947594199251997,33.56923836234109],[10.947492164756568,33.56923997065147],[10.947490242117016,33.56915456221682],[10.947592276512093,33.5691529539116],[10.947694302248433,33.5691513456587],[10.947692379416287,33.569065937233106],[10.947690456592236,33.568980528806236],[10.947792473469171,33.56897892061603],[10.947790550552885,33.56889351219306],[10.947892584622636,33.56889190365123],[10.947890661614098,33.56880649523216],[10.947990755173414,33.56871947846904],[10.947988832080739,33.56863407005258],[10.947986908996162,33.56854866163483],[10.94798498591968,33.568463253215796],[10.94788104669286,33.568379453117544],[10.947877200781038,33.56820863626276],[10.947875277837275,33.56812322783346],[10.947873354901605,33.56803781940287],[10.947771321835315,33.56803942789298],[10.947769399008086,33.56795401945594],[10.947869509054556,33.56786700253789],[10.947867586143175,33.567781594103444],[10.947865663239893,33.56769618566775],[10.947967678595715,33.56769457738705],[10.947965755600203,33.56760916895525],[10.9480677794981,33.56760756045934],[10.948169803387902,33.56760595187939],[10.94827182726961,33.56760434321543],[10.948373851143224,33.56760273446745],[10.94847395151966,33.56751571722822],[10.948574051695434,33.567428699914025],[10.948572128122219,33.567343291509424],[10.9486722280051,33.56725627412417],[10.948670304347749,33.567170865722176],[10.9486683806985,33.5670854573189],[10.948662609962392,33.56682923934065],[10.948660686182494,33.56674382369304],[10.948658762736788,33.566658422522615],[10.948656839136133,33.566573014111675],[10.948654915543578,33.566487605699464],[10.948755014395738,33.56640058827432],[10.948651068382764,33.5663167888712],[10.948649144814507,33.566231380455136],[10.948647221254348,33.56614597203781],[10.948747319737599,33.56605895462824],[10.948745396093313,33.56597354621354],[10.948743472457126,33.56588813779754],[10.94884357055528,33.56580112032083],[10.948841646834968,33.56571571190746],[10.948835875722631,33.56545948665967],[10.948730007230605,33.56529027884986],[10.948724236540725,33.565034053567395],[10.948722312993628,33.56494864513734],[10.948720389454634,33.56486323670602],[10.948616445393261,33.56477943718681],[10.948512501532534,33.564695637571944],[10.948510578218471,33.56461022912644],[10.948508654912507,33.564524820679665],[10.948506731614641,33.564439412231614],[10.948402788279802,33.564355612501764],[10.948298845145596,33.56427181267629],[10.948296922235658,33.56418641145329],[10.948294999007818,33.56410099575054],[10.948293076114071,33.564015594524996],[10.948395095765981,33.56401398591021],[10.948393172454011,33.56392857021007],[10.948391249476153,33.56384316898714],[10.948389326343383,33.563757760523686],[10.948387403218712,33.56367235205895],[10.9482834609518,33.56358855218188],[10.948281537943634,33.56350314370943],[10.948279614943567,33.56341773523571],[10.948277691951597,33.563332326760694],[10.948275768967726,33.56324691828441],[10.94816605875726,33.562906892830036],[10.94805634947072,33.56256686722985],[10.947738769848362,33.56205924056508],[10.947736847487455,33.561973832043776],[10.947527046461019,33.561720822330486],[10.947317238028834,33.56146781234399],[10.94700351028673,33.561131007780425],[10.946793713502215,33.56087799664088],[10.946581996841742,33.56053957649196],[10.946374123665365,33.560371973133286],[10.9462682665913,33.56020276269005],[10.946164330612993,33.560118960765244],[10.9459583797198,33.560036765268634],[10.9458544442349,33.55995296306345],[10.945852523881655,33.559867554417195],[10.945748588705731,33.55978375210997],[10.945646573866886,33.55978535836627],[10.945542638983772,33.55970155587429],[10.945440624229057,33.55970316195743],[10.945338609466264,33.559704767956596],[10.94523659469539,33.559706373871734],[10.945136499551445,33.55979338838786],[10.945138419194535,33.55987879707153],[10.94503832375779,33.559965811516584],[10.94493630866179,33.55996741719524],[10.944934389211209,33.55988200850251],[10.944932469768709,33.5597965998085],[10.945034484664115,33.55979499414017],[10.945032565129402,33.55970958545006],[10.945030645602772,33.55962417675867],[10.9449267114897,33.55954037371884],[10.944924792079528,33.559454965019725],[10.944818938981708,33.55928575317101],[10.944715005486566,33.5592019499271],[10.944612991268984,33.55920355530732],[10.944510977043322,33.559205160603504],[10.944509058066647,33.55911975187865],[10.944405125064897,33.55903594835439],[10.944301192263735,33.55895214473454],[10.944199178314722,33.55895374976328],[10.944197259825787,33.55886834825836],[10.944097173007284,33.55895535457195],[10.944095254618619,33.55886995306185],[10.9439932321041,33.558871558053525],[10.943889308375567,33.55878774668886],[10.943785376523174,33.558703949843185],[10.943783458296998,33.55861854107453],[10.94368144470877,33.558620145662665],[10.94367952642838,33.55853472964832],[10.943677608481226,33.558449328111216],[10.943779621868876,33.558447723533405],[10.943879716946219,33.55836071010427],[10.943979803173406,33.55827369673625],[10.943977884787044,33.558188287971525],[10.943975966408763,33.55810287920553],[10.943972129676427,33.5579320616697],[10.943970211322377,33.55784665289988],[10.943968292976404,33.55776124412877],[10.943966374638507,33.557675835356385],[10.943964456308688,33.557590426582735],[10.943962537986947,33.557505017807784],[10.94396061967328,33.55741960903158],[10.943958701367693,33.55733420025409],[10.94405880367909,33.5572471865817],[10.94416080698096,33.55724558187622],[10.944158888490962,33.557160173106496],[10.944260900333957,33.55715856818612],[10.944362912168874,33.55715696318176],[10.94446300521295,33.55706994933788],[10.944663190699421,33.55689592142531],[10.944763283141816,33.556808907356604],[10.944761364090521,33.55672349861147],[10.94475944504731,33.55663808986504],[10.944757526012177,33.55655268111733],[10.944755606985124,33.556467272368366],[10.944753687966152,33.55638186361809],[10.944647839252914,33.55621265139729],[10.94464592035846,33.55612724263804],[10.944541991127664,33.556043446306],[10.944438061772155,33.55595963539987],[10.944436143265117,33.55587423386573],[10.944334132942457,33.555875838876666],[10.944230204150687,33.55579203501862],[10.94422828569773,33.55570662623235],[10.94412435721487,33.55562282227228],[10.944120520549896,33.55545200468302],[10.944220611966688,33.555364991074455],[10.944218693554122,33.55527958228179],[10.94421677514963,33.555194173487855],[10.944318784678172,33.55519256860217],[10.944316866181488,33.55510715981212],[10.944314947692883,33.555021751020774],[10.944313029212354,33.554936342228174],[10.944311110739903,33.55485093343428],[10.94430919227553,33.55476552463911],[10.944205264892325,33.55468172069738],[10.944203346544377,33.5545963118945],[10.944201428204508,33.55451090309034],[10.944199509872716,33.55442549428491],[10.944197591549,33.554340085478195],[10.944195673233365,33.5542546766702],[10.944193754925804,33.55416926786093],[10.94419183662632,33.554083859050394],[10.944188000051588,33.553913041425474],[10.944186081776333,33.55382763261109],[10.944082155677123,33.55374382850941],[10.943978238590141,33.55366003141536],[10.9438743040803,33.55357622001933],[10.94387238613815,33.55349081118435],[10.943766551572235,33.55332159781081],[10.943660708782499,33.55315238446357],[10.943556784173493,33.553068587104],[10.943452859602472,33.55298478240959],[10.943450942117888,33.55289937354505],[10.943347017855729,33.55281556874863],[10.943345100487555,33.55273015987638],[10.943241176534254,33.55264635497796],[10.94313725278148,33.55256254998397],[10.943135335638047,33.552477141097576],[10.943133418502683,33.552391732209905],[10.943029495167096,33.55230792710748],[10.943027578148136,33.55222251821209],[10.943025661137247,33.552137109315446],[10.94292173821884,33.55205330410458],[10.942919821324352,33.55196789520021],[10.942711976305747,33.551800284478944],[10.942506048550387,33.55171808230553],[10.942400210281708,33.55154886768033],[10.94219428340446,33.551466664952855],[10.942088446062295,33.551297450021686],[10.941778599350403,33.55113144047816],[10.941674678838165,33.5510476341206],[10.941572674020787,33.55104923665418],[10.94146875380125,33.550965430111944],[10.941366749067999,33.55096703247244],[10.94136483394456,33.550881630713434],[10.9412609139637,33.55079781674082],[10.941156994508006,33.5507140171512],[10.941051159975407,33.55054479396863],[10.940947241029018,33.550460994181485],[10.940737488793362,33.550207970802596],[10.940529652196103,33.55004035606807],[10.940423819911441,33.54987113949753],[10.940319910871123,33.549787331749194],[10.940215984733793,33.54970352417689],[10.940110162140645,33.54953430715698],[10.94010824819489,33.54944889807519],[10.940106334257198,33.54936348899211],[10.940104420327565,33.549278079907765],[10.940102506405992,33.54919267082214],[10.940202586468288,33.549105660631426],[10.940200672462595,33.5490202515484],[10.940096764689619,33.54893644355761],[10.94009485080028,33.54885103446687],[10.940092936919,33.548765625374855],[10.940091023045776,33.548680216281575],[10.940089109180613,33.548594807187],[10.940189188597685,33.548507797023404],[10.940187274648407,33.54842238793144],[10.940185360707188,33.54833697883819],[10.940183446774027,33.54825156974368],[10.940081453800545,33.548253170795995],[10.940079539975672,33.548167761695055],[10.940077626321077,33.54808235983211],[10.940073798711625,33.54791154162384],[10.93996988379003,33.54782773359617],[10.939967970105688,33.5477423244837],[10.93986214176268,33.5475730999946],[10.93986022836494,33.547487698112434],[10.939756314169182,33.547403889874424],[10.939754400725597,33.54731848074527],[10.939752487290072,33.54723307161483],[10.939750573862604,33.54714766248313],[10.939646660192189,33.54706385413031],[10.939540833519414,33.54689463653613],[10.939333007397517,33.54672701934001],[10.93922909463727,33.54664321059865],[10.93912518207749,33.546559401761776],[10.939021269718175,33.54647559282938],[10.93901935706483,33.546390183650146],[10.938915445014265,33.5463063746158],[10.938811533164165,33.546222565485934],[10.938809620735437,33.54613715629258],[10.938705709356167,33.54605335430007],[10.938601797853183,33.545969537733434],[10.93859988581115,33.54588413576526],[10.938497886874815,33.54588573554985],[10.938495974778983,33.54580032633598],[10.938290065195305,33.54571811641757],[10.938186154656234,33.54563430670817],[10.938184242723196,33.54554889023572],[10.938080332654902,33.545465087663665],[10.937972599540274,33.54521045926099],[10.937868689927395,33.545126649245766],[10.937764780514971,33.54504283913503],[10.937660871302999,33.54495902892877],[10.937658960097513,33.54487361965971],[10.937556962291476,33.544875218627006],[10.937555051194263,33.54478980935152],[10.93745114249146,33.544705998947826],[10.93734914486978,33.54470759773696],[10.937347233989104,33.54462218844862],[10.937345323116478,33.54453677915902],[10.937243325687199,33.54453837785392],[10.937241414922838,33.544452968557884],[10.937137515577877,33.54436915772571],[10.93713560492982,33.54428374842199],[10.937031688597115,33.54419993775897],[10.936927789761283,33.54411612672937],[10.93682387382948,33.54403231587533],[10.936617978618536,33.54395010280994],[10.936616068511798,33.54386469347414],[10.936514063179809,33.54386629167576],[10.936410165237893,33.5437824801751],[10.936204262340748,33.543700266518435],[10.936100356243706,33.543616454873174],[10.935996450347103,33.543532643132416],[10.93599454088188,33.54344723375941],[10.935790548411957,33.543450428748955],[10.935686643008408,33.54336661672811],[10.935684733859913,33.543281207337145],[10.935582737805296,33.54328280461177],[10.93547883280262,33.543198992399944],[10.935374928000373,33.54311518009261],[10.935373019176641,33.5430297706824],[10.935271023398565,33.54303136768979],[10.93526911468308,33.54294595827318],[10.935165210389957,33.542862145768446],[10.935061306297262,33.54277833316822],[10.935059397806318,33.5426929237375],[10.934957402404999,33.5426945204725],[10.934853498713164,33.54261070768129],[10.934751503395992,33.542612304243285],[10.934749595221758,33.542526894794605],[10.93464569193078,33.542443081812415],[10.93464378387283,33.54235767235606],[10.93464187582291,33.54227226289842],[10.934537972948851,33.54218844980793],[10.93453606501521,33.542103040342624],[10.934432162611527,33.54201923438954],[10.934328260084854,33.54193541386234],[10.934224358081998,33.54185160771831],[10.934120456117865,33.54176779423946],[10.93411854846355,33.541682377507904],[10.934016554192484,33.54168397342581],[10.933912652790864,33.54160016699534],[10.933808751427991,33.541516353230044],[10.933704850265539,33.54143253936926],[10.933702943205857,33.5413471298514],[10.933597135408641,33.54117790636319],[10.933595228473257,33.54109249683636],[10.933593321545901,33.54100708730826],[10.933591414788204,33.54092168501821],[10.933487523054028,33.54083786355985],[10.933385521088958,33.54083945905807],[10.933281629808997,33.540755644654496],[10.933179636575979,33.540757239844446],[10.933073830554507,33.540588015831446],[10.932969931389454,33.54050420851606],[10.93286603210166,33.54042038662653],[10.932762133337404,33.54033657912018],[10.932658234611992,33.540252764279025],[10.932452343499216,33.54017054390888],[10.932348445266795,33.54008672878773],[10.93224454723478,33.5400029135711],[10.932038657083917,33.539920692474354],[10.93193666475665,33.539922286605766],[10.931832767309803,33.539838471020076],[10.931728870063358,33.53975465533893],[10.931521076171677,33.53958702369024],[10.9315191713928,33.53950161403662],[10.931415274855778,33.539417798062665],[10.931309473964735,33.53924857232556],[10.931205577936728,33.53916475615429],[10.931203673498544,33.53907934647892],[10.931201769068377,33.53899393680225],[10.931095969143263,33.53882471083839],[10.930990169642987,33.538655484765],[10.930988265453303,33.538570075071696],[10.930986361271637,33.53848466537715],[10.930982552932363,33.5383138459842],[10.930980648774753,33.53822843628581],[10.930978744625158,33.53814302658614],[10.931076926444952,33.53797061392487],[10.93107311800151,33.53779979452686],[10.931173203578156,33.537712791499274],[10.931171299276293,33.53762738180222],[10.931271384560393,33.53754037870352],[10.931269480174379,33.53745496900902],[10.931267575796381,33.537369559313255],[10.931161777887247,33.53720033329774],[10.930950183504779,33.53686188817747],[10.930536517417016,33.53661203087865],[10.930124765504855,33.53644758173502],[10.929816897349282,33.53636694169275],[10.929716803354598,33.536453951008646],[10.929512835202637,33.536457134939425],[10.929412749116144,33.53654412940907],[10.929312663151796,33.53663113828246],[10.929212576664588,33.53671813260217],[10.929006697243425,33.53663591327881],[10.928904708591288,33.5366375047764],[10.928802719931147,33.53663909619007],[10.928700731263,33.53664068751982],[10.92859684073263,33.53655686168461],[10.928492950725007,33.53647305023266],[10.928389060595398,33.53638922420658],[10.928387159287924,33.536303821590195],[10.928285170988497,33.53630541256376],[10.928283269628047,33.53622000270163],[10.928281368275599,33.53613459283822],[10.92838145493004,33.53604759201532],[10.928379553493423,33.53596218215449],[10.928377652064816,33.53587677229238],[10.928579726016874,33.53578818029149],[10.92887998329937,33.535527176934735],[10.92898006865949,33.535440175665904],[10.929080153980477,33.535353181561455],[10.929180238778669,33.53526617290334],[10.929278421279582,33.5350937615821],[10.929274616948552,33.534922949162564],[10.929374701069527,33.53483594036608],[10.929372798904485,33.534750537777924],[10.929370896586212,33.53466512794913],[10.929368994275949,33.53457971811907],[10.929367091973695,33.534494308287734],[10.929365189679455,33.53440889845512],[10.929361385115,33.53423807878609],[10.929257497129843,33.53415426063449],[10.929255594967813,33.534068850791655],[10.929151707291185,33.53398503253824],[10.929149805245347,33.53389962268774],[10.929045917877245,33.533815804332484],[10.92894203070949,33.5337319858818],[10.928838143742077,33.5336481673357],[10.928734256975009,33.53356434869417],[10.92863037040828,33.5334805299572],[10.928422597875851,33.53331289219698],[10.928216727217029,33.533230663963096],[10.928110940579753,33.53306143484097],[10.927906971554185,33.533064615979654],[10.927803086373828,33.53298079649207],[10.927699201393809,33.532896976909065],[10.927493332365842,33.532814747407016],[10.92738944787866,33.53273092754414],[10.927285563591814,33.532647107585845],[10.927079695525522,33.53256487735751],[10.926871928137832,33.53239723678579],[10.926666061033217,33.53231500583119],[10.92656407731395,33.53231659522165],[10.926460202952349,33.53223277438445],[10.926254327954,33.53215054284985],[10.926152353050156,33.5321521317597],[10.926048461979406,33.532068310823114],[10.925946487159733,33.53206989956004],[10.925842605028542,33.5319860783043],[10.925636739807295,33.531903845562844],[10.925534756508918,33.53190543408863],[10.925432773202552,33.531907022530504],[10.925430874962728,33.53182161246403],[10.925328891748533,33.53182320081689],[10.925226908526348,33.531824789085825],[10.925124925296172,33.53182637727085],[10.925022942058009,33.53182796537197],[10.924920958811859,33.531829553389166],[10.924818975557718,33.531831141322456],[10.92481707792686,33.531745731224056],[10.924715094764895,33.53174731906832],[10.924713197242186,33.531661908963535],[10.924813282689113,33.531574911023434],[10.92491336793572,33.531487913008334],[10.92511543571937,33.531399326842696],[10.92521552061807,33.53131233583823],[10.925417587507782,33.531223741962975],[10.925413791324909,33.5310529290477],[10.925411893165014,33.53096751896848],[10.92540809670832,33.530796691566835],[10.925404300605372,33.53062587863882],[10.925396708173613,33.53028423828877],[10.92539291200569,33.5301134181061],[10.925389115869736,33.52994259791832],[10.92528523690315,33.529858776057864],[10.925177562626324,33.52960414112299],[10.925175664802603,33.52951873101187],[10.925173766986878,33.529433320899486],[10.925069888853463,33.5293494988227],[10.925067991153869,33.52926408870265],[10.925066093462265,33.529178678581324],[10.925064195778653,33.52909326845873],[10.925062298103029,33.52900785833485],[10.925060400435399,33.528922448209705],[10.925058502775759,33.52883703808329],[10.92495462549148,33.52875321587282],[10.924852645850864,33.52875480370615],[10.92475066620226,33.52875639145557],[10.924650583796735,33.52884338926923],[10.924652481055785,33.528928799416086],[10.924450418384808,33.52901738467163],[10.92434843840382,33.529018972100765],[10.924142581651592,33.52893673653623],[10.923730869277064,33.528772264335196],[10.923525013654768,33.528690027698715],[10.92321717884106,33.528609377185624],[10.9228054782948,33.52844490164589],[10.922497644939812,33.52836424928542],[10.922291791369137,33.528282010516655],[10.921776211903738,33.52803370688032],[10.921468380853,33.52795305186891],[10.921260635315107,33.52778540098199],[10.921054784212641,33.52770316005813],[10.92084704006082,33.527535508421],[10.920641189919936,33.52745326677114],[10.920539211546558,33.52745485099902],[10.92043534015571,33.527371024764044],[10.920333361866536,33.527372608819014],[10.920127512563182,33.52729036628176],[10.920023641757249,33.527206539678076],[10.919610052696914,33.52695664273705],[10.919404205024259,33.52687439893225],[10.919092596764578,33.526622916870764],[10.918884867572721,33.52645526155213],[10.918780990307399,33.5263714339511],[10.918679021738997,33.5263730164684],[10.91857326231718,33.52620377806037],[10.918469394299214,33.52611995003908],[10.918265440414439,33.526123114724264],[10.918059595918953,33.526040868557416],[10.917957619048847,33.52604245060128],[10.917547821418614,33.52596336739463],[10.917240001203607,33.52588270144114],[10.917238111609858,33.52579729811959],[10.9171361349765,33.52579887947703],[10.917032268629331,33.52571504293874],[10.916928402802746,33.52563122078394],[10.916826426345795,33.52563280187953],[10.916724449880892,33.525634382891226],[10.916518607898109,33.52555213406253],[10.916312766292005,33.52546988487664],[10.916210789987613,33.5254714654587],[10.916108813675269,33.52547304595686],[10.916004948842422,33.525389215742756],[10.915593276328535,33.52522471510536],[10.914870006887375,33.524808719747284],[10.914562192972596,33.524728046886615],[10.914354468378056,33.52456039081888],[10.914252493024115,33.52456196975108],[10.914046655609855,33.52447970938548],[10.913944680332229,33.524481288060926],[10.913738843698704,33.52439904164416],[10.913636868497377,33.52440062006286],[10.913431032164905,33.52431836587665],[10.913021246119671,33.52423926722761],[10.912611460756413,33.524160167194445],[10.912407510771981,33.52416332207191],[10.91210158573583,33.524168053758935],[10.911897635672066,33.5241712077975],[10.911795669274635,33.52417278455725],[10.911691810042889,33.52408895050478],[10.911280142621994,33.52392443511541],[10.910764618846292,33.523676083412745],[10.910558786746819,33.52359382428389],[10.91025098066237,33.523513140392495],[10.909943175115272,33.523432455714406],[10.909635370105535,33.52335177024964],[10.909327565633165,33.5232710839982],[10.90912173575444,33.523188822392505],[10.908813932280465,33.52310813482449],[10.908608111885748,33.5230258721983],[10.908506129343877,33.52302744646982],[10.908402283221513,33.522943609348516],[10.908198335590935,33.52294675719508],[10.908096361763771,33.522948330992534],[10.907994387928694,33.52294990470609],[10.907890533729145,33.52286606726717],[10.907788559978359,33.52286764080789],[10.907686586219658,33.52286921426473],[10.907480758730363,33.52278694983662],[10.907376905207931,33.522703111940274],[10.907274931617819,33.52270468505145],[10.907069104882025,33.522622419909226],[10.906967131368297,33.52262399276368],[10.906865157846662,33.52262556553424],[10.906659331656217,33.52254329968929],[10.906555479195564,33.522459461062375],[10.906453505842528,33.52246103348728],[10.906351532481585,33.5224626058283],[10.906249559112734,33.522464178085436],[10.906145707128957,33.52238033909643],[10.905941760551952,33.52238348318114],[10.905839787251592,33.52238505509766],[10.905735935744698,33.52230121574655],[10.905531989304686,33.52230435915008],[10.905530111314205,33.522218947954926],[10.905428138182462,33.52222051952581],[10.905326173688998,33.52222209087956],[10.905222314213042,33.52213825120432],[10.905120349803886,33.52213982238526],[10.905018376740644,33.52214139361554],[10.904916403669503,33.52214296476195],[10.904814430590456,33.52214453582446],[10.904610484408662,33.52214767769784],[10.904304565076712,33.52215238987877],[10.9040987422429,33.52207011964485],[10.903892919785868,33.52198784905391],[10.903483151950752,33.52190871810355],[10.903175357610987,33.52182801615311],[10.902971411977402,33.52183115530176],[10.902765591072358,33.52174888277569],[10.902459672815771,33.521753590351075],[10.902253852540518,33.52167131694955],[10.901740249251572,33.521508337448125],[10.901534430191047,33.52142606280282],[10.90122851285182,33.52143076729786],[10.901022694421124,33.52134849177714],[10.90081874965756,33.52135162734212],[10.900612931772363,33.521269351118804],[10.900307014820923,33.521274053318734],[10.900103070147214,33.52127718769928],[10.89989725306058,33.521194910254934],[10.899589464170793,33.52111419917247],[10.899281675818658,33.52103348730354],[10.898975759460905,33.52103818618667],[10.898871915969293,33.520954340769734],[10.898667971875879,33.52095747276123],[10.898564128927566,33.520873634310725],[10.89835831398826,33.52079134697808],[10.89825447153262,33.52070750824819],[10.898050527945367,33.52071063920288],[10.897946694203393,33.52062678558822],[10.897844722490206,33.52062835085084],[10.897638909082863,33.520546076753575],[10.897433095893831,33.520463795059875],[10.897229152781303,33.52046692464228],[10.896819397162593,33.52038777114734],[10.896099990753271,33.5201424845868],[10.895382456084475,33.519982605424616],[10.894870741757035,33.51990500832366],[10.89446098192954,33.519825846978804],[10.894155077613451,33.51983053367583],[10.893745327321014,33.5197513697933],[10.893437548727633,33.51967065025523],[10.893233607004065,33.51967377319442],[10.893129770355765,33.5195899154518],[10.893027799574465,33.51959147670667],[10.892823857988311,33.51959459896478],[10.892618051420628,33.51951231625364],[10.892516080700174,33.5195138770841],[10.892312139235713,33.51951699849337],[10.892210168491706,33.5195185590722],[10.892208303791783,33.51943314717759],[10.892004362480442,33.51943626807355],[10.891800421137711,33.519439388634],[10.891696586105036,33.519355529627894],[10.891490781089983,33.51927324498227],[10.891184869547068,33.519277924408826],[10.890980937125201,33.51928104347492],[10.890775132593191,33.51919874312953],[10.890467358377109,33.519118016034135],[10.889853673593205,33.51904195702317],[10.889341960006915,33.5189643368199],[10.888830247233608,33.51888671446829],[10.888624445672821,33.51880441767777],[10.88821657377044,33.518810647098775],[10.888112734342796,33.518726792302736],[10.888010764278409,33.518728349392404],[10.88790879420619,33.518729906398214],[10.887806824126143,33.51873146332013],[10.887703002467388,33.518647607898224],[10.887601023825864,33.5186491647794],[10.887499062468354,33.51865072131268],[10.887395232548435,33.518566865749854],[10.88719129270264,33.51856997865105],[10.886987352825532,33.51857309121672],[10.886783412917113,33.51857620344691],[10.886581332085205,33.518664727525874],[10.8864793620035,33.51866628335239],[10.886377391913971,33.518667839095045],[10.886275421816617,33.51866939475382],[10.886273563009121,33.518583982554496],[10.886169734304483,33.518500125918784],[10.886067764391692,33.5185016813998],[10.885861966151216,33.5184193798883],[10.8856561682877,33.51833707802001],[10.885554198536004,33.51833863307163],[10.88545222877649,33.51834018803937],[10.885350259009154,33.51834174292323],[10.885144461775981,33.518259440179904],[10.884732868440523,33.51809483362289],[10.884528929389194,33.518097942102465],[10.884323142101724,33.51801563781153],[10.884015368531026,33.517934887195835],[10.883709469024673,33.517939547866284],[10.883297879718617,33.51777493638215],[10.88299011648479,33.517694183019685],[10.882476560624456,33.51753112153491],[10.882064975426129,33.51736650579228],[10.88134748574744,33.51720654350271],[10.881143548382887,33.517209646336674],[10.880937757525642,33.51712733635309],[10.88073197569119,33.51704502588129],[10.880218427505687,33.516881954730785],[10.879806849353175,33.516717331207715],[10.879499092732148,33.516636568909284],[10.879191336649342,33.516555805824815],[10.878985549061618,33.51647349246935],[10.878677793978568,33.516392728069434],[10.877650718474822,33.516066565888444],[10.876315899778985,33.51565962445414],[10.875802367456576,33.515496541615704],[10.875186869980139,33.515334995732275],[10.874981088808466,33.5152526754723],[10.874777159605422,33.5152557676016],[10.874675188507998,33.515257313638756],[10.874469412289809,33.51517499243848],[10.874263632125842,33.51509267094709],[10.87405785233892,33.51501034909909],[10.873646293896222,33.514845704333176],[10.873129079553154,33.514511777018534],[10.872513597784717,33.514350217339306],[10.872307821306707,33.51426789245446],[10.872103889778927,33.51427098016895],[10.872000079686643,33.514187118179116],[10.871796148312436,33.514190205380466],[10.87169233829232,33.514106328638675],[10.870971209583262,33.51377548569409],[10.870046151907381,33.51344771542832],[10.869019140656874,33.51312147915668],[10.867786363632929,33.51271290145138],[10.866963296501577,33.51238356703761],[10.866551763037096,33.512218897724225],[10.866347835645167,33.51222197579813],[10.866244033263,33.512138101438964],[10.866038271880782,33.51205576565307],[10.865626737279586,33.51189109320746],[10.865420977028657,33.51180875635208],[10.86501128643998,33.51172949503959],[10.864395833432047,33.51156789379418],[10.864089944247059,33.51157250537736],[10.863987985492603,33.511574042338864],[10.86388602240775,33.51157557928167],[10.863784059315165,33.51157711614064],[10.863680260104077,33.51149323951158],[10.863478169991046,33.51158172621438],[10.8631741162155,33.511671748961014],[10.863072152968748,33.51167328523791],[10.862866391134162,33.51159094409767],[10.862560501601424,33.51159555190724],[10.86245854273107,33.51159708761092],[10.862354740397853,33.51151320989255],[10.862254616321842,33.51160015889695],[10.862152653105644,33.51160169441418],[10.861946892240592,33.51151935170888],[10.861945057838827,33.51143393821942],[10.861843094799617,33.51143547347521],[10.86163733460422,33.51135313022963],[10.86153720563566,33.51144007873937],[10.861535371641923,33.511354665228886],[10.861431574785964,33.511270786627605],[10.861329611908303,33.511272321454214],[10.861123852551833,33.51118997732308],[10.861023723229009,33.511276925430884],[10.860921764643136,33.511278459856996],[10.860817964126454,33.51119458078178],[10.860612209723705,33.51111223571121],[10.860508414177705,33.511028363531814],[10.860304488876192,33.511031431562124],[10.860204358720415,33.511118371791554],[10.860102395950303,33.511119905601994],[10.859898470386945,33.5111229729713],[10.85969271278651,33.511040633640455],[10.859488787361585,33.51104370032903],[10.859384992628707,33.51095981268739],[10.859281198251256,33.510875932190444],[10.859179240034605,33.51087746516638],[10.858973479327616,33.51079512465857],[10.858869689702596,33.510711236489406],[10.85764065489052,33.510473389345385],[10.85579802597238,33.51015929137798],[10.854978675628805,33.51000070250002],[10.85457082853483,33.510006819856066],[10.854365078091785,33.50992446415263],[10.854263116383754,33.50992599310938],[10.853955404771586,33.50984516557718],[10.85344194896362,33.509681979904336],[10.853238026001916,33.509685036195094],[10.853136064509535,33.509686564214675],[10.852935792361157,33.50986044790304],[10.852833830645586,33.509861975680884],[10.852628082058045,33.509779617020584],[10.852424158773264,33.50978267197951],[10.852118273788479,33.50978725378897],[10.851810568732068,33.50970642077396],[10.851604817084649,33.50962406042996],[10.851501035882492,33.509540173015914],[10.851399074459673,33.50954169960017],[10.851193327889344,33.50945933847879],[10.850989405190102,33.5094623910505],[10.850885620435196,33.50937850315623],[10.850781835880428,33.50929461516703],[10.850679874704081,33.50929614114958],[10.850268388850683,33.509131423242344],[10.849958860712176,33.508965164203055],[10.849443590785253,33.50871655466892],[10.848822720676297,33.5082986317277],[10.848513198327366,33.50813237609642],[10.848203681463396,33.50796611958199],[10.847997941467773,33.50788375289915],[10.847790381611,33.50771597163317],[10.847684781859776,33.5075466666235],[10.847582822554724,33.5075481899875],[10.84747904332677,33.507464299022296],[10.847375264298936,33.50738040796217],[10.847373444499084,33.507294993709365],[10.847269665779093,33.50721110254817],[10.847266026417818,33.50704027402642],[10.847164067682474,33.507041797025636],[10.847058470009076,33.50687249139459],[10.846954692104879,33.50678859993631],[10.846951053420565,33.5066177713725],[10.8469492340899,33.50653235708869],[10.846945595451551,33.50636152851728],[10.846841822608498,33.506277636868695],[10.846838184216217,33.506106808279895],[10.846732584066883,33.505937502350704],[10.84662335508545,33.5055973675603],[10.846514122696888,33.50525723269113],[10.846406705586098,33.50500251207558],[10.846301116659424,33.50483322002558],[10.846195523525228,33.50466391345218],[10.845987974996143,33.504496128700225],[10.845778608935897,33.504242914717324],[10.845671199979247,33.5039882077226],[10.845667564201547,33.50381737895764],[10.845663928454469,33.50364655018761],[10.845560155844222,33.503562657341455],[10.845456383434058,33.50347876440039],[10.845248843536286,33.50331097816911],[10.845143250080481,33.50314167059015],[10.84503766569238,33.502972362773725],[10.844932077405097,33.502803054913315],[10.844724535831952,33.50263526776066],[10.844618948583303,33.50246595958967],[10.844205685400398,33.502215798218515],[10.843171634397047,33.50154768102696],[10.842758375319038,33.501297514563305],[10.84203927123448,33.50105190238348],[10.842037457110694,33.50096648778611],[10.84152407239778,33.500803249943296],[10.84131835764501,33.500720871244106],[10.841214590522894,33.50063697448832],[10.841312917488798,33.500464627330395],[10.841820856021537,33.500371622326796],[10.843144406150243,33.50026646285385],[10.843035190622432,33.49992632400908],[10.843231831022337,33.49958162706004],[10.843322889586826,33.49906762024235],[10.843617849839742,33.49855058853418],[10.84381448071412,33.498205890836495],[10.845271023204118,33.494766503632896],[10.845782562770975,33.494844312534],[10.849674652498722,33.49564058452867],[10.850903457763314,33.495878526464104],[10.851618898811488,33.49595325949358],[10.852640173121875,33.49602340771752],[10.852947834101613,33.496104240408755],[10.856217391039966,33.496396980584315],[10.85928307402726,33.49669269885526],[10.863269957963105,33.49714534889833],[10.868283696242155,33.49792412733623],[10.87360520166915,33.49878346541235],[10.876574603222297,33.499336533813604],[10.876882295411065,33.49941730581713],[10.876984243481601,33.49941575867006],[10.877088039982686,33.49949962435485],[10.877393884424308,33.499494982144334],[10.877703426896062,33.49966116494724],[10.87811306522242,33.49974038604181],[10.879138100076622,33.49998113897095],[10.87954589442735,33.49997494236423],[10.879853591301824,33.50005570680134],[10.880569074909088,33.500130270584954],[10.882000062489828,33.50027938535457],[10.882407857567625,33.50027317928027],[10.88271370379404,33.50026852384445],[10.883735045733113,33.50033841285425],[10.884550626858166,33.50032598805684],[10.884652575544163,33.5003244345635],[10.88547002148396,33.50039741609067],[10.886081713660829,33.50038808931719],[10.886285610990576,33.50038497972214],[10.886591456926554,33.50038031470093],[10.88699925139837,33.50037409349917],[10.8873050971701,33.50036942671775],[10.887609075393915,33.50027934692772],[10.888830596268955,33.500175256973705],[10.889442285696514,33.50016591366422],[10.890967775159051,33.49997171787342],[10.891679547442548,33.49987539261063],[10.89391866588581,33.49967024359263],[10.894530341316624,33.49966087542102],[10.896259710108573,33.49946349156893],[10.89768509851553,33.49935618875108],[10.898294901145377,33.49926139019176],[10.899516389706841,33.49915719574717],[10.901143778972274,33.49896131020953],[10.902671096223733,33.49885238339914],[10.903280897320528,33.49875756045813],[10.906639461769334,33.4984495102199],[10.907962861491928,33.49834367621431],[10.90826869640221,33.49833895793785],[10.90847258630285,33.49833581200115],[10.909288145588965,33.498323224902],[10.909695925042108,33.49831692934101],[10.910615309315057,33.498388156218844],[10.911738585186278,33.49845625385278],[10.913373461443978,33.498601839136555],[10.913985131074481,33.49859237505637],[10.915720071149636,33.498650954924756],[10.916945296659184,33.498717411505865],[10.918172403529677,33.498869266916344],[10.91939952273092,33.49902110987501],[10.919705357975825,33.49901636328634],[10.919807303041546,33.499014780922494],[10.920216973989675,33.49909386141054],[10.920318919115605,33.49909227862257],[10.92430423811437,33.49945753752306],[10.927470224045853,33.49966455877509],[10.929003202484736,33.49981153894623],[10.929005101937493,33.49989694927471],[10.929110837963027,33.50006618000062],[10.929700376334408,33.50364544520284],[10.930382418381466,33.506796076175945],[10.930688278993918,33.5067913015076],[10.931505809351172,33.50686397547624],[10.932219484085199,33.506852826918845],[10.933344771959897,33.50700611961699],[10.933550583612915,33.5070883416954],[10.934166115769901,33.50724959582267],[10.934677790495035,33.507327031899706],[10.935599188170205,33.507483486163025],[10.936518673115781,33.507554538217875],[10.936826442816466,33.50763515089305],[10.937645892888336,33.50779320087084],[10.938157573045915,33.50787061509351],[10.93887698243114,33.50811565707722],[10.939902251500477,33.50835589724965],[10.940517802935767,33.50851711901935],[10.940927534485072,33.508596128582745],[10.941746999622572,33.50875414355791],[10.942570294348323,33.50908297202995],[10.943187760696151,33.509329589768825],[10.943395500725325,33.509497204389945],[10.943703282907684,33.5095777994681],[10.944526592338336,33.50990661434161],[10.945557654056262,33.5104030342405],[10.946071272230107,33.510565831480534],[10.947000383943468,33.511063843327086],[10.947825637879328,33.511478044456744],[10.9479295147443,33.511561847642525],[10.948445063230295,33.511810043785005],[10.94896061458877,33.51205823766481],[10.949580048237747,33.512390230978944],[10.949889766802702,33.512556226403326],[10.95030527963707,33.51289142401423],[10.950616922970045,33.51314282654718],[10.950822764337529,33.513225018721144],[10.952469508812909,33.51388254324707],[10.955349443117033,33.51494774734443],[10.956070865208975,33.515278087064075],[10.956998162737657,33.51569061078105],[10.957617651660478,33.51602256164339],[10.95844107135092,33.51635127953783],[10.95957424860289,33.51684596157376],[10.960297650541516,33.51726169088543],[10.961534746864956,33.517840145983634],[10.961946471493789,33.51800449199027],[10.96204843626996,33.51800287406956],[10.962462078765885,33.51825261970943],[10.963289405702728,33.518752120484045],[10.964220643584667,33.519335403854264],[10.96474015424599,33.519754337726376],[10.965049926819486,33.51992029302933],[10.965667538498614,33.520166792985876],[10.967110583981269,33.52082735513448],[10.968551710934747,33.521402491577035],[10.968655619267272,33.52148627608643],[10.969790842234866,33.52206626788867],[10.970100632283769,33.52223220984107],[10.971857426646576,33.523229470578976],[10.974027982297143,33.5244764089404],[10.976094661392349,33.525639529327215],[10.976714308611403,33.525971378584885],[10.977230003551872,33.5262194484573],[10.977641795737203,33.526383739510706],[10.978363410630754,33.52671394912932],[10.979085030860443,33.52704415432306],[10.9790869815031,33.527129561718475],[10.979196758987193,33.52746955884736],[10.979302635586482,33.52763874107919],[10.979304586486897,33.52772414845515],[10.979514390060547,33.527977105212784],[10.979726146235294,33.52831546890632],[10.979835927935108,33.5286554652606],[10.98015161535448,33.529077595047426],[10.980259447854678,33.52933218358561],[10.980477066904893,33.52992676032692],[10.98048292376632,33.530182989413106],[10.980596615744366,33.53069379210316],[10.980810335852134,33.53111756065974],[10.980918173100822,33.53137214838166],[10.981447602526757,33.53221804909084],[10.981553489687762,33.53238722890252],[10.981761357916524,33.532554773835265],[10.982073161761965,33.53280609051664],[10.982282986216156,33.53305904164051],[10.982386921740925,33.53314281347827],[10.982388876079884,33.533228220618604],[10.982598702511092,33.53348117111991],[10.98270654822296,33.53373575689249],[10.983026179240875,33.53432869926784],[10.983134009910517,33.534583277588936],[10.983345814629102,33.534921633365144],[10.983451691685278,33.53509081150431],[10.983453647215148,33.53517621856258],[10.984092935267705,33.53636209015369],[10.984198832945541,33.53653126722125],[10.984412586181772,33.53695502801012],[10.984516528531469,33.5370387977634],[10.984518485252472,33.53712420473958],[10.984620471081515,33.537122567420944],[10.984724413831913,33.53720633698276],[10.984726370769744,33.537291743945836],[10.985244130589187,33.53762518335582],[10.985761894341572,33.53795862043657],[10.986587582124685,33.53837254533075],[10.986693487213046,33.53854171994347],[10.98690529866618,33.53888006883849],[10.987219099948693,33.539216777744564],[10.98732500735657,33.53938595171212],[10.987432874963346,33.53964053235973],[10.987652532083512,33.540320499574655],[10.987868272300725,33.5408296527046],[10.98797026227398,33.54082801246849],[10.98848805582862,33.541161444133245],[10.988695958576454,33.541328968692426],[10.989317710336488,33.5417461551269],[10.9895256162399,33.54191368540598],[10.989527578248307,33.54199909205477],[10.98963349373419,33.54216826368504],[10.98963545586758,33.54225367032471],[10.98974333415414,33.5425082484675],[10.989749220978837,33.542764468351436],[10.989957130220816,33.54293199775935],[10.990372951109645,33.54326705542579],[10.990476889537167,33.543350819881475],[10.990478852587836,33.543436226460955],[10.990906476295502,33.5442837211994],[10.991122229256346,33.544792874803605],[10.99133603814851,33.54521662111147],[10.991445889480604,33.54555659659911],[10.99154984905211,33.545640359706795],[10.9922815017439,33.54639751166906],[10.993117130340114,33.547238420392326],[10.99405477321511,33.54807766997027],[10.994574600844945,33.548496472410385],[10.994886499828342,33.54874775272456],[10.995094433486242,33.54891527245493],[10.995406335476563,33.549166551331766],[10.996238082937916,33.549836624120175],[10.996444052232103,33.54991872794194],[10.996446021807946,33.55000414135895],[10.99665199168695,33.55008624481053],[10.996963902372771,33.55033751939462],[10.997583787976641,33.55066925376014],[10.997585758562806,33.55075465986827],[10.997589699760033,33.55092547208067],[10.997493592782233,33.55118333927878],[10.997705496143041,33.55152166606901],[10.997707466912425,33.55160707215901],[10.997811422516355,33.55169082971806],[10.998017397825233,33.55177293791919],[10.998225344813978,33.55194045182033],[10.998429349571254,33.55193715324639],[10.998533323550253,33.55202090987465],[10.998639269459403,33.552190072440354],[10.998641241030239,33.552275471233344],[10.99915717146743,33.552523440392214],[10.99956321079173,33.55243143375681],[10.999661268162336,33.552258971434384],[10.99976129815645,33.55217192225804],[11.00099717253529,33.55266453867359],[11.001307130489467,33.552830395513695],[11.001311079319432,33.55300120727994],[11.001313053746888,33.553086613161135],[11.001417031820008,33.553170367197495],[11.001626963329214,33.55342328084272],[11.001836896083011,33.55367619407679],[11.00204287966502,33.55375829523605],[11.002252814457139,33.55401120767672],[11.002462750493898,33.55426411970621],[11.002670711903203,33.55443162553417],[11.002674663655739,33.55460243711352],[11.003094542403561,33.55510825908748],[11.00320050092612,33.5552774099609],[11.003306460042193,33.55544656796294],[11.003822422139537,33.55569451635634],[11.003926405784986,33.555778268045316],[11.004040276298984,33.556289048122515],[11.004056095400758,33.55697229363037],[11.004166013485266,33.557312262066205],[11.004171946018912,33.557568471840135],[11.004481927817842,33.5577343269691],[11.004791893312337,33.5579001743149],[11.005103855635335,33.55815141892914],[11.00541581993095,33.55840266991921],[11.005517829460027,33.558401014471],[11.005121662835482,33.55892006938683],[11.005535640495038,33.55916966470244],[11.005743619833725,33.55933716458539],[11.005949620502985,33.55941925853498],[11.006463633827849,33.559581789079985],[11.006569604865858,33.559750943746515],[11.006785508909841,33.560260063740685],[11.006791449838843,33.560516272980685],[11.006899403239329,33.560770832759005],[11.007111350554196,33.56110914100349],[11.007113331295722,33.561194546468954],[11.007327261533014,33.561618259704304],[11.00743719914258,33.56195822430139],[11.007757110027276,33.56255109016413],[11.007863087465983,33.5627202434186],[11.007971046881973,33.562974794719544],[11.008075043622041,33.56305854959622],[11.008077025290085,33.56314394774523],[11.008079007302436,33.563229360370904],[11.007978973841574,33.56331641629022],[11.00952308318139,33.563889378016675],[11.009835081222702,33.564140616403776],[11.00993709722108,33.56413895706559],[11.010143113143327,33.56422104340186],[11.010657162357123,33.56438355505632],[11.010865164177517,33.56455104536551],[11.010967180593891,33.564549385160646],[11.01138318700979,33.564884364270156],[11.011591174121603,33.565051853530775],[11.011799196635486,33.565219341844276]]]}}]}
