{"type":"FeatureCollection","features":[{"type":"Feature","id":"osm:relation:7142933","properties":{"sourceId":"isie-best-effort-imada-525565-20260928","officialCode":"525565","governorateCode":"52","delegationCode":"5255","nameAr":"العقلة","officialSourceNameAr":"العقلة","sourcePdfURL":"https://www.isie.tn/wp-content/uploads/2023/CartesCirconscriptionsElectoralesLocales2023/مدنين/جرجيس/العقلة - (جرجيس).pdf","sourcePdfSha256":"476f90accf19b5c15d0b676b6abd5f78f08c1d765b34f663d8ac814118542e25","sourceGeometrySha256":"7e1d1e5acf50835f687a1c3906c5d66cd37bdcbfc101b0fcae88698babe17477","geometryMethod":"Pinned native ISIE red-face linework; exact registered EPSG:32632 face WKB; transformed to EPSG:4326 with always-XY axis order."},"geometry":{"type":"Polygon","coordinates":[[[11.10722389292359,33.55779185609921],[11.10712468663163,33.55820497670886],[11.107019946956408,33.55838961515276],[11.10633693019217,33.559498373851326],[11.10623439969448,33.559774405166266],[11.105973653555532,33.560281696116455],[11.105765270145252,33.5606966665255],[11.10544993404809,33.5612048861584],[11.105078896686171,33.56166833348425],[11.104324666425336,33.56209256491579],[11.103897935601546,33.56251123971855],[11.103686222571701,33.56278912111517],[11.103418824314216,33.56302222960943],[11.10288953927227,33.56371692764012],[11.102408206975298,33.564136523318815],[11.101985873417995,33.56473797647275],[11.101668286271865,33.56515479116318],[11.101508946586733,33.565340350435314],[11.10140639461113,33.56561637836769],[11.10124704661205,33.56580193746161],[11.100722148984588,33.56667941446111],[11.100617386128805,33.56686404817154],[11.100140438611108,33.56746641748395],[11.099821730044537,33.567837535500544],[11.099769347023187,33.56792985057895],[11.09960999836319,33.56811540768128],[11.098866704585518,33.56899657450254],[11.098493401854343,33.56936861030793],[11.098228174385385,33.56969310243969],[11.097587423092559,33.57029823662782],[11.097102723827089,33.57058072437727],[11.096300393742078,33.57128001260414],[11.095716411302417,33.57197560604658],[11.095346385197217,33.572484722588364],[11.09524050343361,33.57262365679806],[11.094820282074322,33.573316482138644],[11.094393451175172,33.57373512443764],[11.094073595220369,33.57406053070342],[11.094020102259071,33.57410714811886],[11.093703550962061,33.574569642884484],[11.093334602492547,33.575124452528364],[11.09270037558187,33.576003739927465],[11.092488598477672,33.576281604187194],[11.09227462104379,33.57646807410656],[11.091578088028648,33.57702840271146],[11.090620656927355,33.578095993407125],[11.090248375440401,33.57851370524738],[11.090035486098756,33.578745867230026],[11.089402301902235,33.57967083799927],[11.08913590846906,33.579949617088545],[11.088869513269174,33.58022839275195],[11.088817111627309,33.58032070666207],[11.088390217999562,33.58073933314561],[11.088127110497553,33.58115519719101],[11.0879753918106,33.5816606162007],[11.087767975614844,33.58212125873843],[11.08734874832984,33.58285975741326],[11.087195922064664,33.58331948003146],[11.086826896588219,33.58387426965268],[11.086458959846986,33.58447475693907],[11.085870430308363,33.584987523290096],[11.085493712159058,33.58522243384267],[11.084579761418228,33.585832098639685],[11.083778283207025,33.58657700909541],[11.083521708710672,33.58726704469865],[11.083364477848546,33.58754397745874],[11.083312066281842,33.5876362922346],[11.082812988933089,33.58732467243042],[11.080929199158208,33.58621342625287],[11.08065072700228,33.5859895229541],[11.080095973986086,33.58563311178661],[11.07987429345274,33.585499688051776],[11.079541225479954,33.58527669793608],[11.079427655032903,33.58509574298632],[11.079371961310066,33.585050962814684],[11.079203790963792,33.584870923295185],[11.078983206464917,33.58478319079412],[11.078818312178818,33.58474024131488],[11.078598820968693,33.5846982039906],[11.078651236200482,33.58460589685985],[11.078649050894319,33.58451450216721],[11.078647958279687,33.58446880627342],[11.078537665053293,33.58442494102766],[11.078428467900286,33.584426771521635],[11.078264666945609,33.58442951716937],[11.076837436852145,33.58413342591449],[11.075685394464662,33.58392413999312],[11.074698244178343,33.58375780143874],[11.073600807447006,33.583547585060465],[11.072722864298528,33.58337940416571],[11.069486285317353,33.58279345340083],[11.06849806999328,33.58258136527255],[11.067456346407715,33.58241587856795],[11.066744391480182,33.58233631566736],[11.06679898740983,33.58233540566609],[11.066797901131313,33.58228970941336],[11.066957353728906,33.58210419119435],[11.067009780147012,33.58201188564368],[11.067116802182875,33.58191867284834],[11.067169228325843,33.58182636723821],[11.067487039531276,33.581409633575504],[11.067752422679375,33.58108520212616],[11.067858355939181,33.58094628961071],[11.067963205507606,33.58076168072624],[11.06827665764946,33.580162154594326],[11.069064082466895,33.57882327581136],[11.069431029776895,33.578177139940244],[11.069693136719735,33.57771561324235],[11.069800150685648,33.577622398375915],[11.069904988917838,33.577437788120776],[11.070276279600074,33.576974437699505],[11.07043462383364,33.57674321646508],[11.070541639293443,33.57665000096144],[11.071176098125651,33.575770815674915],[11.072130486598262,33.57456627851718],[11.072342327003737,33.57428844671501],[11.072447159524998,33.57410383451385],[11.072708146406253,33.57359660613286],[11.0732901475387,33.57280971890995],[11.07365922211668,33.57225496719056],[11.073710546349286,33.57211696303229],[11.073815370046548,33.57193234988019],[11.0738656042956,33.57174864954078],[11.073915838282476,33.57156494627787],[11.073964979071649,33.571335549835176],[11.074014123103245,33.57110615331691],[11.074064356473752,33.57092245000205],[11.074115679447694,33.57078444860876],[11.074216145331425,33.57041704479813],[11.07426855405347,33.5703247395356],[11.074375557587906,33.57023151817742],[11.074429059303606,33.570184908919494],[11.07448146759772,33.57009260067138],[11.074534969172266,33.5700459913721],[11.074643062052095,33.56999846882687],[11.074695473481908,33.56990616044044],[11.075225022732921,33.569211573663594],[11.075699976684552,33.56851789558586],[11.076067928093199,33.56791744151145],[11.076119246243264,33.56777943650774],[11.07589979609396,33.56773739555664],[11.07408310259204,33.56712777756024],[11.072871260040989,33.566690885085436],[11.072759903735541,33.566601314491066],[11.072538284001988,33.56646787202387],[11.072033927205888,33.56592771758699],[11.071979338314732,33.565928629563636],[11.071140932874528,33.565119759103666],[11.070973907722877,33.56498540197913],[11.070148568756434,33.56472488805871],[11.069210801396697,33.56432910089546],[11.067722827317898,33.563759616517174],[11.067559067753553,33.56376234645848],[11.066682418513842,33.56363981053833],[11.066353810854684,33.563599571088865],[11.066187881011139,33.56351090348373],[11.06569334488237,33.56338199439321],[11.065197725477441,33.56320738682691],[11.065086384936565,33.56311781165221],[11.065030712948154,33.56307302114626],[11.065029628393972,33.56302732470023],[11.065027459223986,33.56293592890086],[11.065018782780008,33.56257035150098],[11.065016613728005,33.56247895860041],[11.065014444616832,33.5623875627922],[11.06495877322228,33.562342775135825],[11.064957688667045,33.562297075776144],[11.064678251715769,33.562027434737715],[11.064512326629728,33.561938767590036],[11.062737411236078,33.5607796964525],[11.062515819661343,33.56064623769013],[11.062127227601172,33.560378405542664],[11.062071558974399,33.560333616467375],[11.062014807484207,33.56024312790493],[11.062012641718749,33.560151731890755],[11.062011558874122,33.560106035336204],[11.06201047603194,33.56006033878129],[11.06200831035492,33.559968945670335],[11.062060730046662,33.55987664221714],[11.062058564262928,33.55978524620021],[11.062057481409164,33.55973954964426],[11.062055315708976,33.55964815653129],[11.06205423279369,33.55960245706808],[11.062053149949714,33.55955676051067],[11.062052067039318,33.55951106104672],[11.061996399030779,33.55946627190908],[11.06199531622285,33.559420575348994],[11.061939650037946,33.559375786153055],[11.061828316036456,33.55928620480119],[11.060832811994723,33.55875416474136],[11.060335064424908,33.55848814006367],[11.06033290064155,33.5583967468331],[11.06027507037705,33.558260557805006],[11.060270742983828,33.55807777132876],[11.060212914790334,33.55794158222445],[11.059991334347544,33.55780811845901],[11.059384428402307,33.557543902494416],[11.058942357121747,33.557322662173476],[11.058886692110278,33.55727787150714],[11.059474131063315,33.55671953289741],[11.060277726368712,33.55606617245633],[11.061617386940481,33.55499246178444],[11.0628489357333,33.55396624958935],[11.063383912214634,33.55350019762706],[11.064880726897565,33.55214954261938],[11.066054363173185,33.550987119996414],[11.066964845885552,33.5502405055281],[11.069051042160748,33.54842282920534],[11.071192815040693,33.54664990578406],[11.073331235796076,33.54473985912929],[11.075042776612577,33.54324835093145],[11.075706378818118,33.54360297211836],[11.076093842919022,33.54382506728848],[11.076534793976814,33.54400054565744],[11.076810938723723,33.54413307266522],[11.077031415493302,33.54422081071545],[11.077197317578316,33.54430946211424],[11.077252982909634,33.54435424458552],[11.077308644967502,33.54439903289961],[11.077417795297839,33.54439720525368],[11.077473460796345,33.544441987618626],[11.077530216722868,33.544532466177664],[11.077640454166586,33.544576334606276],[11.07775178581864,33.544665904900484],[11.07780744819187,33.544710687158236],[11.077972264831999,33.54475364117854],[11.078083593439699,33.544843205395736],[11.078248410451847,33.544886159032394],[11.078302985891892,33.544885244795566],[11.078522375067074,33.54492728385603],[11.07896224527978,33.54505706277305],[11.07923730198565,33.545143882148736],[11.079346449649208,33.545142052825156],[11.079456692184058,33.5451859195082],[11.079511267770648,33.54518500473163],[11.079566934895668,33.54522978899459],[11.07962150703649,33.545228874226545],[11.079676082644367,33.545227959376305],[11.079731749809783,33.54527274065435],[11.079786325441411,33.54527182575447],[11.079840897601049,33.54527091088873],[11.079895473227744,33.54526999594077],[11.080004624473728,33.5452681659728],[11.080059196623495,33.54526725101093],[11.080168347854672,33.54526542089875],[11.080224015287213,33.54531020194436],[11.080278590925317,33.54530928682662],[11.08033316309143,33.54530837174301],[11.080442314355297,33.54530654138737],[11.08060712985644,33.5453494947643],[11.080662797561036,33.54539427560113],[11.080771948910035,33.54539244495078],[11.080937856849921,33.54548109108507],[11.081102672896721,33.54552404377852],[11.081377732990953,33.54561085825004],[11.081542552943125,33.54565381028057],[11.081983523529416,33.54582927130648],[11.082367733807402,33.54591425172058],[11.08269737233054,33.546000149983776],[11.08286219005111,33.546043097352204],[11.08313725343613,33.54612991068001],[11.08330207159249,33.546172857443715],[11.083412317273465,33.546216720467804],[11.083631711901365,33.54625875314056],[11.083852200425412,33.54634647853431],[11.083962446583215,33.54639034104781],[11.08407268944836,33.5464342064229],[11.084237512055639,33.546477151840016],[11.084458001770084,33.54656487901239],[11.08478654674857,33.5466050726797],[11.08544364441769,33.546685457244116],[11.085498220739044,33.546684539792714],[11.085552793588354,33.54668362237561],[11.085660851478922,33.546636091383135],[11.08587915312557,33.54663242111346],[11.086042878467175,33.54662966817345],[11.08604616336598,33.546766758953794],[11.086101834694182,33.54681153719062],[11.08681460313619,33.546936695521445],[11.087967269750074,33.547191592621196],[11.088791386017965,33.54740629396724],[11.08890492532393,33.547587242436244],[11.08901627201778,33.54767679905007],[11.089074135179258,33.547812970550986],[11.090666720550658,33.54819757599698],[11.09094179774532,33.548284371379005],[11.091600006668179,33.54841042126585],[11.091654583859576,33.54840950105931],[11.091817213897194,33.548361044576666],[11.091982040016584,33.548403979432315],[11.092201446953142,33.548445993554786],[11.092475427823903,33.54848708676791],[11.092859658577494,33.54857203661817],[11.093407618412767,33.548654222419955],[11.093681603840848,33.54869531285432],[11.093790758434109,33.54869347056835],[11.09389990607817,33.548691628303374],[11.093954483366105,33.548690707076275],[11.09406473718274,33.548734560259206],[11.094173891798597,33.548732717633584],[11.094284145769983,33.54877657061434],[11.094503547680128,33.548818583595114],[11.095156269015408,33.54871612991107],[11.095158468736877,33.54880752417102],[11.095161768302743,33.54894461410512],[11.095061411935403,33.549312028841214],[11.095066911097343,33.54954051302713],[11.095450048584736,33.54957975596794],[11.095453348637767,33.54971684295324],[11.095454448730372,33.54976254152037],[11.09545664885308,33.54985393574743],[11.095458848915774,33.54994532706688],[11.09545994895085,33.549991022726054],[11.095406470906818,33.550037640308574],[11.095352992875359,33.55008426077599],[11.095300621684817,33.55017657676743],[11.095301721646244,33.55022227242952],[11.09524824337764,33.55026888995081],[11.09519586496314,33.55036120311502],[11.095144586471482,33.550499217736956],[11.095146786259452,33.55059060906513],[11.095092207818618,33.55059153086371],[11.09504092897368,33.550729542543394],[11.095181984848516,33.55205289626991],[11.09523656420511,33.552051974396434],[11.095237664281003,33.55209767295267],[11.095292243663804,33.552096751053575],[11.095511654382522,33.552138758975836],[11.095621913389937,33.552182610548314],[11.09578675195118,33.5522255398977],[11.096061843171967,33.55231232320869],[11.096553051543658,33.552304022052155],[11.096990781206234,33.55234233722186],[11.097210200219195,33.55238434486267],[11.097703611273824,33.55246743028526],[11.098360761854583,33.55254774398608],[11.098469914025776,33.55254589750596],[11.098689334131047,33.552587902474066],[11.099016804576356,33.55258236163559],[11.09929080449031,33.55262343903889],[11.099398854472463,33.55257589621077],[11.099508013545941,33.55257404869665],[11.099562593078945,33.552573124903525],[11.099782013606037,33.5526151250039],[11.10044467371379,33.552923910934375],[11.100396717641841,33.55319901377064],[11.100784284866213,33.55342102428252],[11.101171854109666,33.55364303640186],[11.101174060506585,33.553734427330575],[11.101121686719399,33.55382674569876],[11.100909984127213,33.55410461932447],[11.100696081267015,33.554291104470266],[11.100430905318406,33.55461559996066],[11.100596846595062,33.554704218206034],[11.1008184791565,33.55483761006945],[11.10098442130813,33.55492623066619],[11.10109578964834,33.5550157725546],[11.101153680468768,33.55515193727245],[11.10126615266146,33.55528717734351],[11.101378625211014,33.55542241729594],[11.101654835189736,33.55555488295626],[11.102372112901174,33.55586273235879],[11.103420192037172,33.55630211053124],[11.104301220558355,33.556607171428944],[11.104522856608515,33.55674055923071],[11.104577438586013,33.55673963312574],[11.104578543706008,33.556785328467456],[11.10485366423404,33.55687208824036],[11.105129883903858,33.557004548632676],[11.10722389292359,33.55779185609921]]]}}]}
