{"type":"FeatureCollection","features":[{"type":"Feature","id":"osm:relation:7142957","properties":{"sourceId":"isie-best-effort-imada-525564-20260928","officialCode":"525564","governorateCode":"52","delegationCode":"5255","nameAr":"حمادي بو تفاحة","officialSourceNameAr":"حمادي بوتفاحة","sourcePdfURL":"https://www.isie.tn/wp-content/uploads/2023/CartesCirconscriptionsElectoralesLocales2023/مدنين/جرجيس/حمادي بو تفاحة.pdf","sourcePdfSha256":"30835017f6bf447026161285f8fa65e1bcbadd9d850de71c555f3a149f7a0740","sourceGeometrySha256":"cb760840fb0b9f44be7f56d710976c945f996294ab3f7be9f5ca2996706fed0a","geometryMethod":"Pinned native ISIE red-face linework; exact registered EPSG:32632 face WKB; transformed to EPSG:4326 with always-XY axis order."},"geometry":{"type":"Polygon","coordinates":[[[10.974546636789185,33.31261730291332],[10.97513984851916,33.31143688305254],[10.975452588803877,33.311562016487485],[10.975762394855131,33.31155708653566],[10.976072200830963,33.31155215581201],[10.97638200673136,33.31154722431654],[10.976536909653266,33.31154475827938],[10.97668887610101,33.311412229555486],[10.976843778755462,33.31140976314453],[10.976998681391052,33.31140729654065],[10.977308486605622,33.311402362754],[10.977773194285945,33.31139496062692],[10.97792515853409,33.3112624304656],[10.978383987428614,33.31099490132399],[10.978690851558923,33.31085990178914],[10.978997714713714,33.310724901528076],[10.979301623530741,33.31045983844199],[10.979605543643968,33.31019477446007],[10.980058479104612,33.30966711493484],[10.980362394202086,33.30940204925521],[10.980508467326453,33.30900939167373],[10.980657481255015,33.30874679618593],[10.981119231684925,33.30860934189751],[10.981578036216249,33.30834177967297],[10.981884885919046,33.308206772716524],[10.982343686914136,33.30793925190765],[10.983112275474804,33.3076667596787],[10.983576961705937,33.307659336577295],[10.98557289184477,33.306846778657935],[10.986189516689652,33.306706806905225],[10.987583556992753,33.30668449843439],[10.98882565657818,33.30679471720102],[10.98928738194359,33.30665721130521],[10.989442275007079,33.306654729499634],[10.989760927084824,33.30703994999087],[10.990395270272263,33.30768032685883],[10.990871782437692,33.3081931002703],[10.991509113554244,33.308963531904695],[10.99214053769682,33.309473837132224],[10.992468091348034,33.31024923354509],[10.992634830509251,33.31076699256394],[10.993581999220215,33.311532439191375],[10.994371319113611,33.31217030532099],[10.99484788010452,33.31268308339042],[10.995163601398074,33.312938227158014],[10.995476373126891,33.313063308857664],[10.995634241700039,33.31319087987976],[10.995944049715906,33.31318589939437],[10.99672153581574,33.313303505678626],[10.998273544806144,33.31340864265294],[11.000445173156,33.313503777354356],[11.001067749252543,33.31362385227197],[11.001687366213291,33.313613863319276],[11.002000148859858,33.31373892813082],[11.002309957608656,33.31373393170032],[11.002625716737846,33.31398905528215],[11.002938501969258,33.31411411762191],[11.003105310904107,33.314631859681995],[11.003284027470752,33.315669842632936],[11.003760659015176,33.3161825835484],[11.004550092900523,33.31682035811592],[11.004865869873273,33.31707547521835],[11.005020779886577,33.3170729733066],[11.005330586721128,33.31706796911633],[11.006861794302848,33.31626257555621],[11.008392973592981,33.315457186116895],[11.010230947442091,33.314516680625545],[11.011765038968058,33.3138412895612],[11.012989314565429,33.313170903904535],[11.013451030287756,33.31303330843786],[11.014064654134017,33.31276313889154],[11.014368472067686,33.31249799354939],[11.014523373080516,33.312495480093084],[11.014675281109263,33.312362906984625],[11.014830181853926,33.312360393154805],[11.014982089174302,33.31222781969456],[11.015291890108058,33.31222279109492],[11.015446790546086,33.312220276505684],[11.015753596830056,33.31208518736975],[11.015908496980668,33.31208267221406],[11.016212306834863,33.3118175226319],[11.016671000853258,33.311549856507455],[11.016977802790876,33.311414764492305],[11.017129705152751,33.31128218856987],[11.017281607055224,33.311149612476264],[11.017743304681627,33.311012001660515],[11.018050102981238,33.31087690711805],[11.018356900304294,33.3107418118504],[11.018970492020733,33.31047161913962],[11.019426183599872,33.310073884014976],[11.019581079842919,33.31007136441454],[11.02034955855399,33.30979864540607],[11.020501452913724,33.30966606562459],[11.020963124001643,33.30952844350439],[11.021421804062136,33.30926076052274],[11.022190269444993,33.30898803057288],[11.022800831708178,33.30858776087096],[11.023411388833733,33.3081875104011],[11.02402494612344,33.30791729387278],[11.024638498997076,33.307647052397094],[11.025252048474048,33.307376830069344],[11.025558822257674,33.30724173986572],[11.026020484934577,33.307104099459806],[11.026940795161481,33.30669875506225],[11.027092660844527,33.306566167951075],[11.027244539201195,33.30643358045451],[11.02739942825874,33.306431051350785],[11.02755130590715,33.30629846350276],[11.028474612875028,33.306023166784456],[11.029397913712366,33.305747863408754],[11.029856547113868,33.30548015084187],[11.03047006426672,33.30520990382702],[11.031083577513117,33.304939653913365],[11.03215570729308,33.30440168047949],[11.03276920935684,33.30413142261664],[11.032921074716146,33.303998828614674],[11.033528531561217,33.303468450897654],[11.033680394624463,33.30333585604116],[11.034139001837975,33.30306812853634],[11.035365944245314,33.302527591811916],[11.036592897291449,33.30198704306536],[11.037816808655709,33.301316424901714],[11.038737000147167,33.30091099710837],[11.03904372869107,33.30077585306186],[11.03920163465596,33.30090336735613],[11.039244029318668,33.302724175199344],[11.039274313554843,33.30402475187378],[11.03931671475367,33.30584555871897],[11.039365177935824,33.30792648011485],[11.039383352399744,33.30870680339486],[11.039404557425382,33.30961720614168],[11.039413645585384,33.31000737870289],[11.039422733920514,33.31039755123738],[11.039917721147305,33.311690491556604],[11.040567623296962,33.31298088313435],[11.040734649607742,33.313498566350376],[11.041059611523758,33.31414375988673],[11.041220578053354,33.314401327605474],[11.0426723553191,33.31684946066457],[11.042994309441022,33.31736459071133],[11.04347724795524,33.31813728386907],[11.043638229415068,33.31839484774499],[11.043802248785846,33.31878246834318],[11.044452265462317,33.320072834000484],[11.04445834161602,33.32033294778635],[11.044786397239907,33.32110818573807],[11.044798552088212,33.32162841310245],[11.045123576840542,33.32227359290873],[11.04529062396836,33.322791256969154],[11.045943762180546,33.32421166832924],[11.046426740673725,33.324984336180655],[11.047240897395286,33.32666229808756],[11.047733059698759,33.32782513965244],[11.04822219114122,33.32885792215719],[11.048544225200054,33.329373033932974],[11.048711334693504,33.32989070213105],[11.049039467590648,33.33066591388491],[11.049367606889616,33.33144113548135],[11.05002085610286,33.332861518957856],[11.05034596462433,33.33350666989721],[11.05067107841394,33.33415183076187],[11.050677176298649,33.33441194294491],[11.050689372303061,33.3349321672753],[11.050868704301756,33.33597005544212],[11.050902249182599,33.337400671705076],[11.051081590347966,33.33843855888691],[11.051105990948587,33.33947899553746],[11.051273137988465,33.33999665817565],[11.05127618849238,33.34012671409703],[11.051437236369567,33.340384264572535],[11.051762386391536,33.34102942062019],[11.052406596337788,33.34205960682746],[11.052570704033139,33.34244721126376],[11.052886711054363,33.34270219633571],[11.053521784832016,33.3433422194945],[11.054308765423599,33.34384961820401],[11.055566730176693,33.344609422757216],[11.056669735073413,33.3453717824826],[11.057769724458835,33.34600407587566],[11.0582376543306,33.34612642102625],[11.058550628936095,33.3462513351829],[11.059176580730927,33.34650116101759],[11.059951364888333,33.34648830097927],[11.060416235146603,33.346480582638186],[11.061032996133623,33.34634023382188],[11.061342908923034,33.346335085775195],[11.0614978652882,33.34633251146209],[11.061962734265508,33.346324787363756],[11.062427603065508,33.34631706152687],[11.062892471688162,33.34630933395142],[11.063667252331701,33.3462964507956],[11.06459698845326,33.34628098463396],[11.065058784537232,33.34614319428106],[11.06552365146395,33.34613545689193],[11.065678607066722,33.34613287737588],[11.065833562649761,33.346130297666654],[11.065988518213057,33.34612771776427],[11.066143473756616,33.34612513766871],[11.066763269456432,33.34611481579246],[11.06754112187473,33.34623196301535],[11.068470855035297,33.346216467878435],[11.068628887514691,33.346343939049135],[11.068783843182596,33.34634135564437],[11.069096832190862,33.34646624258388],[11.069564778089292,33.34658854430092],[11.070977864690573,33.347345589997154],[11.072545933924818,33.348100041371076],[11.074581994091565,33.34897674275418],[11.077560223284735,33.35035806968778],[11.080228589449533,33.351744518318256],[11.081170759047557,33.35224913879477],[11.083684296790583,33.35363810715406],[11.086036735665573,33.354769521416536],[11.087292014872553,33.35539892257232],[11.088076185114405,33.35577604177581],[11.088544177921987,33.35589826920772],[11.089170277751089,33.356147937341376],[11.089635190734668,33.356140107634566],[11.090410045307848,33.35612705425858],[11.091184899381549,33.35611399605178],[11.092266580925573,33.35596565423717],[11.092576521674925,33.35596042692228],[11.092437118995543,33.356613290606006],[11.091712063500388,33.358707192373494],[11.09156331337921,33.35896990965649],[11.091423899772277,33.35962278341195],[11.091439462463848,33.36027304439616],[11.09144880031866,33.360663200950846],[11.091194865294469,33.363009365323904],[11.091108357590237,33.365873102703475],[11.09098138305998,33.36704618419716],[11.090907324030063,33.370430150269165],[11.090771004803111,33.37121307508248],[11.090786569218102,33.37186332409977],[11.090808360608111,33.37277368803107],[11.090861286369856,33.374984560231816],[11.090879967523165,33.3757648717519],[11.090898649396294,33.376545183164446],[11.090904876847299,33.376805286944744],[11.090765437182995,33.37745815950897],[11.090353333731844,33.37967688011485],[11.09022633893812,33.38084994855157],[11.089525986316852,33.38398424310214],[11.089398951265553,33.38515732207352],[11.08885045868757,33.388158949271585],[11.08871410198995,33.388941871529546],[11.088435159041872,33.390247611989196],[11.088301907655328,33.39116057459659],[11.088156208526074,33.391553340865855],[11.088019841934564,33.39233626240846],[11.086727137665056,33.39665145112583],[11.08644192727861,33.3976970840784],[11.085446750492558,33.40148683583914],[11.085310348807761,33.402269754776874],[11.084448388373286,33.40514652897471],[11.083601908858403,33.408673557297796],[11.082755368662104,33.412200591641835],[11.082758474190946,33.41233063243805],[11.08246385837706,33.41298610214897],[11.082473174787209,33.41337625762127],[11.082488702536272,33.41402651668205],[11.082659306331342,33.41467417026945],[11.082823700431765,33.415061719956185],[11.082984989575206,33.41531921761068],[11.08315559981539,33.41596685912485],[11.08448949051903,33.419847550139146],[11.084657013216587,33.4203651478965],[11.084818318058316,33.420622631346234],[11.084821428181398,33.420752693841166],[11.084868078206425,33.422703454535885],[11.084781411810694,33.425567183141474],[11.084824959051968,33.427387902064275],[11.084840512586847,33.42803815868051],[11.084691634586719,33.42830087037285],[11.084561418067285,33.42934387881036],[11.08428853699317,33.43090971201012],[11.083587639822062,33.43404397369334],[11.083444967544127,33.43456678678074],[11.082734691353087,33.43731089040285],[11.082452434771339,33.43848656606464],[11.0818785777643,33.440447761828885],[11.081887901257767,33.44083791571748],[11.081735886742438,33.440970573245565],[11.081593193907372,33.44149337349969],[11.081459821917319,33.442406338533715],[11.08074321914857,33.44489034084498],[11.080606728158006,33.44567324272338],[11.08017242099064,33.44698156975591],[11.080175527025254,33.4471116210591],[11.079893211070562,33.448287291713754],[11.079741180999205,33.44841994726466],[11.079455750594608,33.44946556577711],[11.079316137908771,33.450118415112016],[11.079319243034572,33.450248466420184],[11.079223100658965,33.45272204460554],[11.07926036523101,33.45428264851948],[11.079158011714537,33.4564961230183],[11.079167328694952,33.45688627657134],[11.079334903515292,33.45740387710315],[11.07949937418311,33.45779142615908],[11.080002116795788,33.45934421370972],[11.081985257411903,33.46438490947613],[11.083313730555018,33.46800544586631],[11.083804153346275,33.46903801951931],[11.0842883585869,33.4698104896568],[11.085408854865173,33.47122274887804],[11.08621591375231,33.472510185239194],[11.087178177357178,33.47379498904154],[11.089748521632435,33.47739451859267],[11.090714019709663,33.47880935067441],[11.09103690159448,33.47932430926642],[11.09120144404782,33.479711838324796],[11.091375420194826,33.4804894931793],[11.091701413635242,33.481134499600245],[11.091875398293398,33.4819121753481],[11.092049333798505,33.48268985152902],[11.092378496159887,33.48346490453134],[11.092549337413024,33.48411252958742],[11.092558724184025,33.4845026780684],[11.09288163973175,33.485017630165935],[11.093210819349023,33.48579268005473],[11.09337854186679,33.48631025393617],[11.093226470006465,33.48644292705636],[11.092782769994578,33.487361143054095],[11.092491137389368,33.48814668552726],[11.092335931993562,33.488149308268014],[11.092339061056558,33.48827935769763],[11.091898471190113,33.489327598385024],[11.091752648640297,33.489720368818034],[11.09130268868297,33.49037848095144],[11.090852695776128,33.491036592092314],[11.090396443113171,33.4914346027551],[11.090101650803605,33.49209009095516],[11.089946438135733,33.4920927109741],[11.089005788123586,33.49171827812349],[11.088844327518457,33.49146079744671],[11.088530780406291,33.49133598437541],[11.087583899725795,33.49070144063536],[11.087267235288726,33.49044657437939],[11.086947451470268,33.490061657394804],[11.08631725309896,33.489681970262914],[11.085842268788571,33.489299687242344],[11.085525614017156,33.489044794037625],[11.085367287590906,33.48891735812406],[11.085208961628021,33.48878992198768],[11.08475581158545,33.48931798461348],[11.08414744582663,33.48984861426073],[11.083542189359717,33.49050931332179],[11.083399442846222,33.49103212549044],[11.083250463050607,33.49129483728689],[11.083101482388152,33.491557548928334],[11.083104598050696,33.491687599052945],[11.082791057546213,33.49156277116339],[11.082477517908584,33.491437942442715],[11.082002539129162,33.49105562246533],[11.081055706532913,33.49042102681584],[11.081052594082507,33.49029097649499],[11.081207830736536,33.49028836729656],[11.081204718074368,33.490158316985514],[11.081198492809978,33.489898216354455],[11.081195380207758,33.48976816603443],[11.081186043048623,33.48937803710261],[11.081179817496382,33.4891179143895],[11.081170480636962,33.48872778541284],[11.081322548669082,33.48859510467815],[11.08131632394862,33.48833502604708],[11.080689299479479,33.488085358681666],[11.080065362838571,33.48796573888925],[11.079907046086165,33.48783829558856],[11.079283112097533,33.48771867174],[11.07897270019799,33.487723883885586],[11.078814385430814,33.487596439104514],[11.078029033623642,33.48721931313791],[11.077560311191187,33.487097075574276],[11.077243688447258,33.48684218190642],[11.077088483869746,33.48684478546236],[11.076930173404492,33.486717338087374],[11.076616659228554,33.48659249343754],[11.076455244788667,33.48633499462625],[11.076293831335216,33.48607749555777],[11.076138628028032,33.486080097871984],[11.076132418868186,33.48581999623212],[11.07566060252676,33.48556770020473],[11.075508503669958,33.485700352569616],[11.075201201386395,33.48583560588643],[11.075198098226286,33.48570555498547],[11.074884590026036,33.485580705695135],[11.074726285040809,33.48545325526548],[11.073937868231594,33.48494605080103],[11.073934767064083,33.48481599977717],[11.073466062683108,33.484693745951404],[11.07314946050892,33.48443884092447],[11.072835959634343,33.48431398613495],[11.072969462787634,33.4834010302076],[11.073419558281518,33.48274297961681],[11.07356235456085,33.48222017651664],[11.07370514928583,33.481697373276454],[11.073851043066613,33.481304621003765],[11.073835540740783,33.480654387482645],[11.073984533134183,33.48039168619996],[11.073978331223753,33.48013156191932],[11.074118020389353,33.47947872918774],[11.074415998925298,33.478953325914475],[11.07440049323381,33.478303070333105],[11.07454637897284,33.47791031737921],[11.07452777176905,33.477130010605684],[11.073748733968516,33.477012954925044],[11.0731248852475,33.47689329654077],[11.072966599230202,33.476765842988144],[11.072808313676012,33.47663838921294],[11.072805215171739,33.47650833792146],[11.072650028584915,33.47651093521514],[11.072491743956915,33.47638348099478],[11.072178273608603,33.4762586232377],[11.072023087405311,33.47626121972945],[11.07186790118213,33.476263816027085],[11.071709618115289,33.47613636074102],[11.071554432083884,33.47613895663768],[11.071088873870378,33.47614674316297],[11.070778527944766,33.47615193276921],[11.07015156794968,33.475902207929764],[11.069835008444283,33.4756472924903],[11.069831914498387,33.475517240933115],[11.069984031749037,33.47538459524803],[11.069822632779886,33.47512708624361],[11.069807163646308,33.474476828368076],[11.0691771783395,33.474097045457725],[11.068391990367004,33.47371986234554],[11.068078535146853,33.473594993567104],[11.067451627306136,33.47334525351961],[11.06729335594793,33.473217792081336],[11.067135085052747,33.473090330420575],[11.066979904002075,33.47309292038301],[11.066821633781595,33.472965458292975],[11.066663364024135,33.47283799598046],[11.06619473383891,33.47271571154726],[11.066495828906817,33.47232037775835],[11.066796921295802,33.47192504331858],[11.067101100400743,33.47165976009377],[11.067098011005934,33.47152970822796],[11.067703272591675,33.47086908792727],[11.067852268761003,33.470606393566946],[11.068457518637556,33.46994578097672],[11.068910676927505,33.46941779857293],[11.069059667124783,33.469155102937464],[11.069360737350827,33.46875976294192],[11.06951281778298,33.46862711856539],[11.06935455250984,33.46849965945718],[11.06935146011913,33.468369607710336],[11.069196287699619,33.468372200126495],[11.069031839595972,33.46798463701388],[11.068873576214184,33.46785717720687],[11.068557050839308,33.467602256925424],[11.068395698003014,33.46734474460403],[11.068072995548295,33.466829730213945],[11.06791164540597,33.46657220609886],[11.067592038350437,33.466187242108305],[11.066940478691999,33.46489708116004],[11.066779135979177,33.464639566251954],[11.065975523948966,33.463482039990254],[11.065655937022349,33.46309705903807],[11.065494601648172,33.46283954211336],[11.065175019296435,33.46245455971114],[11.065013686606274,33.46219704203494],[11.064858524759615,33.46219962860244],[11.064225541500683,33.46168977473983],[11.062804437345003,33.460672618188084],[11.062016318382286,33.46016532467514],[11.000830715562994,33.42512943383261],[10.953947360009446,33.403238686389685],[10.91642137500159,33.3967985299124],[10.916263459492969,33.396670860996466],[10.916108400155833,33.39667325725841],[10.915471034176067,33.395902447655885],[10.913392552301547,33.39307213716101],[10.912433734698528,33.39178583130651],[10.911799293377978,33.39114506555591],[10.91115630555976,33.39011410967269],[10.910995569205053,33.389856367188465],[10.910349760979333,33.38869532913374],[10.909373970438816,33.386628598925405],[10.908403914327966,33.38482200223799],[10.908079630570167,33.38417644202952],[10.90645825408014,33.38094863628978],[10.905967607196496,33.37978518620846],[10.90548548797153,33.379011933251455],[10.905316276993203,33.378363981872106],[10.904822824556417,33.377070459095485],[10.904490083506479,33.376034697801465],[10.903993822979986,33.37461111462373],[10.903661108825847,33.373575338910825],[10.90317053847049,33.37241187376579],[10.902840676903844,33.371506161787224],[10.902513648706405,33.37073051563901],[10.90201745426016,33.3693069101672],[10.900878599642862,33.36685227852613],[10.900543120660235,33.36568643477449],[10.90037680570383,33.36516854037478],[10.899720017326839,33.36348716196331],[10.899215441030114,33.36167333835093],[10.898553059681758,33.35973181607247],[10.898054176248435,33.35817814235172],[10.8969071301492,33.35533324681667],[10.896399838964166,33.35338933808039],[10.89541070965665,33.35067213277593],[10.894911941028829,33.34911842944438],[10.894249769878977,33.34717687362838],[10.893590440240525,33.34536538094433],[10.89309455416428,33.34394172404779],[10.892762096450193,33.342905916690825],[10.891939429892567,33.34070658114578],[10.890792837757239,33.33786160637975],[10.889640698606403,33.33475649088732],[10.893176433091407,33.333401492835925],[10.894556884974671,33.33272988219192],[10.896861360521912,33.331783904265805],[10.899777074962358,33.330438196255464],[10.901157433168441,33.329766504229745],[10.902385656911848,33.32922724027399],[10.903915247656752,33.328293008527034],[10.909585526110932,33.32534346983458],[10.913886663468464,33.32358579441861],[10.915886507897898,33.32290438921521],[10.926048763451679,33.31988469062799],[10.929436966964593,33.31892130030902],[10.933596810274876,33.317815713760375],[10.936838558855538,33.317244736534164],[10.941158912699155,33.31639659381605],[10.959096200336708,33.32157940374429],[10.972566005254052,33.32787152243046],[10.977047261907229,33.32727978788033],[10.977196314681006,33.32701719573909],[10.976880577275777,33.326762006967286],[10.976722709262852,33.326634412250996],[10.9768747006776,33.32650189366842],[10.976871762033234,33.32637182047843],[10.977023752777187,33.32623930173327],[10.977172804013831,33.325976709641736],[10.977327732387625,33.32597424167951],[10.977324793378147,33.325844179538144],[10.97716398773169,33.325586523172404],[10.977000244606065,33.325198804372846],[10.976994367752031,33.324938680003186],[10.976991429353323,33.324808617813915],[10.97698849097349,33.32467855562168],[10.977140478476517,33.32454602579075],[10.977444452103335,33.32428096561364],[10.977593499022197,33.32401837310898],[10.977742545327372,33.32375579147206],[10.97789159027145,33.32349318763064],[10.97804357463228,33.323360667820864],[10.978028875914928,33.32271035709213],[10.978025936228107,33.32258029493752],[10.978329900540677,33.322315232864796],[10.978625041535782,33.32165998373377],[10.977996540398388,33.32127967322867],[10.977028826259337,33.3196036716677],[10.976546452103912,33.318830698560504],[10.976069959286615,33.318317847977646],[10.975587601090535,33.31754487041884],[10.975423882257015,33.31715717030139],[10.975254294152684,33.31650930079871],[10.97509644818338,33.31638172509312],[10.9750935130602,33.31625164052715],[10.97509057895082,33.316121600054686],[10.975087644362814,33.31599153753105],[10.97508470979366,33.31586147500443],[10.9749268647809,33.315733876970164],[10.974923930479216,33.31560381442552],[10.974920996196381,33.31547375187793],[10.974918061932396,33.315343689327385],[10.974763152140403,33.31534615359335],[10.974760218125034,33.315216091027736],[10.974605308543962,33.315218555088606],[10.974602374777206,33.315088492507925],[10.974599441029293,33.31495842992429],[10.974441598389602,33.31483083116924],[10.974280822977581,33.31457316957732],[10.974277889764567,33.314443106957626],[10.974274956570394,33.31431304433499],[10.97411712873001,33.314185444885574],[10.974114195803253,33.314055382244916],[10.973956342402074,33.31392778297802],[10.974546636789185,33.31261730291332]]]}}]}
