{"type":"FeatureCollection","features":[{"type":"Feature","id":"osm:relation:7142910","properties":{"sourceId":"isie-best-effort-imada-525551-20260928","officialCode":"525551","governorateCode":"52","delegationCode":"5255","nameAr":"جرجيس","officialSourceNameAr":"جرجيس","sourcePdfURL":"https://www.isie.tn/wp-content/uploads/2023/CartesCirconscriptionsElectoralesLocales2023/مدنين/جرجيس/جرجيس.pdf","sourcePdfSha256":"7cdb91b628e77433f71e20d2eaffcc661d371103f9a72b3877199c3ce474e010","sourceGeometrySha256":"66e39ebac773f4e748e0b05f3bd0beb08f1e5777a8d5e8bab55c7aa3af8856ce","geometryMethod":"Pinned native ISIE red-face linework; exact registered EPSG:32632 face WKB; transformed to EPSG:4326 with always-XY axis order."},"geometry":{"type":"Polygon","coordinates":[[[11.11261788526023,33.50320856693964],[11.111455724416704,33.50372041705411],[11.110976548534387,33.50333498269929],[11.110624319362536,33.50334099146668],[11.110506909615381,33.503342994166836],[11.110389499856623,33.503344996755835],[11.110157065604039,33.50344736354229],[11.109924630786137,33.50354972991206],[11.10980960562916,33.503650093920875],[11.109692195402923,33.503652095865185],[11.109694580206911,33.50375045783162],[11.10957716983645,33.50375245967219],[11.109459759454394,33.50375446140162],[11.109339964654637,33.50365810103119],[11.109222554382015,33.503660102530894],[11.10898773380199,33.503664105196805],[11.108276122215837,33.50338102435036],[11.107679542262098,33.50299757721666],[11.107082967508891,33.50261412698036],[11.106723606313766,33.5023250378743],[11.10612704030687,33.501941582647866],[11.104826032972982,33.50157010933123],[11.103759851246364,33.50119464650664],[11.103525036497368,33.50119863856165],[11.10340526119461,33.50110225517367],[11.102935622087346,33.50111023764501],[11.102463626717375,33.501019872208076],[11.102228812244526,33.50102386178831],[11.101993997725458,33.50102785092396],[11.101874214732929,33.500931482820455],[11.101639400409763,33.50093547127445],[11.101402210866722,33.50084109674798],[11.101165021819465,33.500746721745685],[11.101045240106826,33.50065035278516],[11.100570864272234,33.50046160086073],[11.099739524722738,33.50008209908655],[11.098781298141546,33.49931113194131],[11.0979428737604,33.49863652882113],[11.09770569425441,33.4985421467798],[11.097231336729815,33.49835338126987],[11.096756981188419,33.49816461385698],[11.09652217356406,33.498168592324916],[11.096404769734596,33.49817058139218],[11.096284996756166,33.49807420744558],[11.095580574263899,33.498086138804304],[11.094521582565644,33.498005665157294],[11.093817159832636,33.498017586469636],[11.093582352162894,33.498021559351336],[11.0925233522082,33.49794106867602],[11.09262893117234,33.49744726760092],[11.092844816155191,33.496656391498504],[11.09305596703315,33.4956687887905],[11.093168636966949,33.49547007674731],[11.09304650606803,33.49527533619622],[11.09304177605537,33.495078626563355],[11.092673022957634,33.49439604077242],[11.092550894784422,33.49420129959943],[11.092546165684196,33.49400457319552],[11.092539072120019,33.493709483576815],[11.092400395130426,33.49282619962358],[11.09227117766688,33.492336368291795],[11.0920056565005,33.491061615100364],[11.091871717485844,33.49037505643451],[11.091864627184984,33.49007996651553],[11.09185517381159,33.48968652160358],[11.091848083751872,33.48939143164866],[11.092409041966503,33.48829951284134],[11.092406678099872,33.488201149537545],[11.092404314244728,33.488102786232034],[11.092857326175542,33.48740631190853],[11.093305601388767,33.48651310125187],[11.09341589519672,33.48621602591705],[11.093171661174434,33.485826543647526],[11.092800586305092,33.48504559248152],[11.092671380593092,33.48455576063213],[11.092542176481821,33.48406592855532],[11.092293226408287,33.48347972561766],[11.092037190806282,33.48259842341738],[11.091903268268515,33.481911863414204],[11.091651967011448,33.48122729513389],[11.091398307748197,33.48044435429196],[11.09126439447243,33.47975779305099],[11.091147015088245,33.47975977617991],[11.091020189590168,33.47936830508284],[11.090773625779093,33.47888045297097],[11.089799209188826,33.47742086457423],[11.08712736816233,33.47372661721494],[11.086157774298094,33.47246371412286],[11.085422955901308,33.4711968560856],[11.08433134342813,33.46973918508565],[11.083728044659857,33.46906051516325],[11.083350077543988,33.46798444344722],[11.081972126316552,33.46436669144119],[11.08009200470208,33.45937971039299],[11.079467694911761,33.45781573339626],[11.079338612381692,33.45732588116779],[11.079209531448601,33.456836028712594],[11.079200147139218,33.456442578514704],[11.079148535604313,33.45427855608193],[11.079228347429035,33.452702759071194],[11.079289392066233,33.45034003563459],[11.0793996953586,33.450042971084365],[11.079502960623659,33.44945082060874],[11.079829171081409,33.44836289678628],[11.080153027923304,33.447176615854346],[11.080150681374583,33.44707824279129],[11.080148335235018,33.44697988640134],[11.080587171068823,33.44569326043331],[11.080803064138687,33.44490239988204],[11.08144837485992,33.44243145993277],[11.081661906003681,33.441542233387146],[11.081765148675847,33.44095007291253],[11.08187777104186,33.440751371409725],[11.081988065174459,33.440454313105526],[11.08241274688688,33.43857749355374],[11.082736539097294,33.43739120688323],[11.083374703600995,33.434625155839484],[11.08347792893696,33.43403299408727],[11.084223967863391,33.43087152350238],[11.084538313145709,33.4292917655227],[11.08474943775744,33.42830416962086],[11.084742388225923,33.42800907540328],[11.084845599038696,33.42741692092175],[11.084800953183546,33.42554799046431],[11.084850120671321,33.42269344544886],[11.08480548291851,33.42082452190974],[11.084798435197596,33.42052942734655],[11.084678786003414,33.420433036417414],[11.084547392535287,33.419844820964656],[11.083163212910387,33.415931933573106],[11.082914544770853,33.415345687452735],[11.08279021202647,33.41505256413747],[11.082665880165655,33.414759440652155],[11.0825298188374,33.41397449984004],[11.082518088572593,33.41348267430314],[11.082515742553836,33.41338430919064],[11.082506358592822,33.412990848723545],[11.082726861863534,33.412396723307964],[11.08272216956008,33.41219999307293],[11.083578336780384,33.40874143858323],[11.084549365816162,33.40518255782381],[11.085302220521477,33.40231616512621],[11.085515636246283,33.40142693189123],[11.086481831965003,33.39767129953105],[11.086810145470894,33.396681724834785],[11.087996667285662,33.392331950683385],[11.088212386960068,33.39154107859191],[11.088205335554738,33.391245983275844],[11.088533599161897,33.39025640492473],[11.088737555642048,33.388973714846635],[11.088833654888541,33.38808646105389],[11.089351746048024,33.385223990969294],[11.089555682754947,33.38394129949861],[11.090186276344438,33.380880127550526],[11.0903901938926,33.37959742640338],[11.090807422782015,33.37742549206591],[11.09079331010104,33.37683530105311],[11.090903494477072,33.37653822810271],[11.090884677429234,33.375751306674374],[11.090983099554993,33.37496240772257],[11.090814120215187,33.37280035868205],[11.090907837588409,33.37181472905122],[11.09077649380119,33.37122651467767],[11.09087491407154,33.37043761543493],[11.091029422450806,33.36708925794783],[11.091116080399395,33.365808531662594],[11.091284689355023,33.36305036442202],[11.09134311709418,33.360589253008506],[11.091453292074396,33.36029217954739],[11.091436832941719,33.359603621742046],[11.09153994256763,33.359011452160935],[11.09165009529873,33.35871437889349],[11.093413049774952,33.3588814382412],[11.096955467119004,33.35990403656103],[11.09744084466591,33.36058466151312],[11.098971765895813,33.36085397028101],[11.098892303993436,33.36242979299852],[11.099030765819174,33.36331309255368],[11.099063808507799,33.36469018388505],[11.099551591610378,33.365469163216304],[11.10083160724277,33.36505386207018],[11.102322428180093,33.3636509264193],[11.104774620292126,33.36321572153563],[11.107587936423883,33.36316793258468],[11.111697780077387,33.36339320207382],[11.114197462188741,33.36492507511773],[11.11669960104276,33.36655525784353],[11.118151560923623,33.368400142378405],[11.119967184534042,33.37073079436834],[11.121419285692047,33.37257563402042],[11.12286906148579,33.3743220905511],[11.122703839001025,33.3771786290831],[11.123356921648222,33.37992274804976],[11.123648752796434,33.38227943551726],[11.122157987364478,33.383682614287565],[11.120097626276745,33.38578435615922],[11.118384169499471,33.38768332043057],[11.117958061999607,33.38946186614809],[11.11750095498129,33.38996169650264],[11.113384389733605,33.39436172947311],[11.109269788830833,33.398860002828826],[11.108735678062857,33.40103397395343],[11.106894919211966,33.40254133737028],[11.105767230861469,33.40443018360762],[11.1060397330097,33.40600001764358],[11.105007928921692,33.40700158273419],[11.10514180608208,33.407688136784],[11.105175001107225,33.409065221190986],[11.105555310138238,33.41023960739292],[11.106998326429135,33.411691136629614],[11.105377668282898,33.41260431379284],[11.10445121813725,33.41311207323915],[11.10401524719327,33.41449713366298],[11.104730845932526,33.4149769907221],[11.103478560119077,33.41657272216809],[11.100516506377932,33.42026391830172],[11.098346945273518,33.42276077769896],[11.096306390443349,33.42574743807594],[11.094164902939173,33.42942460137174],[11.093379119040707,33.43091393598792],[11.093297212288203,33.432391380625916],[11.093464080094193,33.43445503605774],[11.092424739549875,33.43516142665473],[11.092934132201975,33.43682568764432],[11.092746683265238,33.438796925849125],[11.09304033691466,33.44125205316934],[11.093441897622686,33.443311747459035],[11.094089945178304,33.4458592823814],[11.094747496346683,33.448800266440024],[11.095707471929424,33.449669657368126],[11.09631071793633,33.45034826418107],[11.097036045434901,33.451221616069994],[11.097428293431339,33.45288783466582],[11.09889086088517,33.45512632620028],[11.099754926141491,33.45688293166917],[11.100245647089386,33.45776024037133],[11.100975820476211,33.458830290767374],[11.101940705787696,33.45989634352506],[11.102903251926946,33.460864032766],[11.103171188537111,33.46223712880707],[11.10331940389257,33.463513846124755],[11.103594480554513,33.465182020707665],[11.103630098388736,33.46665746498436],[11.103649095628503,33.46744436844106],[11.104130419213702,33.467928204931866],[11.104966213654656,33.46850441593989],[11.105804396151397,33.46917897525048],[11.10618026563061,33.470156612854],[11.106438777501,33.471136246002494],[11.106690149979386,33.47182078208961],[11.106706799979175,33.47250932069047],[11.10613185747296,33.47301111970092],[11.10602875576439,33.47360329264862],[11.106749616864846,33.47427984813583],[11.10687651353766,33.47467130078659],[11.106538671069993,33.475267460799444],[11.106672685189345,33.47595400173156],[11.107489536923472,33.475743290870916],[11.10806925919126,33.47543821023516],[11.109123227703488,33.475321853428376],[11.110062203735376,33.475305850955635],[11.11137951055261,33.47636582145674],[11.112098060481253,33.47694398058497],[11.120318940887165,33.48182195478029],[11.116435601766936,33.486316532961546],[11.115122847396698,33.485453350148],[11.11386266163053,33.48675411589031],[11.113898482520813,33.48822953692525],[11.114046920394175,33.4895062368522],[11.114422971600986,33.49048383121498],[11.114075582346294,33.4906865713784],[11.114204918460016,33.49117637537768],[11.11514645232978,33.491258689562585],[11.11573818871902,33.49144537987152],[11.11597058449919,33.49134300393323],[11.117472769855832,33.49033328429993],[11.117705160510857,33.49023090528499],[11.117822552013667,33.49022889645355],[11.122431975872388,33.491429163250864],[11.120227865579633,33.49737107761035],[11.119890037363527,33.4979672802219],[11.11977742696729,33.49816601424937],[11.11966242048275,33.49826638677049],[11.119545018272756,33.498268397768065],[11.11954741373302,33.49836675919367],[11.119549809204926,33.49846512061756],[11.119434802069051,33.49856549294852],[11.119437197431639,33.498663854376424],[11.119319794667984,33.49866586518153],[11.119197611663934,33.49847115281772],[11.119080199187737,33.49847316355615],[11.11896040184537,33.49837681255184],[11.118958007048054,33.49827845108899],[11.118835825428013,33.49808373830362],[11.118720807956148,33.49818411015999],[11.118605810127889,33.49828448157756],[11.118378187924643,33.4985835859563],[11.118145776345346,33.49868596694994],[11.117685738319665,33.49908745075496],[11.11745571771562,33.4992881920697],[11.117223303114402,33.499390571436926],[11.11595099157876,33.50019955457852],[11.11560594979209,33.50050066192611],[11.11526090561843,33.50080176839182],[11.114465362874249,33.50189777665312],[11.11423771722008,33.502196874183475],[11.114122698972988,33.50229724195603],[11.114125088665867,33.502395603662684],[11.11401007003252,33.50249597134296],[11.113780031970078,33.50269670640947],[11.11261788526023,33.50320856693964]]]}}]}
