{"type":"FeatureCollection","features":[{"type":"Feature","id":"osm:relation:7142963","properties":{"sourceId":"isie-best-effort-imada-525562-20260928","officialCode":"525562","governorateCode":"52","delegationCode":"5255","nameAr":"الغرابات","officialSourceNameAr":"الغرابات","sourcePdfURL":"https://www.isie.tn/wp-content/uploads/2023/CartesCirconscriptionsElectoralesLocales2023/مدنين/جرجيس/الغرابات.pdf","sourcePdfSha256":"357802f3fa008f6bd2a4676bb1d1f78595a5f88117764d05be381c7eb39041d7","sourceGeometrySha256":"dd0779eb77bc374f087c7bf28ca5318339d605c9711d5ef75b20d2e01a8b8c18","geometryMethod":"Pinned native ISIE red-face linework; exact registered EPSG:32632 face WKB; transformed to EPSG:4326 with always-XY axis order."},"geometry":{"type":"Polygon","coordinates":[[[10.773018422289358,33.467756255933004],[10.77301614462053,33.46764450762336],[10.767022394052981,33.461470510685366],[10.766339894928928,33.4606977951673],[10.767230031874414,33.45856124370788],[10.767302076096108,33.45554213047145],[10.758340746050102,33.447621520819524],[10.757362512510282,33.44539978991797],[10.758438078845012,33.439236539880355],[10.759432156316574,33.43564540810007],[10.759606159956954,33.431059889626866],[10.758987310791124,33.426820980415826],[10.757824194109043,33.42203089151975],[10.75544165768377,33.41625202949054],[10.751783118077968,33.41328572593859],[10.75040797507311,33.4111813149833],[10.750229855893025,33.408948183888576],[10.750336178594582,33.40760530126386],[10.750826507709258,33.40547451299055],[10.751045860346677,33.40312397935264],[10.750075089337637,33.40123739656881],[10.749655212351618,33.4002372946593],[10.749910464083754,33.399674775716804],[10.750818395991976,33.39843234616082],[10.75372470191107,33.397161623576196],[10.754368357605351,33.39603468343548],[10.754865279657771,33.394239123485605],[10.755377929160813,33.393225826176504],[10.755375680298911,33.39311406598701],[10.755766344578625,33.3926614085858],[10.755764095458378,33.39254965788143],[10.756287973721742,33.39209510122523],[10.756814091270732,33.39175229324081],[10.757342461523686,33.39152124316391],[10.758004045994687,33.391288290976675],[10.758665626798564,33.39105533536761],[10.75905851214126,33.39071440947018],[10.759451400066123,33.39037348233062],[10.759970737332662,33.3896954099997],[10.76101389339979,33.388562760403964],[10.761278069003758,33.388447222316216],[10.761539982100496,33.38821993333166],[10.762057028316693,33.38743010264522],[10.76270953840835,33.38675012504016],[10.763366549362905,33.386293645072016],[10.76480472954937,33.384931785923015],[10.764933416260266,33.38470638774021],[10.765184006408182,33.383920340142865],[10.765308169820347,33.383471450499144],[10.765432331866043,33.38302255127019],[10.766091567889207,33.38267780819112],[10.766753055262042,33.38244481206931],[10.767829998665443,33.38298836234641],[10.76889788902001,33.383084902543175],[10.77236118269554,33.38303540687042],[10.774341054198189,33.382112809664434],[10.774982064112184,33.38087402259406],[10.77469066853635,33.37964859116681],[10.773042346992327,33.3772129866315],[10.772181928925814,33.374207178856324],[10.771768750248398,33.373542392467776],[10.771633293229982,33.3734325467326],[10.773351124737106,33.3727372791585],[10.774278897455591,33.37250043316037],[10.774807103695967,33.37226930389875],[10.775071205738886,33.372153738456184],[10.775206664846056,33.37226358038167],[10.77547530018327,33.37237151403246],[10.775608498646074,33.37236960545239],[10.775741685803544,33.37236769689134],[10.776008060080857,33.372363879340824],[10.77627214940173,33.372248311548276],[10.776533975368514,33.37202099323179],[10.776798074218023,33.37190542420907],[10.777193083969163,33.37167620423848],[10.777454905802426,33.371448884094605],[10.777716726274601,33.371221563435405],[10.77824491515303,33.37099042004869],[10.778646746247686,33.37109643537094],[10.778915393120347,33.37120436140789],[10.77918404044281,33.37131227736739],[10.779319503349306,33.37142212415996],[10.779719059646103,33.371416386247084],[10.77985451168678,33.37152621364441],[10.780120882803557,33.37152238735351],[10.780254079635736,33.37152047383164],[10.78078681037544,33.37151281912741],[10.781188646794067,33.371618835497564],[10.781459578190972,33.37183849591886],[10.781728230578139,33.371946415661185],[10.78199916452499,33.3721660842861],[10.782272381127855,33.37249750173219],[10.782681069045715,33.37293875189675],[10.783491608502004,33.37348599957766],[10.78389574026417,33.37370374661662],[10.784166673807167,33.37392341024858],[10.784570809224382,33.37414115495044],[10.7848417570978,33.374360816829],[10.785376811840553,33.37446489077997],[10.785512275807667,33.37457472102644],[10.785783227348826,33.37479438071051],[10.786054180251236,33.37501403974999],[10.786325134514916,33.375233698144875],[10.786462899067056,33.375455276257355],[10.786869334584294,33.37578476212679],[10.787411253371891,33.376224074363094],[10.787817695842115,33.37655354737618],[10.788088659319932,33.37677320156029],[10.788359624159128,33.37699285509968],[10.788364203134842,33.37721635311965],[10.788377940365093,33.37788684712784],[10.788515714523092,33.37810842255726],[10.78879355496981,33.37866331234923],[10.788933610562635,33.37899663631972],[10.789480153557154,33.379659435942955],[10.79052967280284,33.37886179974152],[10.79354494571237,33.376470778272434],[10.795248863903847,33.37510472910648],[10.79656006441477,33.37407968799269],[10.799575006147435,33.37168851977773],[10.801802240643132,33.369867654983054],[10.802066297124785,33.369752033467556],[10.8031201968978,33.36917779391779],[10.807202523813551,33.36688270133953],[10.811814993495815,33.3644679371514],[10.8129996150113,33.3637799322747],[10.813658509599264,33.36343494657652],[10.81392253014117,33.36331930089875],[10.814450569069072,33.36308800792254],[10.816030021466425,33.36217062088266],[10.81681739942395,33.36160018229742],[10.818004278515149,33.36102386984483],[10.824590227205215,33.357461862116025],[10.824985040575482,33.357232486449966],[10.825115855032506,33.357118778762036],[10.825379840748779,33.35700311922817],[10.825508330433122,33.356777663901255],[10.825641490178176,33.35677570260933],[10.8259054737342,33.3566600230667],[10.82603629761402,33.35654632377377],[10.826695084216496,33.35620127206844],[10.82788182197878,33.35562486936812],[10.829068543719998,33.355048455801025],[10.829596490516364,33.35481710114176],[10.830124423346403,33.354585753961835],[10.8306523641952,33.35435438551296],[10.831575082962562,33.35389363820215],[10.832626257747192,33.35320741284414],[10.832892565291422,33.35320347522104],[10.835922213207565,33.35159370056868],[10.83790067368063,33.35067013145997],[10.838692516158286,33.3503230446241],[10.840670905808059,33.34939943332753],[10.840934846309809,33.34928373259795],[10.840932492078084,33.34917198634547],[10.841196431534303,33.349056285091],[10.841460370271847,33.348940583297114],[10.84278005317943,33.348362066236795],[10.845155426246986,33.34732072065996],[10.847397598572975,33.34628129667472],[10.847792299474913,33.34605185184319],[10.84885034096009,33.34570073337748],[10.84898111790309,33.345587001823],[10.849114258855705,33.34558501594395],[10.849644457506717,33.345465325231444],[10.850043879619985,33.34545936505201],[10.85044093558053,33.34534165786707],[10.850571709857718,33.34522792472022],[10.850704850144034,33.34522593715472],[10.852174117617025,33.345427555917],[10.852573538985766,33.34542158760759],[10.853374751156075,33.34552139267285],[10.855231600813697,33.34515827523171],[10.855628647625892,33.34504055173245],[10.85668663102431,33.344689368084374],[10.857478340016097,33.34434216551273],[10.858006142416487,33.3441106944366],[10.859061738591295,33.34364774581658],[10.861182414543826,33.343168803047924],[10.861581812268353,33.343162806292256],[10.862373486753476,33.342815573566654],[10.864477436177777,33.34155436123076],[10.865138335768302,33.34132087762949],[10.865535350099396,33.34120310449345],[10.865668471840594,33.34120110126824],[10.866467269740554,33.34118907790312],[10.867268454720518,33.34128881307537],[10.86740158774861,33.34128680781799],[10.867537107861052,33.34139652818407],[10.867670241032608,33.34139452263302],[10.867936507336191,33.34139051110308],[10.868335906692726,33.34138449273864],[10.86860217286451,33.341380479782664],[10.868735305930628,33.34137847309077],[10.868866050187858,33.34126474057479],[10.868999183057786,33.34126273360616],[10.86926305865591,33.341146955696885],[10.869524543929735,33.34091945160327],[10.86978841816851,33.34080369157433],[10.870049901038135,33.340576186445475],[10.870708385553236,33.34023092938662],[10.871105387027526,33.34011315779024],[10.871633125505918,33.3398816307592],[10.872424727831381,33.33953433617287],[10.872821701029231,33.339416559606136],[10.873085566117975,33.33930079285152],[10.87401268160232,33.33906322147549],[10.875339177784696,33.33881960286374],[10.876796395014667,33.33846221097013],[10.877326507200234,33.33834240469605],[10.877987344821868,33.338108835664656],[10.878384325841191,33.33799104142736],[10.878781305735618,33.3378732459557],[10.878912030977721,33.337759484494384],[10.879434928549855,33.33730443737186],[10.879568054587924,33.33730241928452],[10.87983190379057,33.33718663868654],[10.880098155434268,33.33718260153082],[10.880231281236227,33.33718058273911],[10.880495129130862,33.33706480077277],[10.88062825472322,33.33706278156183],[10.880892101702495,33.336946998780455],[10.881025227085246,33.3369449791503],[10.881022822763065,33.33683323522488],[10.88115592538767,33.3368312158032],[10.881289073149151,33.33682919555388],[10.881555300907094,33.33682515565517],[10.881819145859305,33.33670937096715],[10.88195227080955,33.33670735035603],[10.882085395746524,33.33670532960231],[10.882087801413839,33.33681707346173],[10.882220926507337,33.33681505255692],[10.882484770477777,33.33669926648577],[10.882751020232222,33.33669522369518],[10.883019676789479,33.33680292413401],[10.883419051751247,33.33679685799777],[10.883554584260358,33.336906579430625],[10.885270751411564,33.33620981410062],[10.886589933331674,33.335630846923685],[10.887253135760043,33.335508973615234],[10.888180167781071,33.33527129903968],[10.889501729994308,33.33480404545331],[10.889634851456398,33.334802016709794],[10.89090059298327,33.33791256437125],[10.891895353003157,33.34080365231242],[10.892740109700163,33.342914578954506],[10.893163714435051,33.34402591083103],[10.893592172846969,33.345360726621514],[10.894299034651642,33.347250186048626],[10.894870362464118,33.349029913337155],[10.895439291637244,33.3506979128864],[10.896298792002627,33.35347925222069],[10.897005786028918,33.35536868949634],[10.897998545471419,33.358147973647576],[10.898565172922652,33.35970420993785],[10.899139110746683,33.36159566002581],[10.899713052768465,33.363487106379],[10.900284612821642,33.36526681560715],[10.900560696988267,33.3657096998383],[10.900984502358895,33.36682099405997],[10.901972667113348,33.369376748452396],[10.902534577314746,33.37070946551622],[10.902817974624282,33.37148756939392],[10.903239426672313,33.37248711071834],[10.90352770959596,33.373488695973734],[10.903954054623165,33.37471171747769],[10.904516033046054,33.37604442219095],[10.904804344059137,33.37704599352851],[10.90536635229477,33.37837870239234],[10.905511736103902,33.378935362244675],[10.905930818675666,33.37982314937121],[10.90648798201727,33.380932368357186],[10.908026364746194,33.384262038475875],[10.908438169415126,33.38481459071577],[10.90927890949806,33.38670187883846],[10.910255313357517,33.38869884712885],[10.910945796417252,33.38980597719175],[10.911086342875235,33.39013914555936],[10.911910054481762,33.39124422377577],[10.912321918062624,33.39179675101276],[10.913283771183789,33.3931232440493],[10.915478899381858,33.39599556573353],[10.916159690592455,33.396655698800544],[10.91603138613444,33.3968812404727],[10.907715967149295,33.41880634489048],[10.907323559291608,33.419147724645214],[10.907192755990433,33.41926151764102],[10.907064397561165,33.41948705126153],[10.906933593421032,33.419600844007995],[10.906800344041038,33.41960289586102],[10.906802788939915,33.41971463662657],[10.906671984117812,33.41982842911723],[10.906410373450647,33.42005601371486],[10.906279567605578,33.420169805821814],[10.906153649480446,33.42050706991896],[10.90602284263937,33.42062086178302],[10.905632863596308,33.42107397742496],[10.905373689756667,33.42141330084276],[10.905242880555496,33.42152709195225],[10.9049812611301,33.42175467378744],[10.904722082794526,33.422093995969036],[10.904460460326865,33.422321576793685],[10.904196394669347,33.422437416222614],[10.904068024067637,33.42266294707114],[10.903937211299159,33.422776736907736],[10.903803956835056,33.42277878571304],[10.90380639818964,33.42289052661639],[10.903549653068817,33.42334158747587],[10.903418838622052,33.42345537681359],[10.903421279545856,33.42356711772979],[10.903288023834238,33.423569166023356],[10.903290464394098,33.42368089747483],[10.903157208498504,33.423682945634006],[10.903159649315047,33.423794696034285],[10.903028833481205,33.423908475523426],[10.902898017513172,33.424022264355784],[10.902767201410905,33.424136062531346],[10.90263638455392,33.424249841636616],[10.902505567562699,33.42436363008507],[10.902374750230413,33.424477418405566],[10.902243932557056,33.42459120659811],[10.901982296187127,33.42481878259926],[10.901718219571048,33.42493461708846],[10.901584961638088,33.42493666362597],[10.901456580786682,33.425162192052916],[10.901192524995619,33.42527802513045],[10.9009260079854,33.42528211696984],[10.90079518718857,33.425395903728855],[10.900664366050655,33.42550969035988],[10.9004002854944,33.42562552216475],[10.90013620421563,33.42574135342969],[10.90000538168647,33.42585513940787],[10.899741299160102,33.42597096987048],[10.899610475764762,33.42608475545821],[10.899477215911222,33.42608679979313],[10.899479652028326,33.42619854091797],[10.899215567729271,33.42631437031573],[10.899218003532148,33.42642611145343],[10.898953918182913,33.426541940326324],[10.898820657579984,33.4265439839804],[10.898556571310806,33.42665981203581],[10.898425745316887,33.42677359645217],[10.898292484319114,33.42677563955125],[10.898161657800099,33.42688942370514],[10.898028396604907,33.42689146652672],[10.89776430816819,33.4270072929622],[10.897633480598975,33.427121076591135],[10.897366957405515,33.42712516098117],[10.897236128920966,33.427238934741965],[10.897238562479211,33.42735068546259],[10.896974471341037,33.4274665008219],[10.896843642245603,33.42758029314101],[10.896710379892804,33.4275823345836],[10.896579549859853,33.42769610769781],[10.89644871969197,33.427809890155196],[10.8963154569578,33.42781193118577],[10.89618219421021,33.42781397207331],[10.896184626264805,33.42792571338066],[10.895525605158584,33.42827113975325],[10.895392341648241,33.42827317981677],[10.895394772733088,33.428384921167],[10.895397203831342,33.428496662515066],[10.895263939966451,33.4284987024527],[10.895133106858674,33.42861248361035],[10.894871439619687,33.428840045541456],[10.89474060548847,33.42895382631494],[10.894609771016105,33.42906760696034],[10.894478936202589,33.4291813874777],[10.894348101047916,33.429295167866975],[10.898922952298744,33.43123710132395],[10.905652304994817,33.43415170309689],[10.906863981499226,33.434691937797524],[10.908882658436092,33.435555054576206],[10.90942310195664,33.435882054834345],[10.911979814744448,33.436960376562915],[10.915479380552018,33.43847116163008],[10.918172002513943,33.43965902692526],[10.918574301750239,33.439764570667876],[10.920997953921887,33.44084476311953],[10.922209813205281,33.44138484052299],[10.921953115426314,33.44183592731244],[10.921306428974347,33.44274018711954],[10.921178076304003,33.44296573448065],[10.920659729398318,33.44364444390585],[10.920528909066665,33.44375825124101],[10.920269754405863,33.44409760462225],[10.919751371336277,33.444776310973516],[10.919230562119287,33.445343265713014],[10.918196264797006,33.446812407448114],[10.917672949818972,33.447267626534114],[10.917154550942671,33.44794632273526],[10.916636144142972,33.448625016984685],[10.916507771228716,33.44885056004484],[10.916376937563237,33.44896435390639],[10.916246103764802,33.44907815711102],[10.916115269624896,33.449191960187676],[10.915986894572496,33.449417502766366],[10.915594388607964,33.44975891086412],[10.915337633584384,33.4502099949413],[10.915078417608651,33.45054933888305],[10.91481674158315,33.45077694265682],[10.914690818894462,33.451114223722314],[10.914431597815248,33.4514535664492],[10.914434055452892,33.451565306142065],[10.914305672768565,33.45179084717619],[10.914174831883233,33.45190463892055],[10.913915606748784,33.45224399015303],[10.913525536517321,33.45269712254357],[10.91313546249054,33.45315026328991],[10.912878685355215,33.4536013428454],[10.912750295823857,33.453826882447345],[10.912488604044682,33.45405448175586],[10.912357757642758,33.454168281218074],[10.912360212873258,33.45428002099753],[10.912231821059333,33.45450556012201],[10.9121009736598,33.45461935934113],[10.911970125918701,33.45473315843225],[10.911839277836027,33.454846957395304],[10.911708429411783,33.45496075623033],[10.911577580645965,33.45507455493731],[10.911446731538566,33.455188353516256],[10.91131588208959,33.45530215196714],[10.911187508746764,33.45552768977448],[10.911059089550594,33.45575322816269],[10.910930714714777,33.45597875626451],[10.9106689891935,33.45620635240179],[10.910543066035642,33.45654362947165],[10.910412213409256,33.45665742705865],[10.910414666375685,33.45676916692027],[10.91028381325042,33.45688296438567],[10.910155412448955,33.457108501595435],[10.909893704175811,33.457336095898896],[10.90950359109649,33.45778922629621],[10.90911347401234,33.45824235557757],[10.908982616999017,33.4583561517817],[10.908720901947463,33.45858374380569],[10.908592494727715,33.458809279569245],[10.908461636190538,33.4589230752675],[10.908197467536985,33.459038916845515],[10.907938198417696,33.45937824730848],[10.907940648670825,33.45948999675348],[10.907550515817048,33.459943112081994],[10.90664182308515,33.46107489229294],[10.90585907886326,33.46186939329186],[10.905468925006714,33.462322512131514],[10.904821921528367,33.46322669452952],[10.904039141539483,33.4640211755672],[10.903651413849508,33.464586029362415],[10.90339211108734,33.46492535123311],[10.90326368124914,33.46515088207294],[10.902488201316487,33.466280584239634],[10.901581843873998,33.46752406130328],[10.901448520790842,33.46752610998111],[10.90145096326464,33.46763785023034],[10.901317639997112,33.4676398987735],[10.901186758861584,33.467753687437686],[10.900924995565129,33.46798126438144],[10.900401464870564,33.468436416730434],[10.900139697472422,33.46866399213563],[10.899749484238686,33.46911709461481],[10.899228380212849,33.469683973259095],[10.899230820243835,33.469795723084665],[10.89897148527084,33.47013503658558],[10.898845475916854,33.470472294233076],[10.898717026590143,33.47069782087119],[10.898586137515975,33.470811607015975],[10.89858857662009,33.47092334739175],[10.898457687046596,33.47103713341473],[10.898195906874033,33.47126470507595],[10.898065016274963,33.47137849071418],[10.897936563664198,33.47160401662995],[10.897805672223914,33.471717802018105],[10.89767478044176,33.47183158727801],[10.897546326188888,33.47205711283256],[10.897412995851841,33.472059157413035],[10.897415433565502,33.472170897842375],[10.897284540600236,33.472284682723924],[10.897151209894423,33.47228672703501],[10.897017879175161,33.4722887712028],[10.896884548442458,33.472290815227275],[10.896751217696309,33.472292859108464],[10.896753654582167,33.472404599576464],[10.896620323651636,33.472406643322934],[10.896225203223915,33.472636254700866],[10.895963412372623,33.47286382196252],[10.895832516434146,33.47297760540093],[10.895699184554834,33.472979648187255],[10.895568288090082,33.47309343136268],[10.895434956012958,33.473095473871],[10.895304059021935,33.473209256783406],[10.895039829229699,33.47332508166313],[10.894908931164146,33.4734388547131],[10.894778033169407,33.473552646577076],[10.894644700327904,33.47355468825993],[10.894513801394211,33.47366846091861],[10.894380468354914,33.47367050232342],[10.894116235864171,33.47378632531702],[10.893985336290507,33.47390011639193],[10.89385443596241,33.474013888396264],[10.893723535704897,33.47412767921458],[10.89333085466648,33.474469012669104],[10.892807245289436,33.474924135235],[10.892416966259947,33.47537721650716],[10.892024252086868,33.475718555948525],[10.891895777655316,33.475944076224216],[10.891377012705682,33.47662267467686],[10.89098428890773,33.476964011095816],[10.89046551076424,33.47764259661587],[10.889687328971421,33.47866048542771],[10.88903761667716,33.479452852316065],[10.888649725457633,33.480017663649356],[10.888521236306826,33.48024318080488],[10.888392746512135,33.48046869784262],[10.888264256073551,33.48069421476258],[10.888269109411011,33.480917687019605],[10.888135764785382,33.480919722093596],[10.888007273058992,33.481145238778005],[10.888009699535376,33.481256979651626],[10.887878780688679,33.48137075534461],[10.887747861499943,33.481484530909206],[10.887750287674429,33.48159627179344],[10.88761936798601,33.48171004723603],[10.887621794016235,33.481821788124485],[10.887488447955546,33.48182382255021],[10.887357527583033,33.48193759773598],[10.887359953297969,33.48204933863721],[10.887229032425761,33.482163113700985],[10.887102962050903,33.48250037045781],[10.886462897381584,33.48373968887609],[10.886334397222168,33.483965194553626],[10.885948893496122,33.484641739292705],[10.885434879510829,33.48554379729502],[10.885303950984692,33.48565757053454],[10.885046939127715,33.48610859858445],[10.885049362258579,33.4862203395593],[10.885051785402805,33.48633208053197],[10.884278332975649,33.487573420560935],[10.883892798330537,33.48824995964262],[10.883764285493683,33.48847547243406],[10.883633350469577,33.48858924408652],[10.883504836488573,33.488814756637964],[10.883376321863292,33.48904026907148],[10.883381164385124,33.48926375112828],[10.883250227703583,33.489377522420796],[10.883119290269462,33.48949127464246],[10.882990774121696,33.489716805664614],[10.882862256919212,33.48994231762648],[10.88260279979641,33.490281581197245],[10.882474280805345,33.49050709280113],[10.882212401047536,33.49073463350976],[10.881693476006006,33.49141319558125],[10.880662856428081,33.493105537239906],[10.880141488209569,33.493672352331345],[10.87949641457737,33.49468815661986],[10.87910839682847,33.49525294127885],[10.878979861881216,33.49547844965552],[10.878846494225009,33.495480475507605],[10.878848910250527,33.495592216711984],[10.878720374158572,33.49581772484842],[10.878591837422007,33.496043232866846],[10.87846571564616,33.49638048198197],[10.87782784774406,33.49773148325654],[10.877573178367626,33.49829423878525],[10.877316091489618,33.49874525261262],[10.877056587977176,33.49908452471355],[10.876930456337044,33.49942177246815],[10.87652792132022,33.4993161023195],[10.873581670876282,33.49880187660948],[10.868358493487072,33.49787488221756],[10.863273580581001,33.49716913883713],[10.859260488135545,33.49667065415598],[10.856185791056573,33.49638149785676],[10.852977751492189,33.496094262365304],[10.8525776397143,33.49610025562999],[10.851641663981372,33.49600249196489],[10.85083907176982,33.49590272539556],[10.849631601717281,33.49558545132568],[10.845747261770974,33.494861023549454],[10.845211412004195,33.49475723953848],[10.843815482787393,33.4981314183561],[10.843558217340108,33.498582349147114],[10.843434325515469,33.49903131062691],[10.84317942657962,33.49959400306508],[10.843053161147699,33.499931220812165],[10.843193650230102,33.50026446342117],[10.841728863451012,33.50039806243561],[10.841328740640098,33.50040401988055],[10.841200098785682,33.50062949247919],[10.841066720364134,33.5006314779366],[10.840933341929523,33.50063346325054],[10.840797595883078,33.50052370488977],[10.840397460975298,33.500529659515244],[10.839859214820502,33.500314109821424],[10.839320971248183,33.500098557689796],[10.838782730258366,33.49988300312044],[10.838246856092765,33.49977918982054],[10.837710983101072,33.49967537415625],[10.836772628917448,33.49946575493552],[10.835162663447367,33.49904253740552],[10.833821822991764,33.49872708771309],[10.833285960907832,33.49862325248149],[10.83288348711282,33.498517438322494],[10.83261437859266,33.49840964688744],[10.832347615949734,33.49841359911239],[10.832211895602281,33.4983038495912],[10.831942788119303,33.49819603769946],[10.831676037339898,33.49819998828899],[10.831540306443495,33.49809021921261],[10.831406931192488,33.498092194140405],[10.831137825690817,33.497984399382574],[10.830735345861289,33.49787857820935],[10.830601970874701,33.49788055225977],[10.830066117632184,33.49777672171589],[10.829932742751822,33.49777869504071],[10.829930388971752,33.49766693183348],[10.829797014249614,33.49766890500652],[10.829661286887589,33.49755915269594],[10.829527912310638,33.497561125573775],[10.829525559468996,33.49744938128022],[10.829392185050244,33.49745135400629],[10.829258810618512,33.49745332658888],[10.829123083858661,33.497343554707406],[10.829120731556491,33.497231810384626],[10.828987357441159,33.49723378266373],[10.82871825739589,33.49712598244169],[10.828451509416752,33.497129925979046],[10.828315784158535,33.49702015315564],[10.828182421616333,33.49702212439024],[10.828180070551268,33.49691038000289],[10.828046685550042,33.49691235142002],[10.828044334669128,33.496800607022216],[10.82804198380118,33.49668886262223],[10.82790862174651,33.49669083354506],[10.827639513331059,33.496583031034675],[10.827370428178519,33.49647522758095],[10.827103681994089,33.49647916814968],[10.826970308882432,33.49648113821888],[10.826298745934933,33.49626749738235],[10.82536278835361,33.49616953413649],[10.824426832547067,33.496071563743314],[10.823493234781752,33.49608533073298],[10.822159506433964,33.49610498590588],[10.821359268804772,33.496116772123855],[10.820425657649505,33.496130516184344],[10.819625419012763,33.49614229121291],[10.819091926330088,33.49615013836288],[10.818294036522525,33.49627364963485],[10.817893916129306,33.49627953093364],[10.81749379562002,33.49628541094133],[10.81736042209114,33.49628737065701],[10.817093674994696,33.49629128965794],[10.816826927846694,33.49629520808507],[10.816691218012403,33.49618542196758],[10.81655784457735,33.496187380814256],[10.816426807028027,33.496301084649836],[10.816293433396032,33.496303043217836],[10.81616005975115,33.4963050016424],[10.816026686093387,33.49630695992348],[10.816024350708284,33.4961952147664],[10.81589097720881,33.49619717289582],[10.815757603696452,33.49619913088175],[10.815624230171212,33.49620108872424],[10.815357483082096,33.49620500397886],[10.815224109518219,33.496206961390975],[10.815090735941466,33.49620891865963],[10.814957362351835,33.496210875784854],[10.81482400005793,33.49621283260068],[10.814690615133953,33.4962147896049],[10.814554919324936,33.496105000884],[10.814421545854982,33.49610695742716],[10.814288161063569,33.49610891399275],[10.814152465913475,33.49599912480641],[10.81401909257608,33.49600108091097],[10.813752345862685,33.49600499268975],[10.813352225696095,33.49601085928198],[10.81308314727328,33.49590302428148],[10.812814069496552,33.4957951886721],[10.812680696372853,33.49579714332566],[10.812413950086876,33.49580105220241],[10.81161604060546,33.49592452082712],[10.811082546886094,33.495932333449154],[10.810949173424133,33.49593428624602],[10.810282305921636,33.49594404807854],[10.809882196574618,33.495949903291105],[10.80961544940668,33.49595380615921],[10.809348702187394,33.495957708453496],[10.809213001954491,33.49584791380023],[10.809210675363314,33.495736168212865],[10.809074975656745,33.4956263733872],[10.80894160251569,33.49562832400761],[10.808805903309787,33.49551852886827],[10.808403458758958,33.49541263377069],[10.807734269659294,33.49531063608354],[10.807198454599474,33.49520668614662],[10.806796013219918,33.49510078570599],[10.806391249870686,33.49488313814601],[10.806119860393986,33.494663541797316],[10.805984166169113,33.49455374337995],[10.805846161449528,33.49433219881497],[10.80584151719704,33.494108707167456],[10.80583919509,33.49399696134046],[10.80583687299577,33.49388521551129],[10.805834550914343,33.49377346967998],[10.805832228845722,33.493661723846486],[10.805829906789905,33.49354997801084],[10.805825262716684,33.49332648633306],[10.805687237874318,33.49310494180077],[10.805273201610012,33.492440306599484],[10.804997192356776,33.49199721537604],[10.804856862520312,33.49166392363985],[10.804583167330076,33.49133259634533],[10.80444284025253,33.49099930401711],[10.804307153997916,33.49088950343858],[10.804171468085558,33.490779702698084],[10.804033463029999,33.49055815579516],[10.803895458697317,33.49033660870743],[10.803757455087501,33.490115061434885],[10.803619452200545,33.48989351397754],[10.80334113010598,33.48933867244332],[10.803334174715179,33.48900343423494],[10.803329537851905,33.488779942085216],[10.803327219439446,33.48866819600711],[10.803322582652882,33.48844470384442],[10.803320264278778,33.48833295775985],[10.803317945917456,33.4882212116731],[10.80331562756892,33.48810946558421],[10.803175311071557,33.48777617131887],[10.802896999183654,33.48722132828525],[10.802621008312993,33.48677823061826],[10.802483013961742,33.48655668150762],[10.8023450203332,33.486335132212226],[10.802071351797242,33.48600377927286],[10.801935676509313,33.485893975651756],[10.801933360140119,33.4857822294357],[10.801800001563551,33.48578417186873],[10.801664326959964,33.48567436792379],[10.80153096852893,33.48567631006184],[10.801264251628536,33.48568019390773],[10.80113089315918,33.48568213561558],[10.800866491169867,33.48579776488466],[10.800733132491104,33.48579970617047],[10.800466415095274,33.48580358831187],[10.80019970895571,33.485807469715105],[10.800066350213108,33.485809410283906],[10.799930677667628,33.48569960436851],[10.79979500546432,33.48558979829123],[10.79965933360318,33.48547999205204],[10.799657020193512,33.48536824568845],[10.799654706796604,33.48525649932269],[10.799790378290059,33.48536630558253],[10.79992373637384,33.48536436533319],[10.799926050125675,33.48547611168046],[10.80005940836778,33.48547417127958],[10.800192766597117,33.485472230735276],[10.800323810548596,33.485358543724814],[10.80045252863617,33.485133119902414],[10.800581268496034,33.484907686159886],[10.80084565693619,33.484792057726104],[10.800843342063366,33.48468031142307],[10.800974395294567,33.484566623613915],[10.800972080276178,33.48445487731473],[10.800969765270558,33.48434313101338],[10.800834082699717,33.4842333261893],[10.800427070961485,33.48390391025183],[10.799886718275774,33.48357643295489],[10.799751049565351,33.48346662668142],[10.799617694377103,33.483468566648526],[10.799484339176095,33.483470506472244],[10.799348671124422,33.48336069973377],[10.799215316068963,33.48336263926253],[10.799079648517731,33.48325283221064],[10.798810626557035,33.48314496407914],[10.79854391701558,33.483148841813524],[10.798274895992,33.48304097248377],[10.798141541347706,33.48304291084094],[10.798005875614427,33.48293310254568],[10.79773685588286,33.48282523199923],[10.797601190992149,33.482715423228704],[10.79746552644356,33.482605614296304],[10.797332172407033,33.482607551760516],[10.797196508358883,33.482497742514724],[10.796927491115984,33.482389879596475],[10.796794137370597,33.48239181647084],[10.79652512052778,33.48228393370605],[10.796260733568571,33.48239956237025],[10.795994025937677,33.48240343454174],[10.795727306948919,33.48240730630382],[10.795462918089825,33.48252291436717],[10.795329564033297,33.48252484967243],[10.79519620996404,33.48252678483432],[10.795062855882051,33.48252871985281],[10.794929501787335,33.48253065472792],[10.794793840968383,33.48242085221585],[10.794658180100484,33.48231103059862],[10.794524826309715,33.48231296502728],[10.794391472506218,33.482314899312556],[10.794124764861058,33.482318767452945],[10.793991411019395,33.48232070130805],[10.793989105359607,33.48220896401111],[10.79385344600481,33.48209915093578],[10.793720092479814,33.48210108448785],[10.793584433625476,33.481991271099176],[10.793451080246102,33.481993204356336],[10.793317726854012,33.48199513747011],[10.793184373449208,33.48199707044049],[10.792917666601452,33.48200093595111],[10.792650959702845,33.4820048008882],[10.79238655653048,33.482120412122306],[10.792122152635743,33.48223602281324],[10.791991101868499,33.48234969192839],[10.791728999698103,33.48257704871419],[10.791464593503317,33.482692658068316],[10.791333552686016,33.48280633583901],[10.791197895579424,33.48269651978474],[10.790933488269342,33.482812128038375],[10.790800133438387,33.482814058484735],[10.790533423738376,33.48281791894724],[10.790400068869326,33.48281984896341],[10.79026671398758,33.4828217788362],[10.790264412871311,33.48271003184853],[10.79026211176773,33.482598284858724],[10.790128757215422,33.482600214571875],[10.78999540265042,33.48260214414162],[10.78986204807273,33.482604073568],[10.789728693482346,33.482606002850986],[10.789726393270696,33.482494265298214],[10.789593038838671,33.482496194429686],[10.789457384147187,33.48238636690323],[10.789186076375444,33.48216673978001],[10.789048123417377,33.48194517416405],[10.788914769777225,33.481947102538],[10.78878141612439,33.481949030768554],[10.788383653722384,33.482066561716344],[10.788250299847757,33.482068489381476],[10.788248001386224,33.48195674225694],[10.788114647669982,33.48195866977057],[10.787981293941058,33.48196059714082],[10.787847940199457,33.48196252436767],[10.78771458644518,33.48196445145114],[10.78757894639157,33.4818546310606],[10.7874455814761,33.48185655801257],[10.78730993061609,33.48174673747214],[10.787176577153234,33.48174866396585],[10.7869098814964,33.48175251635979],[10.786776516688638,33.48175444258668],[10.786509820955786,33.48175829412034],[10.78651211716821,33.481870041354625],[10.786378752151364,33.4818719671594],[10.786245409735676,33.48187389249426],[10.786243113865373,33.48176214524378],[10.786240818007732,33.48165039799113],[10.786371864065305,33.481536725425784],[10.786502932394496,33.48142305240457],[10.786636285407527,33.481421126652094],[10.786631692754536,33.48119763218033],[10.786496043947167,33.481087810669386],[10.786493747823384,33.480976063420016],[10.786491451712264,33.48086431616847],[10.786489155613804,33.48075256891479],[10.786617915099479,33.480527148713286],[10.786615618867959,33.48041540146124],[10.7866133226491,33.48030365420702],[10.786744366255009,33.48018998130724],[10.786742069890446,33.48007823405682],[10.786739773538546,33.47996648680424],[10.786737477199308,33.4798547395495],[10.786735180872736,33.479742992292614],[10.786466195325621,33.47963509625921],[10.786332833730091,33.47963702190187],[10.786335129530874,33.47974876918525],[10.786337425344318,33.479860516466466],[10.786339721170423,33.479972263745516],[10.786206381662382,33.47997418894261],[10.786073030835011,33.47997611415958],[10.785939679994978,33.47997803923319],[10.78580632914228,33.47997996416341],[10.785670683306027,33.479870141630684],[10.785270631147124,33.479875915106675],[10.785001635541542,33.47976801601155],[10.784868284942323,33.47976993992195],[10.784865991022993,33.47965819254946],[10.784732640582162,33.47966011630839],[10.784596996564082,33.47955029253309],[10.784594703206537,33.479438554611825],[10.784592409472838,33.47932679774495],[10.784728053317956,33.47943663101248],[10.784730346846525,33.47954836892565],[10.784863697116316,33.47954644517482],[10.78499704737345,33.47954452128063],[10.78513039761793,33.479542597243054],[10.785261453637075,33.479428935181325],[10.785392508925185,33.47931525404682],[10.785390214372303,33.479203506698106],[10.78538791983207,33.47909175934723],[10.785385625304496,33.478980011994196],[10.785247687265404,33.478758441549274],[10.785114338230848,33.47876036567353],[10.785112044277751,33.47864862776954],[10.78497869540156,33.478650551742334],[10.784843052719882,33.47854072817769],[10.784707410380266,33.478430904451315],[10.784574061808177,33.47843282797781],[10.784438419969,33.47832300393825],[10.78430507154264,33.478324927169915],[10.78416713731682,33.47810335537402],[10.78403378920722,33.47810527830274],[10.783900441084974,33.4781072010881],[10.783898148552595,33.47799545362659],[10.783895856032858,33.47788370616293],[10.784026911134927,33.47777003593602],[10.784024618469449,33.47765828847612],[10.784022325816615,33.47754654101409],[10.784015447933971,33.477211298615],[10.78401315533171,33.47709955114433],[10.784010862742093,33.476987803671506],[10.78387522392414,33.47687797889285],[10.783872931530826,33.47676623140761],[10.783870639150155,33.47665448392022],[10.783868346782128,33.47654273643067],[10.78386605442674,33.47643098893895],[10.783732708857185,33.47643291145956],[10.78359707127427,33.47632308632675],[10.78333038041397,33.476326930634976],[10.783194743489824,33.47621710503756],[10.7830591069077,33.47610727927848],[10.783056815628955,33.47599553172959],[10.783054524362845,33.47588378417855],[10.783185577910285,33.47577012434183],[10.783183286304215,33.47565836732282],[10.783047650834535,33.47554855098423],[10.783045359424763,33.475436793952824],[10.783038485853876,33.47510155126089],[10.78289826951061,33.47476823956038],[10.78289597855449,33.47465649197754],[10.782762646938558,33.47465841320231],[10.782760356166058,33.474546665609225],[10.782758065406194,33.47443491801396],[10.782755774658959,33.47432317041655],[10.782753483924362,33.47421142281698],[10.782751193202394,33.474099675215264],[10.782615549278573,33.473989848970085],[10.782613258752882,33.47387810135598],[10.782610968239819,33.47376635373969],[10.782606387251596,33.47354285850066],[10.782604096776431,33.47343111087791],[10.782468476724464,33.47332128409407],[10.782332845708634,33.47321145731145],[10.782330555613324,33.473099709666045],[10.782328265530648,33.47298796201851],[10.782325975460596,33.472876214368796],[10.782323685403178,33.47276446671693],[10.782321395358387,33.47265271906292],[10.782188044158042,33.47265463989452],[10.782190334031833,33.472766387556625],[10.781923653862759,33.47277022848027],[10.78179490382461,33.472995643930524],[10.781663852594262,33.473109311738156],[10.781666141834627,33.47322105942397],[10.78167072035323,33.473444554789126],[10.781673009631469,33.473556302468474],[10.781808640406362,33.4736661299775],[10.78194426021735,33.4737759574877],[10.782079902982096,33.47388578451057],[10.78221781350236,33.47410735933368],[10.782084482678174,33.47410927980135],[10.781953418925468,33.4742229481016],[10.781955708634065,33.47433469574969],[10.781969447150827,33.4750051815929],[10.781978606220468,33.475452162640174],[10.781980896262057,33.47556391973628],[10.781983185928096,33.47567565788674],[10.782123411940244,33.476008979952965],[10.78213028222314,33.47634422276297],[10.782132572342697,33.47645597036199],[10.782134862474882,33.47656771795886],[10.782270487376708,33.47667754489996],[10.78227277770516,33.47678929248442],[10.782141732947224,33.47690296073652],[10.782144023129929,33.477014708324766],[10.782010665234656,33.47701662918501],[10.781877329939366,33.4770185495762],[10.781743983325136,33.477020469986854],[10.781610636698272,33.477022390254156],[10.78147729005878,33.477024310378106],[10.781475000731177,33.47691256274943],[10.781194574108076,33.47624591663684],[10.781325630507485,33.47613224920436],[10.781456686564864,33.47601858164252],[10.781454397350885,33.47590683399444],[10.781585453101892,33.47579317578093],[10.781716508122779,33.47567949849458],[10.781714218798713,33.475567760327955],[10.7815785848665,33.47545792336982],[10.781574006429441,33.47523443753786],[10.781571716938783,33.475122680411026],[10.7814337951872,33.47490111453653],[10.781431506099462,33.47478936686689],[10.781291296193102,33.474456043639755],[10.781155664766342,33.47434621559669],[10.781020033681573,33.47423638739195],[10.780753348839403,33.47424022594559],[10.780620006399383,33.474242145007416],[10.780486663946741,33.47424406392586],[10.780484376131731,33.47413231618673],[10.780348746206066,33.474022487204415],[10.780346458587285,33.47391073945289],[10.78034417098112,33.47379899169921],[10.780475224997852,33.47368532520865],[10.780472937245925,33.47357357745873],[10.780468361779917,33.47335008195245],[10.780332733139524,33.47324025289848],[10.780328158091194,33.47301675736309],[10.780323583093324,33.47279326181908],[10.780185668232903,33.472571684777066],[10.780052328307272,33.47257360314434],[10.779921275323465,33.472687269169924],[10.779792508806363,33.47291268287152],[10.778383702060875,33.46924418412834],[10.773151755347335,33.467754345373244],[10.773018422289358,33.467756255933004]]]}}]}
