{"type":"FeatureCollection","features":[{"type":"Feature","id":"osm:relation:7142962","properties":{"sourceId":"isie-best-effort-imada-525561-20260928","officialCode":"525561","governorateCode":"52","delegationCode":"5255","nameAr":"هشام الحمادي","officialSourceNameAr":"هشام الحمادي","sourcePdfURL":"https://www.isie.tn/wp-content/uploads/2023/CartesCirconscriptionsElectoralesLocales2023/مدنين/جرجيس/هشام الحمادي.pdf","sourcePdfSha256":"b69c3cd4b41a7ab42b3e71caeca4654546055517aeedcaca25d52ec96dfa2f99","sourceGeometrySha256":"67a1e2667798910560efb1a78c2283d04169df13a996ff9eb1af13ebd65ecb41","geometryMethod":"Pinned native ISIE red-face linework; exact registered EPSG:32632 face WKB; transformed to EPSG:4326 with always-XY axis order."},"geometry":{"type":"Polygon","coordinates":[[[11.067268793905914,33.50374242030722],[11.066702680281171,33.50367305468377],[11.065666368367472,33.50361153259894],[11.06415611440517,33.503400269966335],[11.063968035009776,33.503403405622386],[11.063025766710933,33.503340293441404],[11.06132931238004,33.50321091605407],[11.060009036194659,33.50307525657427],[11.05897273313198,33.50301367799426],[11.055673886626392,33.50275322632966],[11.053787523862168,33.50254808055115],[11.052092952879917,33.5024973621691],[11.051998913448386,33.502498920839976],[11.050492422093502,33.50244506306061],[11.049264333389441,33.50222894376789],[11.049076254766108,33.50223205672265],[11.047850028906753,33.50209471007719],[11.047754148651682,33.50201747829195],[11.045674154929545,33.50157895733399],[11.043780404058813,33.5010585088965],[11.04302439174248,33.50091335092139],[11.041886674797006,33.50053804394714],[11.041318761124488,33.500389773098],[11.040940759271182,33.50031718698846],[11.040750833003262,33.50024148647387],[11.038197028729174,33.499653024392856],[11.036308898255108,33.49936882081516],[11.036118978071173,33.49929312630952],[11.035835021371138,33.499218977769004],[11.035740984529074,33.49922052396747],[11.035458889906385,33.49922516187291],[11.035082726433707,33.49923134536027],[11.034614402666863,33.49931786016262],[11.034050180436838,33.49932713074975],[11.033487801790532,33.49941518646109],[11.033113496490092,33.499500151441914],[11.032831384552747,33.499504783661216],[11.031802500559744,33.49975812628622],[11.031147920291943,33.49992650250754],[11.030679572154245,33.50001300296503],[11.030399299218193,33.50009641753866],[11.030119025714372,33.50017983149691],[11.029744713321117,33.50026478652968],[11.029274521605423,33.500272493909584],[11.028806169377354,33.50035898741509],[11.027677723026851,33.500377473368665],[11.027019452878015,33.500388252251966],[11.026737336992749,33.50039287070375],[11.026268980772578,33.50047934137173],[11.026082740763147,33.500561220674015],[11.02514602455911,33.50073418214355],[11.024863907224272,33.50073879637161],[11.023740942586459,33.50099361131162],[11.023552863645742,33.500996685423054],[11.02224181127482,33.50125454751493],[11.02158538141235,33.501344085753566],[11.021397301462944,33.501347156621165],[11.021211054345027,33.50142901546876],[11.01980045232598,33.50145203581246],[11.019048130593976,33.50146430676832],[11.018858219357094,33.50138858541502],[11.017445786495594,33.501332790499525],[11.01725770608987,33.501335855082495],[11.015561341632315,33.50120584615103],[11.015089313713963,33.50113472468765],[11.014054871984122,33.501151556603055],[11.012924563471401,33.501091106824006],[11.012736483064426,33.50109416452459],[11.011985985947438,33.50118519454721],[11.01151578409655,33.50119283472088],[11.010859324369768,33.501282303382425],[11.01020104053777,33.501292993167766],[11.009638635296298,33.501380941628575],[11.00832570718752,33.50155988256844],[11.007669240836298,33.50164934789027],[11.007575199728922,33.501650872809854],[11.007293076364324,33.50165544714072],[11.006352664689059,33.50167069027472],[11.006258623482623,33.501672214195885],[11.005034268931556,33.50161322963497],[11.004846186483823,33.50161627540011],[11.004281938970994,33.50162541098393],[11.004187897694123,33.50162693333163],[11.004093856410186,33.50162845560801],[11.003811732515985,33.501633022009266],[11.003623649884526,33.50163606592019],[11.002871335023492,33.50164823845327],[11.001368486956329,33.50175135956553],[11.001086362192604,33.50175591977588],[10.998735320026507,33.501793896567904],[10.998077035404252,33.5018045219535],[10.996668217908029,33.50190606859245],[10.995539713223614,33.50192426284662],[10.994411215499825,33.501942446702586],[10.99337675105428,33.5019591063333],[10.99253037042085,33.50197273052161],[10.991307827586265,33.50199239957796],[10.990275165468464,33.50208782307191],[10.989334739339458,33.50210293721214],[10.988960372384577,33.502187770684806],[10.987831866720038,33.50220589474144],[10.987455695282966,33.50221193385413],[10.986233137338317,33.5022315530895],[10.985858766316678,33.5023163773128],[10.984824300014944,33.5023329655734],[10.983789824892662,33.50234954533212],[10.98341545059716,33.502434362271366],[10.982004807617178,33.50245695278591],[10.98144054679535,33.5024659845496],[10.980406067968863,33.50248253611448],[10.9801257329476,33.50256583891096],[10.97880912879948,33.50258688899728],[10.977962734570346,33.502600413895784],[10.977210383670226,33.502612431177894],[10.976553868754028,33.502701732954925],[10.975801524310556,33.502713741586746],[10.975239051007826,33.50280153562146],[10.975145006797407,33.50280303597192],[10.97495691835568,33.502806036458864],[10.974208145064551,33.502975616570346],[10.973831967193917,33.50298161444162],[10.972707010972664,33.50315718236316],[10.972144538938842,33.50324496242389],[10.971958237566547,33.50332674900088],[10.971864192601936,33.503328246881715],[10.971768359434746,33.50325095407209],[10.971674314541339,33.503252451805835],[10.971486224733672,33.50325544705933],[10.971298134898202,33.50325844202753],[10.97120408997004,33.50325993940464],[10.969601760646809,33.50312780232993],[10.969037491244698,33.50313677776636],[10.968755356449918,33.503141264521666],[10.968189301732323,33.503071445315236],[10.96743515806917,33.503004612570784],[10.966964933637792,33.50301208403267],[10.966400664091282,33.50302104743323],[10.965928664368377,33.50294972394565],[10.965646529652874,33.50295420359987],[10.964702516616178,33.50281154922601],[10.963666250389455,33.502749170053455],[10.961781794674907,33.502621405588386],[10.961311570719026,33.502628855519966],[10.960933613098073,33.50255602304011],[10.958106948137837,33.50236430253807],[10.954338073429989,33.50210858749517],[10.953207773649002,33.502047591301256],[10.951417385282712,33.50191819764241],[10.948310384130895,33.50180949011484],[10.947368170969764,33.5017454804807],[10.945389711980011,33.50161895721274],[10.943599345997727,33.50148943626437],[10.943223167660186,33.50149534097282],[10.941807215146198,33.50128109729894],[10.940769205890174,33.50113973323683],[10.939731207552203,33.50099836022266],[10.938315269767491,33.50078407599568],[10.935391131964009,33.50043572051295],[10.93491915781825,33.50036427747639],[10.934259104746072,33.50029577099897],[10.93218488310135,33.500091698236645],[10.93171291683892,33.50002024275036],[10.931430785875643,33.50002464415324],[10.930298764594424,33.49988465806215],[10.929356578953122,33.49982052346757],[10.929074448245357,33.49982491948212],[10.92747221474381,33.49969223255544],[10.924267763280389,33.49942679590472],[10.920309235289952,33.499094153307574],[10.920215192012197,33.49909561182248],[10.919837277970448,33.499022652061434],[10.919743234743951,33.4990241102154],[10.919365325326435,33.49895114892607],[10.918141024203095,33.498891301485],[10.917009033034422,33.49875119257237],[10.915690696075998,33.498692776675874],[10.913994452172089,33.49856136883312],[10.913336150682053,33.49857154324821],[10.911733954129375,33.49843865095421],[10.910697751896457,33.49837583190777],[10.909755589606291,33.49831154704349],[10.909285378462549,33.49831879864463],[10.908438990803376,33.498331847144186],[10.908250908569778,33.498334745964776],[10.907968779188575,33.49833909375293],[10.906653907470742,33.49843816860618],[10.903275250878274,33.49880542496888],[10.902710991352992,33.498814097290754],[10.90120973941107,33.498994798965626],[10.89952039133242,33.499178368345405],[10.898299535527931,33.49927591246401],[10.897736990181912,33.49936335638497],[10.89632804093508,33.49946376391548],[10.894450579575146,33.49965014538863],[10.893886309685469,33.49965877774571],[10.891634371803843,33.499929664706336],[10.890977768163708,33.50001851507694],[10.889474748625583,33.50012028157625],[10.888818140776662,33.50020912061875],[10.887691301644944,33.50030512628368],[10.88731511611308,33.50031086107123],[10.887032976894313,33.50031516141292],[10.88656274871702,33.50032232716175],[10.886280609338597,33.50032662579157],[10.886092516386393,33.50032949118813],[10.885434190844233,33.50033951782924],[10.884681822384259,33.5003509725072],[10.884493729206048,33.50035383547856],[10.88374135622746,33.500365284510885],[10.88270513936955,33.50030222462363],[10.882423001422763,33.5003065144369],[10.881951061438334,33.50023486792242],[10.8805369549449,33.500098712251884],[10.87987692431869,33.50002991439133],[10.879500740277825,33.50003562538243],[10.879216897556232,33.4999611129298],[10.878177278605786,33.49974042491313],[10.877703641689646,33.499589966952676],[10.8774198017795,33.49951545027105],[10.877135962327074,33.499440932920976],[10.876947872294352,33.499443784339235],[10.877129153576755,33.49912575268881],[10.877216391395672,33.49880915330558],[10.877582355303899,33.49833067915363],[10.877852569262105,33.49777483528282],[10.878481922612357,33.4964253408622],[10.878567447813785,33.496029938978026],[10.878750422965236,33.49579070022809],[10.878839352431214,33.49555288825813],[10.878837648941193,33.495474093229284],[10.878929985998196,33.49539387124422],[10.879114662591759,33.495233427036965],[10.879478897816092,33.49467615956794],[10.880116727887428,33.49372062620343],[10.880667323609483,33.493081698105044],[10.881761668682527,33.49148866210306],[10.8822147916925,33.490693566849906],[10.882397743044413,33.49045432330098],[10.882582401942805,33.49029387440395],[10.882950008849944,33.48989418096005],[10.883038925432011,33.48965636630907],[10.883129544555123,33.48949734657468],[10.88322187255921,33.489417128338346],[10.883312493106681,33.489258108454294],[10.883403113333792,33.48909908851163],[10.88349202396855,33.48886127363857],[10.883580938132548,33.48862345864935],[10.883671555261778,33.488464438565295],[10.883856207670856,33.488303987949216],[10.884216971116041,33.487589111534504],[10.88503763382775,33.48639431601918],[10.8850359253155,33.48631552115478],[10.885034216809895,33.48623672628931],[10.885032508310932,33.48615793142276],[10.885124830950904,33.48607770523295],[10.88530434955781,33.485680868084145],[10.885394964659394,33.48552184682374],[10.885940343807547,33.484646513088755],[10.886301074287461,33.48393163803964],[10.886484002785489,33.48369238906494],[10.88711654703651,33.48250043908969],[10.887297760123527,33.48218239422748],[10.887388364193633,33.482023371738876],[10.88738665383579,33.48194457692568],[10.887478969936652,33.48186434916133],[10.887571288005521,33.481784127981435],[10.887569577352574,33.48170532649485],[10.887661891186799,33.481625105315025],[10.887755917363798,33.48162367216391],[10.887754206699068,33.48154487736233],[10.887844811304806,33.48138585454632],[10.887937126398553,33.48130562646912],[10.88802772844258,33.48114660356426],[10.888212357622987,33.48098614709701],[10.88821064658631,33.480907352308094],[10.888299538632891,33.480669534407156],[10.888390141389328,33.48051051123765],[10.888479032587075,33.48027269322482],[10.888661947737704,33.48003344137783],[10.889026061402587,33.479476142213116],[10.889667105470332,33.478678161196854],[10.890489328234391,33.477562121517344],[10.890945726276117,33.47692459413739],[10.89131495745583,33.47660366633591],[10.891865366449311,33.47596470012226],[10.892049975748513,33.47580423847065],[10.89241576732318,33.47532572500502],[10.892783267739276,33.474926005253494],[10.89324306984561,33.47444605278549],[10.893706298193294,33.47412369468495],[10.893890900076608,33.47396322382177],[10.89407721944841,33.47388156064235],[10.894169518804203,33.47380132166022],[10.894355839547233,33.47371965805051],[10.894448138616795,33.473639425552456],[10.894634456599778,33.47355775489479],[10.894728473683617,33.473556316758234],[10.894820774222737,33.47347608396814],[10.895099391593126,33.47331417978782],[10.895283989305137,33.47315371365766],[10.895470305423038,33.473072041800684],[10.895564319943917,33.47307060307896],[10.895656621180917,33.47299036967471],[10.895748920255036,33.472910136237175],[10.895935235391224,33.47282846371145],[10.896307862590659,33.47266511788354],[10.89658475444518,33.47242441604194],[10.896771069709176,33.47234274228647],[10.896865083371601,33.47234130260571],[10.896959101013083,33.47233986279265],[10.897053114662144,33.4723384229694],[10.897145411734604,33.47225818855281],[10.897239427278176,33.47225674856081],[10.897331724088971,33.47217651401345],[10.897424018736912,33.472096279432854],[10.897610330469591,33.472014604493786],[10.89770090763942,33.47185557521685],[10.897793205593143,33.4717753403201],[10.897883780347629,33.4716163176333],[10.898066651923662,33.47137705312775],[10.898251240009506,33.471216582864734],[10.89843582940828,33.471056112316106],[10.89852640412869,33.4708970825004],[10.898618698324833,33.47081684706988],[10.898710992351,33.47073661157559],[10.89879984630944,33.47049878714199],[10.898979272932465,33.470101932545205],[10.899162138440118,33.469862666584945],[10.899252710673112,33.469703636299585],[10.899803016341314,33.46906463107485],[10.900170458848837,33.468664897794646],[10.900445608105924,33.46834539357455],[10.900908772935242,33.46802300370157],[10.901183917487225,33.46770349797713],[10.90137021620679,33.46762181778337],[10.901462504351253,33.46754158040849],[10.90155479232577,33.467461342969884],[10.902563052504346,33.466263549726435],[10.903195259696968,33.465071533313974],[10.9033798271401,33.46491105602807],[10.903560946159532,33.46459298989758],[10.904111188937224,33.463953973968685],[10.904751983351904,33.4631559152083],[10.905485041175906,33.4622776134041],[10.905944707515292,33.4617976176857],[10.90658719627267,33.46107835121421],[10.907503041100579,33.45996076245437],[10.907868683175026,33.459482207544475],[10.907960956830076,33.45940196574525],[10.908236049038019,33.45908244581457],[10.908420594662815,33.45892196164934],[10.908605139608124,33.458761477229324],[10.90878968387395,33.45860099255457],[10.908972495264763,33.45836172023895],[10.90915703801524,33.45820123506116],[10.909524392658318,33.45780146983351],[10.909984013569794,33.45732146042427],[10.910074549744769,33.457162423143934],[10.910257362509391,33.456923142310416],[10.910347897797253,33.456764104853036],[10.910438440735579,33.45660506721443],[10.91053070502379,33.45652482371931],[10.910713511264854,33.456285542342734],[10.910894586728364,33.45596747333376],[10.911077390848876,33.45572819147684],[10.911167927460513,33.455569153426865],[10.911350730028063,33.455329871208356],[10.911442996133642,33.45524962703445],[10.911535262069378,33.455169382796875],[10.911627527835275,33.45508913849562],[10.911719793431335,33.45500889413072],[10.911904320129034,33.45484840527142],[10.911996589200488,33.45476816065405],[10.912087119204019,33.4546091220655],[10.912179383872713,33.454528877385506],[10.912362181544498,33.45428959381269],[10.912454445625514,33.45420934894494],[10.91254324693195,33.45397151597946],[10.912727774078858,33.453811032617224],[10.912910568794718,33.45357174831603],[10.913183893108922,33.45317342440977],[10.913549472494632,33.45269485441769],[10.913915051924262,33.45221628339308],[10.914190100233949,33.451896751471864],[10.914280627413115,33.45173771139752],[10.914371154272876,33.451578671264905],[10.914463413679785,33.45149842503566],[10.914736724686339,33.451100098061154],[10.914917775325145,33.450782023825134],[10.915006566790208,33.45054418933284],[10.915281602014543,33.45022465529858],[10.915647161978773,33.44974607968949],[10.91592219639188,33.44942654430587],[10.916106707699633,33.44926604968483],[10.91619722881472,33.44910700836792],[10.916381739094463,33.448946520050164],[10.916473989774518,33.448866265839605],[10.916656764220455,33.44862697656569],[10.917205081795615,33.44790911396681],[10.917755125924776,33.44727003636936],[10.918120660342005,33.44679145417172],[10.919311221421871,33.44535425279336],[10.91967499841648,33.444796872712956],[10.92022326776907,33.44407899140485],[10.920592251539283,33.44375799020863],[10.920682759080062,33.44359894597691],[10.921138768818462,33.44296131814881],[10.921321514541981,33.44272202273852],[10.921958522395828,33.4417663027493],[10.922137789150417,33.4413694187262],[10.920997851820852,33.44083534982247],[10.918530067346895,33.43977008881885],[10.918246397823687,33.43969565930484],[10.915399294478071,33.438478563527575],[10.91188751918635,33.43695637921053],[10.909418218130908,33.435812140642284],[10.908943159737893,33.43558299590029],[10.906950705052042,33.43474663821593],[10.905622998419759,33.434215312660555],[10.898883854755399,33.43124473576539],[10.89432869514062,33.42926508639809],[10.894514920388207,33.42918341869918],[10.894605460699575,33.429024392043445],[10.89478997354388,33.42886392877122],[10.894882226723777,33.42878369708529],[10.895066736558453,33.42862323346149],[10.89525295971722,33.42854156471827],[10.895345214119025,33.428461332680335],[10.895437470488368,33.42838110722695],[10.895435756184202,33.428302305419386],[10.895529722413771,33.42830086841346],[10.895528008322055,33.42822207996643],[10.896178923698532,33.42789683170775],[10.896272891442578,33.42789539412367],[10.896271176705785,33.42781660570544],[10.896365144358361,33.4278151680545],[10.896457394967323,33.42773493527345],[10.896549649390371,33.4276547023678],[10.896643614861475,33.42765326454249],[10.89673586703158,33.42757303153681],[10.896829836388232,33.427571593512546],[10.896922086305402,33.42749136040682],[10.897014338044807,33.42741112720696],[10.897200556698296,33.42732945567795],[10.89729280601516,33.4272492223144],[10.897385059291524,33.4271689955049],[10.897571274926328,33.427087316798186],[10.897851459036934,33.427004205724906],[10.898037676137864,33.4269225396701],[10.898129922103466,33.4268422990727],[10.898316142567747,33.42676063255791],[10.898504075367699,33.426757754166324],[10.898596320865149,33.42667751991977],[10.898782536383647,33.42659584611237],[10.898968755526546,33.42651417197546],[10.89915496634292,33.42643249769215],[10.899245497402083,33.4262734679489],[10.899431711418849,33.42619179321307],[10.899523959438287,33.42611155825943],[10.899617925076372,33.42611011820879],[10.899802420423491,33.42594964797686],[10.899988629216006,33.425867972504186],[10.900173127346179,33.425707501695676],[10.900359339240905,33.425625825632515],[10.900639511763792,33.42554270855894],[10.90082400400471,33.42538223690133],[10.90091624987078,33.42530200097707],[10.901196424757334,33.42521888263496],[10.901382630611213,33.425137205160226],[10.901661084911202,33.4249752909098],[10.901753333546951,33.424895054338904],[10.90203178238174,33.4247331393625],[10.902310234149127,33.42457122373199],[10.902402477770408,33.4244909867704],[10.90240075757198,33.4244121919107],[10.902493000945574,33.42433195488868],[10.902586964504218,33.42433051265631],[10.902679207616746,33.42425027550385],[10.90277145055969,33.424170038287734],[10.902863693333053,33.42408980100801],[10.902955935936832,33.42400956366465],[10.9030464576259,33.42385053142045],[10.90314042063565,33.423849088787094],[10.903230937845859,33.42369005648321],[10.903323183676722,33.42360981882742],[10.903321462703994,33.42353102399873],[10.903413700320193,33.42345078640485],[10.903504220628086,33.423291753862834],[10.903777501119686,33.422893457382756],[10.903869741637234,33.42281321941927],[10.903961981985212,33.422732981392144],[10.90405422216362,33.42265274330143],[10.904238702011726,33.422492266929126],[10.904421459298524,33.4222529955079],[10.904699898664566,33.42209107488517],[10.904974892269939,33.421771564120256],[10.905157642232165,33.42153229845217],[10.905342117698419,33.421371820566115],[10.905711066596234,33.4210508640307],[10.906078289506077,33.42065111173885],[10.906168802203895,33.42049207745813],[10.90634982664255,33.42017400872195],[10.906440334400072,33.42001497432775],[10.906624804338117,33.419854494693],[10.90671531526476,33.41969546005854],[10.906807553715158,33.419615220024134],[10.906901507973599,33.41961377476392],[10.90699374217967,33.41953353466036],[10.907085976216202,33.41945329449323],[10.90727044378064,33.41929281396817],[10.90726871952418,33.41921401926577],[10.907360952974026,33.41913377891109],[10.907729885078021,33.4188128168564],[10.916082147072629,33.39685059265937],[10.916078685594446,33.39669300349458],[10.916172618652645,33.3966915520261],[10.916456148861279,33.39676599176006],[10.953997993773426,33.40319511202941],[11.000923155965106,33.42514670644662],[11.06200348468272,33.46024420090159],[11.062766635675384,33.4607044031189],[11.064294830426107,33.46170357239811],[11.064870015796691,33.462166893079015],[11.064965880619548,33.46224411290688],[11.06515948069059,33.462477338915335],[11.06544894767346,33.46278778398156],[11.065738416745337,33.463098228277644],[11.066029758680912,33.463487458345],[11.06671391754692,33.46457948743429],[11.066909399361984,33.464891496729514],[11.067597341858372,33.46614109915459],[11.067890575323828,33.46660910369255],[11.067988320588391,33.466765107242686],[11.068377432085672,33.467310334126026],[11.068572926393413,33.46762234020326],[11.06886054958734,33.467853989584235],[11.068958298069958,33.46800999221926],[11.06924779760802,33.468320426922844],[11.069343673050907,33.468397636203846],[11.069439548981384,33.46847485875908],[11.06944329742987,33.46863243137196],[11.069447045748648,33.46878999730251],[11.06908040739556,33.46919021028703],[11.068898023865879,33.469429709573035],[11.06844112402991,33.469989063574566],[11.067892087419786,33.47062877184344],[11.067801829142871,33.47078791391575],[11.06716065036019,33.47150797492828],[11.06706851743677,33.471588323469106],[11.066793990186088,33.471908175143625],[11.066519476888677,33.472228026005496],[11.066248688906661,33.47270544941415],[11.066628442448321,33.47285674899449],[11.066726209076416,33.473012752945394],[11.066916078778338,33.473088402243654],[11.067105964739719,33.473164050971256],[11.067295851019118,33.4732396993942],[11.067391730630867,33.473316916665546],[11.068057272485714,33.47362106967286],[11.068437048897044,33.473772363146544],[11.069198479934068,33.474153732685565],[11.069768151283888,33.47438066692342],[11.069770026221105,33.47445945313889],[11.069879034739072,33.47508817178191],[11.069978669029753,33.47532295925499],[11.06988653513404,33.47540331657904],[11.069888410251012,33.47548210277557],[11.069798151154252,33.47564124623923],[11.070181690139622,33.47595010622683],[11.070751375671298,33.476177028652806],[11.071127415125401,33.47617074094978],[11.071503454462789,33.47616445210698],[11.071597464278897,33.476162879718174],[11.0718813708169,33.4762369548898],[11.072069390553406,33.47623380946171],[11.072259287423167,33.4763094431385],[11.072449184770043,33.47638508318845],[11.072639082434923,33.476460722933666],[11.072828964475782,33.47653636264094],[11.072924868502223,33.476613574995255],[11.073020740814533,33.47669078780152],[11.073212533775186,33.47684521236851],[11.073780337907104,33.47699334125521],[11.074536181183067,33.47713831794914],[11.074630191870217,33.47713674321995],[11.074554975998483,33.477926177323155],[11.074470361711088,33.478321681697174],[11.074389505446968,33.478874751199854],[11.074122501369722,33.479509762343426],[11.073949507589962,33.48014319866314],[11.07395702415959,33.48045834239023],[11.073868647093565,33.480696274543774],[11.073787785598718,33.481249343687026],[11.073797180990551,33.48164327331317],[11.073622302439675,33.482197923304675],[11.073353420957016,33.48275414688532],[11.07299424384687,33.48346951619363],[11.072732867866153,33.48434087570488],[11.07311082079089,33.48441336656515],[11.073492516396593,33.48464342831499],[11.073874229934882,33.484873488535655],[11.072488374797969,33.48592130846271],[11.071659089148856,33.4866445408352],[11.071476678943455,33.48688404441924],[11.071294267754318,33.487123547764426],[11.071959930592339,33.48742768126563],[11.072625597950704,33.48773181099547],[11.073671102859977,33.4881872115479],[11.073765125535036,33.48818563701884],[11.074344302012154,33.48880647481485],[11.074440205347353,33.48888367887036],[11.07453610917134,33.48896089619992],[11.074635773618834,33.4891956716631],[11.074549271196224,33.48951239004222],[11.074643295250969,33.489510814792204],[11.075025033718084,33.48974087035852],[11.075120938864771,33.48981808049093],[11.075032556915463,33.49005601338204],[11.074667741363363,33.49053502984059],[11.074489092865326,33.49093210925326],[11.07439882771893,33.49109124931363],[11.074308562413707,33.491250395994946],[11.074312322915072,33.4914079675421],[11.074056565275413,33.49251569346365],[11.07499871920571,33.49257872597821],[11.075470737234056,33.49264963237646],[11.075395523306636,33.49343906536358],[11.075401167330906,33.49367541575821],[11.075406811580484,33.49391177282085],[11.075316545514253,33.494070920210895],[11.075318426874992,33.494149705898735],[11.075320308243045,33.494228491585474],[11.07522816042009,33.494308853234315],[11.075230041717724,33.494387638923556],[11.075136012427036,33.49438921482013],[11.074949834873513,33.49447115210163],[11.074673389086346,33.4947122360921],[11.0744909717128,33.49495174415627],[11.074400702956908,33.4951108909594],[11.074218284033163,33.49535039866831],[11.07412801439286,33.49550954529807],[11.07413177517356,33.495667116754845],[11.07404338524561,33.49590504238395],[11.073954995025186,33.496142974637856],[11.07386472414827,33.496302121106666],[11.073776333087249,33.496540053253],[11.073590149642998,33.496621988689085],[11.073403981782297,33.496703923590594],[11.073405861598193,33.496782709340515],[11.073042890134221,33.49734050770712],[11.072860463014312,33.497580013657625],[11.07259339759356,33.49821502234307],[11.072409088460638,33.49837574193912],[11.072410967494285,33.49845452771744],[11.072224778647174,33.49853646128299],[11.071858035545663,33.49893668501399],[11.071767758122007,33.499095830145],[11.071504437154655,33.499888408423956],[11.071508193805403,33.5000459800313],[11.071417914685428,33.50020512494924],[11.071327634928672,33.500364256454375],[11.071147075096766,33.50068254600524],[11.070870599475628,33.50092362243932],[11.07087247729674,33.50100240826199],[11.070778440594934,33.50100398112456],[11.070684403885826,33.50100555391583],[11.070588489603542,33.50092834079912],[11.070210465786985,33.50085584509081],[11.070118306337424,33.50093620330605],[11.070026146717703,33.50101656145822],[11.069753420503588,33.50141520728395],[11.069755297347532,33.501493993156075],[11.069663136813823,33.501574351066736],[11.06957097610995,33.50165470891431],[11.069476938625323,33.501656280815965],[11.069478815235913,33.501735066698835],[11.069386654191712,33.50181542442027],[11.069200455215585,33.501897353780414],[11.069108293738676,33.501977711309095],[11.068549693849354,33.50222349739446],[11.068363493161812,33.502305425554255],[11.067998592032547,33.502784424850525],[11.067631811917485,33.50318463723494],[11.0673590681662,33.50358327833531],[11.067268793905914,33.50374242030722]]]}}]}
