{"type":"FeatureCollection","features":[{"type":"Feature","id":"osm:relation:7142944","properties":{"sourceId":"isie-best-effort-imada-525566-20260928","officialCode":"525566","governorateCode":"52","delegationCode":"5255","nameAr":"شماخ","officialSourceNameAr":"شماخ","sourcePdfURL":"https://www.isie.tn/wp-content/uploads/2023/CartesCirconscriptionsElectoralesLocales2023/مدنين/جرجيس/شماخ.pdf","sourcePdfSha256":"c34754f929492cea45a633f1697804c1258a66bb97a61ee58d1107ec22c88bc7","sourceGeometrySha256":"cfeba632301b16c51e3660036c1a264e961cd63839ef1d7a36355d90a99727bd","geometryMethod":"Pinned native ISIE red-face linework; exact registered EPSG:32632 face WKB; transformed to EPSG:4326 with always-XY axis order."},"geometry":{"type":"Polygon","coordinates":[[[11.06676364374307,33.58229991717266],[11.066765090195258,33.582360648245405],[11.066480612909803,33.582608448951724],[11.066341266079359,33.5828538138221],[11.066201918611227,33.58309918370437],[11.065852100604335,33.58365187157196],[11.065782425676856,33.583774556290386],[11.065783871644978,33.583835292534275],[11.06571275055929,33.583897240974764],[11.065643075251641,33.58401992562511],[11.065502278270689,33.58420455857327],[11.065360034999603,33.58432845512409],[11.065148114771993,33.584575030781124],[11.064863637912683,33.584822822782726],[11.064577701930942,33.585009878109844],[11.064367223020422,33.5853171939801],[11.06294329354569,33.58649540443233],[11.062517984025064,33.58692781670818],[11.0623757320372,33.587051710106394],[11.061950417117773,33.587484125752574],[11.061166573736935,33.588104797912294],[11.060453847812129,33.588663514697814],[11.060029969992014,33.58915666049772],[11.059816581053346,33.58934249659235],[11.059677205256293,33.5895878599769],[11.05918505886228,33.59026442145311],[11.05883228545224,33.590695613631354],[11.0584823912226,33.591248282957594],[11.057781148948116,33.592292882541265],[11.057640322101829,33.59247750230159],[11.057151025015527,33.593275529560735],[11.056592023387216,33.59419623528425],[11.056451191055586,33.59438085384976],[11.056242101453932,33.59474889390496],[11.055960433240632,33.595118140485376],[11.055328842428453,33.5960400477828],[11.055116865845749,33.5962866079738],[11.054771243562927,33.59702147767554],[11.054631841974215,33.59726683609458],[11.054146807492902,33.598247057433596],[11.053870873241321,33.59885924602265],[11.053522354629152,33.59947263962545],[11.053452650335771,33.59959531824363],[11.053380069567545,33.59959652370318],[11.053030106669341,33.60014917437847],[11.052960401170262,33.60027185275339],[11.052820989601114,33.60051720940083],[11.052610433152498,33.60082450753617],[11.052539288932724,33.60088644912291],[11.051833589793892,33.60174880932531],[11.05176244427003,33.60181075050588],[11.050703867730729,33.603104278337234],[11.050069293564782,33.60390468353058],[11.049717857372185,33.60439659441817],[11.049571251718438,33.60433826455339],[11.0490574158744,33.6041037454012],[11.048614732152597,33.603807279392704],[11.048321524420889,33.603690616723],[11.047806261062693,33.60339535019506],[11.046925213589175,33.602984617173504],[11.046408525596668,33.60262860765813],[11.046187908177005,33.60251073818308],[11.046038441773522,33.60233093542395],[11.045888988188413,33.60215112710409],[11.045814959654308,33.6020915915845],[11.04566837267841,33.60203325662087],[11.045447757756746,33.60191538571924],[11.045302591600464,33.60191778734941],[11.045080545006485,33.60173917890587],[11.045006529678437,33.601679642660685],[11.044933946779928,33.601680843230795],[11.04485993160004,33.60162130689162],[11.044787348743753,33.60162250737391],[11.044568168079595,33.60156537168713],[11.044421570466403,33.60150703537881],[11.044348987685963,33.60150823560034],[11.044274973043596,33.60144869888869],[11.04420239030538,33.60144989902239],[11.043980347127668,33.601271288459515],[11.043907764524718,33.601272488414814],[11.043835181917473,33.60127368832757],[11.043690016690087,33.601276088025465],[11.043543420113265,33.60121775063252],[11.043470837535352,33.601218950329816],[11.043325672366638,33.6012213495968],[11.042592692971743,33.600929658587816],[11.042152907619474,33.60075464180101],[11.042080325366506,33.60075584066807],[11.041938021211744,33.600879712246254],[11.0417231341727,33.60100478233886],[11.041651981684458,33.60106671795614],[11.041508246502344,33.60112985207884],[11.041437093755702,33.60119178758089],[11.041222205195629,33.601316856853],[11.041151052088942,33.601378792202084],[11.04107989888061,33.60144072751345],[11.040934733123562,33.601443123988986],[11.040862150238599,33.60144432216292],[11.040197484484565,33.60096920722969],[11.040123473045279,33.600909667903004],[11.039830285703893,33.60079298424263],[11.039094464342377,33.60037979771647],[11.038873862200093,33.60026191970696],[11.038799852259597,33.6002023795246],[11.038727270317455,33.600203576407345],[11.03850809672105,33.600146429678354],[11.038069750340078,33.60003213502056],[11.037410805841974,33.59979995286751],[11.037191634026032,33.59974280373007],[11.037046470762007,33.59974519553744],[11.036680709652114,33.59962969991969],[11.036242367990623,33.59951539858467],[11.035950616121546,33.59945944254793],[11.035587708835845,33.59946541806292],[11.03544113264549,33.59940707052331],[11.03507537487644,33.59929157001614],[11.034491874219272,33.599179651614314],[11.033613777306078,33.59889029410015],[11.03324944801032,33.59883553048672],[11.032079611655984,33.598490193301814],[11.031941565305699,33.598796265959585],[11.031950103778644,33.59916069024961],[11.031954373072745,33.59934290238583],[11.031886060721485,33.59952630736451],[11.031888906862878,33.599647782120286],[11.031817748099467,33.599709712311146],[11.031822017203927,33.59989192444616],[11.031753704197113,33.60007532936307],[11.031686813886866,33.60031947162654],[11.031617077371186,33.600442139100785],[11.03154734066503,33.60056480654078],[11.031271237255083,33.60117694558254],[11.031133184220195,33.601483017479545],[11.030922546634542,33.60179028159814],[11.030854242720261,33.60197368589005],[11.03063364671643,33.601855787787834],[11.030267884082324,33.60174027324576],[11.02997470590624,33.60162356583324],[11.029828117103921,33.6015652118544],[11.029755533614981,33.601566403516316],[11.029096597155624,33.60133417670059],[11.028950009390298,33.601275821637515],[11.028508826454807,33.60104001786739],[11.028067645873387,33.600804212424634],[11.027553884893079,33.600569595648615],[11.026892122352772,33.600215886588515],[11.026746957367196,33.6002182663411],[11.02674553786836,33.600157528775455],[11.026382625583942,33.60016347739881],[11.025803384545501,33.600233730584904],[11.025513066610067,33.60023848716564],[11.025295318882483,33.60024205430576],[11.025077571116572,33.60024562106297],[11.024859823312338,33.6002491874373],[11.024643493499116,33.60031349107252],[11.024499746079764,33.600376605841454],[11.024283415652171,33.60044090886709],[11.024065667250078,33.60044447386192],[11.023772501135975,33.60032775124191],[11.023334170499721,33.600213403643245],[11.023187588194084,33.600155041521774],[11.023115005587918,33.60015622924418],[11.023041006078964,33.60009667921859],[11.022746425737756,33.59991921634891],[11.022525845392424,33.59980130313538],[11.02253151150411,33.600044254042395],[11.022464594937695,33.60028839228394],[11.022396261561804,33.60047179276827],[11.022259593877159,33.60083858849241],[11.021893845592226,33.600723053726966],[11.021270327030594,33.60200922284291],[11.020974327839465,33.601771018145506],[11.019867187096539,33.600999219034506],[11.018686057032436,33.600167861792706],[11.017947508774123,33.599633069612125],[11.015286558258442,33.59761060228308],[11.014916598758719,33.5973128267213],[11.014842607163647,33.597253271463146],[11.01469744606089,33.59725563689517],[11.01462487165718,33.59725681944709],[11.014478293634053,33.59719844666931],[11.014257737052196,33.597080517879256],[11.014109755242437,33.596961406473206],[11.013963184318568,33.596903038098596],[11.01388778328997,33.59678273899971],[11.013812382716386,33.5966624501412],[11.013736982239202,33.5965421560786],[11.012186034978743,33.59541294555589],[11.011400340826684,33.59597257922634],[11.010688624622484,33.59659176615689],[11.01026018225343,33.59690253828585],[11.009690803502066,33.59739787803037],[11.008544981228912,33.59808486942682],[11.006757150476222,33.59926836153393],[11.005326564371495,33.600202985006206],[11.004896686541716,33.600453001270154],[11.00403831462326,33.60101376816622],[11.002105189814653,33.60219954488056],[11.00131656422153,33.60263764159046],[11.000530732930551,33.60319720541851],[10.999601124994314,33.603819856287714],[10.998815271827215,33.60437941505995],[10.997599485265194,33.60518895636018],[10.996383669693188,33.60599849168498],[10.995523788460872,33.60649846436962],[10.995308816575125,33.60662345665712],[10.993515038029585,33.60756380883762],[10.992509949064099,33.608066102586335],[10.990714708159457,33.60894568257523],[10.98956440222943,33.60945028616976],[10.988123706952416,33.60995955498634],[10.988051120724583,33.60996072233809],[10.98675280902144,33.610346162918006],[10.985887261115264,33.61060311595023],[10.985166900484135,33.61085773155647],[10.984447919582474,33.61117307709235],[10.983296149458747,33.61161689078346],[10.982577161282093,33.611932230928495],[10.981139156423517,33.612562899395556],[10.979988743027294,33.61306741738195],[10.976033384623191,33.61477126799781],[10.97286953640068,33.61615855169729],[10.971286194748126,33.61679142750888],[10.970064445530802,33.617357754195574],[10.966540154447712,33.61887215168846],[10.965532014271052,33.61925275120957],[10.962511653092097,33.62057673709132],[10.958195313966941,33.62240727771753],[10.956829554343175,33.62303652465136],[10.955174726567993,33.62373108645571],[10.953736316888277,33.6243614491647],[10.952297885503066,33.624991790674095],[10.951289603788135,33.62537228366516],[10.950138832535675,33.62587654039729],[10.948988047466269,33.62638078685473],[10.948124950366445,33.62675896494251],[10.947405694281198,33.62707410897406],[10.946902897350283,33.62732507748104],[10.946616556527488,33.627511873102584],[10.94597126495704,33.627886605715254],[10.945826043361942,33.62788889221986],[10.945823314742594,33.62776740136824],[10.945820586602128,33.627645931107445],[10.945819222422404,33.62758519082772],[10.945745252365803,33.627525593647405],[10.945671276254561,33.62746599651555],[10.945668548127353,33.62734451594113],[10.945739795907784,33.62728263250903],[10.94573843180351,33.62722189222282],[10.945737067703329,33.62716115193598],[10.945663091922036,33.62710155478456],[10.945590486389143,33.627102697781154],[10.945589122398939,33.627041957487776],[10.945587758412827,33.626981217193766],[10.945586394430805,33.626920476899095],[10.945585030452875,33.62685973660379],[10.945583666479036,33.62679899630784],[10.94558230250929,33.62673825601124],[10.945580938543635,33.62667751571398],[10.945579574582073,33.626616775416096],[10.9455782106246,33.62655603511755],[10.945576846671221,33.626495294818355],[10.945648087694991,33.62643341155066],[10.945646723698902,33.62637267125279],[10.945645359706903,33.62631193095427],[10.945568663036866,33.626130853009656],[10.945489235907699,33.625828294432246],[10.945187896597252,33.62534694321874],[10.944964621272742,33.62510740989644],[10.944668740421115,33.62486901855521],[10.944005743131532,33.624454121056644],[10.943344114266456,33.6240999550036],[10.942757817222775,33.62386612486195],[10.94246466984866,33.62374920870255],[10.942319457970527,33.623751490795065],[10.942246855103416,33.62375263172905],[10.942100278753344,33.62369417316224],[10.941807132783248,33.62357725538758],[10.94173453004019,33.62357839601565],[10.941661924214964,33.62357953664951],[10.941516712552248,33.623581817789436],[10.941444106714764,33.62358295829552],[10.94137150087319,33.623584098759004],[10.94122492843138,33.623525639072874],[10.941078356180862,33.6234671792053],[10.94100575195968,33.62346831942649],[10.940861900914868,33.62353134028844],[10.940789295091506,33.623532480408635],[10.940644083432522,33.62353476052123],[10.940571479135947,33.6235359004895],[10.940497511523763,33.623476299951434],[10.940424905730863,33.62347743985607],[10.940350941345338,33.62341783917605],[10.940278334056124,33.623418979017075],[10.940207089866716,33.623480859290304],[10.940208449896605,33.62354159981277],[10.940209809930574,33.623602340334614],[10.940065958040748,33.623665360297394],[10.939923467316811,33.62378912060576],[10.939850859697756,33.62379026020687],[10.939779614897668,33.62385214025193],[10.939634401076415,33.623854419222255],[10.93948919185598,33.623856697949755],[10.939415224671036,33.62379709675006],[10.93927001398884,33.62379937524098],[10.939197406333049,33.62380051445879],[10.939053553323376,33.62386353327922],[10.93898366706512,33.6239861534486],[10.938771284399051,33.62423253268773],[10.938700038446717,33.624294412146696],[10.938627430351149,33.62429555104461],[10.93855482379056,33.62429668987577],[10.938482218764944,33.62429782864021],[10.938335646867671,33.624239365507215],[10.938263040341653,33.62424050416543],[10.938117827277377,33.62424278135408],[10.93804522227818,33.624243919860376],[10.937973972698028,33.62430579896775],[10.937831477849546,33.624429556996],[10.937760227964034,33.624491435989256],[10.937687622740885,33.62449257429303],[10.937613659254644,33.62443297194775],[10.937539692792063,33.6243733696023],[10.93739448098172,33.62437564592543],[10.937249267616004,33.62437792210233],[10.937176660927033,33.62437906012692],[10.93710541213268,33.62444093873418],[10.93703280538466,33.62444207667616],[10.936961557972618,33.62450395518128],[10.93696291577768,33.62456469581049],[10.936891665138907,33.62462657432777],[10.936819058225986,33.62462771214979],[10.93674645284805,33.62462884990509],[10.936672486782344,33.6245692470271],[10.936671129180848,33.624508506387485],[10.936523202081894,33.624389300407344],[10.936375273850992,33.62427009425758],[10.936299952565603,33.62414975045359],[10.936225988759562,33.62409014725438],[10.93585888524576,33.62391361188311],[10.935419178505521,33.623738212313086],[10.934980829853185,33.623623551820245],[10.934906867384482,33.62356394777849],[10.934835619080742,33.62362582509462],[10.93476301137984,33.623626961704055],[10.934690406752964,33.62362809822272],[10.934617800582966,33.6236292347229],[10.93454383834835,33.62356963045522],[10.9344712322211,33.623570766867616],[10.934398627628825,33.623571903213346],[10.934326019954383,33.623573039564654],[10.93425477121096,33.62363491656084],[10.934182165016535,33.62363605280548],[10.934035596911157,33.62357758442356],[10.93396299229446,33.62357872051376],[10.93388902899712,33.623519115860255],[10.933741107439806,33.62339991148416],[10.933595895397014,33.62340218331384],[10.933523287830468,33.62340331918887],[10.933450683337945,33.62340445497318],[10.93345339379715,33.62352593135638],[10.933382142901984,33.62358780789478],[10.933309535170565,33.623588943649835],[10.933236930513173,33.623590079314155],[10.933235575372706,33.62352933854154],[10.933234220236303,33.62346859776827],[10.933089008034775,33.6234708690069],[10.93301640192791,33.62347200456234],[10.932945152288868,33.62353388083476],[10.932871189701974,33.62347427554545],[10.932942442542085,33.62341240441524],[10.932941087502526,33.623351658481916],[10.932938377780127,33.623230182058506],[10.932937022867604,33.62316944127164],[10.932790456335734,33.62311097135095],[10.93264388999521,33.62305250124886],[10.932571284220156,33.6230536365306],[10.932498679980078,33.6230547717457],[10.932354821367882,33.62311778292923],[10.932282217064715,33.62311891801916],[10.93213835971678,33.62318192893541],[10.932065753811482,33.62318306392424],[10.93199314790212,33.623184198870455],[10.931919187792673,33.62312459295029],[10.93184522932404,33.623064986957644],[10.931843875187035,33.62300424612994],[10.931842521054092,33.6229435053016],[10.931768559719053,33.62288389930216],[10.931695955586909,33.62288503404103],[10.931623349911659,33.62288616876136],[10.931552096618635,33.62294804430251],[10.931479492423408,33.6229491789162],[10.931405534400563,33.62288957264277],[10.93140418058107,33.62282883179758],[10.93140282676564,33.622768090951745],[10.931401472954269,33.62270735010526],[10.931326158367613,33.62258700297143],[10.93125355292648,33.622588137465854],[10.931179595373791,33.62252853103747],[10.931106988436383,33.622529665468186],[10.930960425676675,33.6224711932651],[10.930815214953256,33.62247346177512],[10.930742611124481,33.62247459594223],[10.930668650931388,33.6224149892392],[10.93059469391813,33.62235538243968],[10.93052073392858,33.62229577563982],[10.930375525000754,33.62229804359922],[10.930301565206625,33.622238436660595],[10.93015500344645,33.62217996346297],[10.930008440338602,33.622121490108015],[10.929715316236008,33.62200454283005],[10.929422191359821,33.62188759485071],[10.929275630747789,33.621829120564996],[10.92920302431542,33.621830253857354],[10.929057816055568,33.62183252024222],[10.928911254338766,33.6217740506843],[10.928690735908628,33.62165596265935],[10.92854417460855,33.62159748749676],[10.928470219722422,33.62153787934187],[10.92839761503885,33.621539012128814],[10.928325010351223,33.62154014487316],[10.928251054236053,33.62148054175195],[10.928178451130208,33.62148167438454],[10.928105844942271,33.62148280702255],[10.928104493395507,33.621422060896926],[10.928031889562927,33.62142319345375],[10.927957934514433,33.62136359013339],[10.927885329185603,33.62136472262647],[10.927811374171162,33.6213051140641],[10.92773741771947,33.62124550547735],[10.927736066557893,33.6211847644846],[10.927734715400366,33.62112402349124],[10.927662111801915,33.6211251558222],[10.927586806100052,33.62100480611156],[10.927584104016905,33.62088332410994],[10.927581401949972,33.62076184210574],[10.92757869989925,33.62064036009897],[10.927504743422853,33.62058075135313],[10.927503392458506,33.62052001034554],[10.927502041498213,33.6204592693373],[10.927499339589788,33.6203377873189],[10.92757194484337,33.62033665507072],[10.927569242849387,33.6202151730549],[10.927640494646864,33.62015329979903],[10.927637792575437,33.62003181778452],[10.92763509052022,33.61991033576742],[10.927632388595729,33.61978885889615],[10.927557084191593,33.6196685091002],[10.927262618537599,33.619490814562575],[10.926821600195293,33.61925464183185],[10.926236729657395,33.61908147141876],[10.925727161666295,33.61902864925047],[10.925143643831115,33.61891621462918],[10.924634076488907,33.61886338790681],[10.924271064194434,33.61886903975024],[10.924125860479476,33.618871300170355],[10.923980655209352,33.61887356044413],[10.923908053337705,33.618874690505145],[10.923835449153549,33.61887582055952],[10.923906704983931,33.61881394935222],[10.923905356634203,33.61875320819866],[10.92397661000753,33.61869133699116],[10.923975261615013,33.61863059583889],[10.923972564842114,33.6185091135324],[10.924480778771343,33.61850120197344],[10.924625983374236,33.618498941134526],[10.924769839790377,33.618435938987496],[10.924986296629305,33.61837180605529],[10.925130151785654,33.61830880351638],[10.925413811791447,33.61800057466134],[10.92569747068243,33.61769235034865],[10.925833226355856,33.61726490044749],[10.925829177501322,33.617082677145646],[10.925752528544908,33.61690158492347],[10.925749829454837,33.61678010270999],[10.925677227875275,33.616781233771675],[10.925600579531093,33.61660014142623],[10.92559923010602,33.616539400311424],[10.92559653126802,33.616417918079854],[10.925595181855092,33.616357176963106],[10.925521232804462,33.6162975667776],[10.925519883450503,33.61623682565696],[10.925591133640598,33.61617495360898],[10.925589784243863,33.61611421248965],[10.925588434851177,33.616053471369675],[10.925584386697405,33.615871248005874],[10.925728237431615,33.615808250057604],[10.925799487014801,33.615746372754785],[10.925944686885074,33.615744110530365],[10.926089885200222,33.61574184815961],[10.926161136229677,33.61567998093163],[10.926233735326251,33.6156788496424],[10.926376235971814,33.615555104707454],[10.926447484987795,33.61549323220088],[10.926518733132577,33.615431359668264],[10.926661232964191,33.61530761442889],[10.927716452123786,33.61377211493468],[10.928069985264392,33.61334126634071],[10.92813717894566,33.61309716976058],[10.928276969689382,33.612851940731325],[10.928348214393207,33.61279006724249],[10.928418110868444,33.61266745261555],[10.928556547342419,33.61236148227917],[10.928699038537767,33.612237734926644],[10.92911164026027,33.611198345705766],[10.929319965930082,33.6107697596213],[10.92993952126249,33.60924104058317],[10.930630296416174,33.6076504441901],[10.931249808616515,33.60612171432091],[10.932835467668184,33.602329691338674],[10.933727651169331,33.60000678859451],[10.934353831707694,33.59878175021879],[10.934901994248602,33.597314886192216],[10.935250004490644,33.59664105580534],[10.935452846829252,33.595969502045456],[10.935592591230215,33.595724265821275],[10.935951438040478,33.595536361322615],[10.93659789917173,33.59522242712282],[10.937247068472185,33.595029971513924],[10.937826366610492,33.594960131899875],[10.938187916359684,33.5948937029838],[10.938476888254609,33.59482841086739],[10.938764499066432,33.59470237728145],[10.940281917293524,33.59437476481803],[10.94107895351311,33.59430149833757],[10.94136791619941,33.59423619453047],[10.941513078682163,33.59423391531098],[10.941874625242033,33.594167480915665],[10.942017067993337,33.594043719613275],[10.942741514986572,33.59397157739081],[10.948909502221554,33.593813752426286],[10.952537149031073,33.59369576010979],[10.955441721173715,33.59371062233207],[10.961901326999515,33.59360829928685],[10.964805883409324,33.59362294161437],[10.967272210828423,33.593522965142945],[10.973805714848083,33.59347960609947],[10.974604085825865,33.59346685923775],[10.975184718948782,33.59345758556005],[10.975691383206783,33.593388729428554],[10.976999189590824,33.593428587869134],[10.980845859496876,33.59336702482974],[10.983319454148461,33.590410825008796],[10.986285603073426,33.58677829549435],[10.987631091869758,33.585298405120156],[10.988409895296513,33.5844352237743],[10.988973757091406,33.58369702308488],[10.989541780733378,33.583141032406516],[10.99038475697639,33.58191223761835],[10.990594104340953,33.58154430417618],[10.991368664594953,33.58049889390862],[10.99143844474516,33.58037624725739],[10.991864091472925,33.57994406196286],[10.992074822091842,33.5796368602235],[10.992856314898715,33.578895131812864],[10.993637800550895,33.57815339877143],[10.99463277403864,33.577225938773594],[10.995772860186934,33.57629612954524],[10.996837564264528,33.57524599912155],[10.99769293712702,33.57456380999323],[10.998474342651166,33.57382204885632],[10.998616669203543,33.57369822614064],[10.998758995468382,33.57357440842204],[10.999258526427209,33.57320176615535],[10.999756660093347,33.5727683830652],[11.000468271106568,33.57214926630139],[11.001110112244213,33.571652792154694],[11.001181271908365,33.571590879413606],[11.001252431471011,33.57152896663471],[11.001396150493642,33.5714658797595],[11.001682187495597,33.57127896674289],[11.002396567956005,33.57078131219993],[11.002894671987548,33.570347917401904],[11.002967230543032,33.570346742456714],[11.003109544957214,33.57022291495196],[11.003468132366047,33.57003482299555],[11.003755561857576,33.56990864420861],[11.004256452073964,33.569596721831616],[11.004975017526624,33.569281269303815],[11.005834482726115,33.568781248830355],[11.006121904421375,33.56865506480056],[11.006624182428045,33.568403877142224],[11.006982754353835,33.568215775503134],[11.007341324689897,33.568027672876596],[11.007485033235467,33.567964579270196],[11.007772449679756,33.567838391577844],[11.008202167963065,33.567588370260374],[11.008559327939448,33.567339525705236],[11.008631883726439,33.56733834753206],[11.009418746211113,33.5668394766045],[11.009919603833193,33.566527532455986],[11.01041905156038,33.566154847886416],[11.010635309297548,33.56609057157471],[11.010779012105862,33.56602747432994],[11.010919901542438,33.56584289993438],[11.01184903064761,33.565220183586355],[11.013132470610396,33.564227126797746],[11.013776996393618,33.56385206800709],[11.013919278382271,33.563728229008625],[11.016200057447714,33.56192899802017],[11.018199018911488,33.56049890250466],[11.019055494541739,33.5598773138872],[11.019342866528522,33.559751100773745],[11.019485139958148,33.55962725574096],[11.01969996172159,33.55950222613922],[11.019842234229774,33.55937838072521],[11.020055642231252,33.55919261232134],[11.020980387385675,33.55838761218379],[11.021688900372467,33.55764690562027],[11.022045980125872,33.55739802470699],[11.022543908372946,33.55696455640238],[11.022755890297748,33.55671804556401],[11.023391829067782,33.5559785162317],[11.023462959865844,33.555916591593245],[11.024101717244678,33.55529853004527],[11.024525663123416,33.55480550321132],[11.024949591951282,33.5543124752688],[11.024948176175194,33.554251737184615],[11.025091848639063,33.55418862946457],[11.025161560735363,33.55406596070568],[11.025446072062488,33.553818258206135],[11.025444656085485,33.55375752528392],[11.026436182206046,33.5527083528359],[11.026648142830272,33.55246183082158],[11.027003770046791,33.552152203845885],[11.027144602984944,33.551967612708566],[11.02728118352373,33.55160080736269],[11.027423432376821,33.55147695396863],[11.027562845932538,33.55123162439351],[11.027845923613937,33.550923178860515],[11.028127581503169,33.5505539947397],[11.02833669648373,33.550185999278824],[11.028898582883752,33.549386890499605],[11.028897164849088,33.54932616281196],[11.028969704665661,33.54932497327812],[11.029463284389207,33.548709265896285],[11.030171647546021,33.547968510173824],[11.031121748141645,33.548256723327675],[11.03156124126176,33.54843179154871],[11.032366272754563,33.54872237678438],[11.032440232630954,33.54878192309334],[11.03251419260872,33.54884146935373],[11.032663533758114,33.5490212995745],[11.032740335756246,33.54920231107213],[11.03288825695388,33.54932140313563],[11.03303475762492,33.5493797674737],[11.03354679961558,33.549553625991855],[11.033987725739431,33.54978942292137],[11.034939267960715,33.55013834341531],[11.035085771050248,33.55019669491744],[11.035745748867097,33.550489643289325],[11.03626064960391,33.550784975789036],[11.036479695360185,33.55084213166513],[11.036627624370663,33.55096121893006],[11.036919211657633,33.55101717988501],[11.03721079928603,33.551073140138044],[11.037429846316387,33.55113029427834],[11.037865091888985,33.551123126106255],[11.038303187213918,33.551237431627726],[11.038520810169638,33.551233846187685],[11.038593351146321,33.55123265095609],[11.038665892118724,33.55123145568199],[11.03873843308685,33.55123026036546],[11.03888351501026,33.55122786960499],[11.039028596916555,33.551225478674674],[11.03917367880573,33.5512230875745],[11.039391301607385,33.55121950060576],[11.040120977060344,33.55138975410943],[11.040778126318513,33.55156119955836],[11.040995749750074,33.55155760973778],[11.04158036052486,33.55173024746206],[11.042093859769269,33.551964817136636],[11.042607361590155,33.55219937941862],[11.043267378264943,33.55249228604343],[11.043931686211621,33.552967401109356],[11.044594559606221,33.55338177515187],[11.045327134348954,33.55367347127581],[11.0456173051527,33.55366867383753],[11.04576382071822,33.55372700701904],[11.045910336594885,33.553785345167164],[11.046568944943552,33.55401749595294],[11.046934521892942,33.55413296986776],[11.04737407433352,33.55430797943015],[11.047958715021243,33.554480585760174],[11.048105233535194,33.55453892119809],[11.048472246781266,33.55471512759415],[11.048544790216503,33.55471392642277],[11.049056892164215,33.55488772853694],[11.049423908706592,33.55506393197129],[11.049790914399397,33.555240134459446],[11.052067032204603,33.55635685261986],[11.052141011768216,33.55641638632509],[11.052213556458673,33.5564151829505],[11.052286101144823,33.556413979533446],[11.052287536170093,33.5564747165619],[11.052360080902641,33.55647351309962],[11.05243262563088,33.556472309594874],[11.052434060761872,33.556533046617176],[11.052506605536509,33.5565318430672],[11.052579150306835,33.55653063947475],[11.05323492443631,33.55664127921364],[11.053308905017346,33.55670081217829],[11.053600520451173,33.556756732627576],[11.054407133401911,33.55710790530435],[11.05477559399142,33.5573448240189],[11.054994667110385,33.55740195111289],[11.055357393988977,33.55739592529927],[11.056011739661338,33.557445807887866],[11.057030251315387,33.557550398245525],[11.058054521509987,33.55789792730339],[11.058127067169373,33.55789672041694],[11.058198173584035,33.557834776699075],[11.058340386109094,33.55771088915053],[11.058482598228464,33.55758700145156],[11.058767021372182,33.55733923075043],[11.058910671856795,33.55727607422005],[11.058984656838602,33.55733560876405],[11.059424235447267,33.55751056894106],[11.060011799986098,33.55780458994654],[11.060232317773837,33.557922439150474],[11.06023519911596,33.55804391257051],[11.060309185526036,33.558103441107896],[11.06031350773673,33.55828565122281],[11.06031638923214,33.55840712462951],[11.060317829986325,33.55846786133188],[11.06083285773341,33.55876308623034],[11.061788935025342,33.559294001638726],[11.06193691220652,33.55941305662143],[11.06200945895517,33.559411847412065],[11.062010900949238,33.559472584039796],[11.062084889793383,33.55953211140951],[11.062086331846816,33.559592848033176],[11.062087773904576,33.559653584656175],[11.062089215844432,33.559714316130496],[11.062090658033073,33.55977505790023],[11.062020995028844,33.55989774041565],[11.06202243705752,33.55995847703815],[11.062023878968295,33.560019208511974],[11.062025321127852,33.560079950281235],[11.062026763047276,33.560140681753744],[11.062029647143563,33.5602621549929],[11.062103636703226,33.5603216823182],[11.062105078812898,33.56038241893339],[11.06254757619117,33.56067884524815],[11.06269555670964,33.56079789402082],[11.064536673182914,33.56192163278346],[11.064684670943045,33.56204068391203],[11.064908081762804,33.56227999724241],[11.064982075003046,33.562339522686955],[11.064983519237895,33.562400259172065],[11.064984963477082,33.56246099565654],[11.064987851968446,33.56258246862349],[11.064996517546525,33.56294688750877],[11.064997961824703,33.56300762398737],[11.064999406107214,33.5630683604653],[11.06507195577197,33.5630671493456],[11.065073400109535,33.56312788582012],[11.065219943970826,33.56318619991605],[11.065732126573275,33.56335992959805],[11.066171761131388,33.56353486889783],[11.066390856407015,33.56359196972516],[11.066682501906287,33.56364785292284],[11.067555994701527,33.563754777372374],[11.067702541155903,33.563813088417255],[11.069239119401841,33.56433423896716],[11.070190951479615,33.56468287091843],[11.070923701679394,33.56497440803718],[11.071145700712508,33.5651529726196],[11.071962603602568,33.56592917803827],[11.072035155340178,33.56592796274681],[11.072556065055915,33.56646607993021],[11.07277662135631,33.56658390512392],[11.072852073558316,33.56670416161658],[11.07409561884256,33.56710863923851],[11.075925394589758,33.56774630324243],[11.076144506146681,33.56780338610245],[11.076074857631024,33.567926075871874],[11.07572661208168,33.56853951906156],[11.075234705127555,33.56921613723892],[11.074670248048033,33.56989397048201],[11.074600583577455,33.570016659732694],[11.074529479877196,33.57007861270071],[11.074458388379197,33.570140565424815],[11.074387272172238,33.57020251852402],[11.074317631675644,33.57032520722166],[11.0742479786854,33.57044789609167],[11.074110123217816,33.57075400978225],[11.074041920660752,33.570937434605106],[11.07397371783407,33.571120859396295],[11.073979521783555,33.57136379845826],[11.073912769527835,33.571607959272754],[11.073843115019853,33.57173064795219],[11.07377491123355,33.571914072651644],[11.073708157932893,33.57215822822557],[11.073638502729048,33.57228091680751],[11.073288773234959,33.57283362314444],[11.072725716390833,33.573572184899625],[11.072448534744638,33.574123673174114],[11.072306317610122,33.574247576895544],[11.072095890904306,33.57455490438168],[11.071181609410209,33.57578542117045],[11.070548853299073,33.576646656330816],[11.07047919026224,33.57676934335805],[11.07026585379343,33.576955195821355],[11.069914648808817,33.57744715741511],[11.069773871118375,33.57763179465771],[11.069704193939183,33.57775448150798],[11.06942409663374,33.578184491380256],[11.069077213702089,33.578858654422575],[11.0683094211927,33.58014746571548],[11.067961075056672,33.58076088987],[11.067892852571147,33.58094431181983],[11.067752065168197,33.58112894704326],[11.067540159428667,33.58137553151087],[11.067187462836582,33.58180675030134],[11.067117791183687,33.58192943567815],[11.067048119340733,33.58205212102093],[11.066904435081662,33.58211528295487],[11.066836209416032,33.58229870440979],[11.06676364374307,33.58229991717266]]]}}]}
