{"type":"FeatureCollection","features":[{"type":"Feature","id":"osm:relation:7142969","properties":{"sourceId":"isie-best-effort-imada-525554-20260928","officialCode":"525554","governorateCode":"52","delegationCode":"5255","nameAr":"الجدارية","officialSourceNameAr":"الجدارية","sourcePdfURL":"https://www.isie.tn/wp-content/uploads/2023/CartesCirconscriptionsElectoralesLocales2023/مدنين/جرجيس/الجدارية.pdf","sourcePdfSha256":"c4cfd0d83da74429fe6a314a992130705a7f47b68f7a48d72b13c484758d841a","sourceGeometrySha256":"ab17913417c5d6daeec48862c3f25028ece0e8b126ba70dd6bfab81f6b3cca84","geometryMethod":"Pinned native ISIE red-face linework; exact registered EPSG:32632 face WKB; transformed to EPSG:4326 with always-XY axis order."},"geometry":{"type":"Polygon","coordinates":[[[11.09253119273499,33.35595551497748],[11.092996194299165,33.355134186729494],[11.093637435255879,33.35357775102589],[11.093726536118005,33.35325085252088],[11.094480241859234,33.35234330098466],[11.094854162687396,33.35176754959213],[11.095226128784937,33.35111048804068],[11.095691080172795,33.35028915110788],[11.096156024179257,33.349467812655625],[11.096894058845631,33.34790972690701],[11.09745196204968,33.34692411596428],[11.09781998732186,33.34610441568835],[11.098188004865104,33.34528470761502],[11.098368106564196,33.344712221250845],[11.09863922937373,33.34389414932223],[11.09981469709666,33.340376284280964],[11.099994781739623,33.33980379591224],[11.100451815808004,33.338657180018636],[11.100726813950256,33.338001743057866],[11.101003762508386,33.33742761463859],[11.10146859174822,33.33660625936296],[11.101937323025263,33.335947534422104],[11.102959903565106,33.33414055102853],[11.10332978325216,33.33340214599859],[11.10360865805918,33.33290932848558],[11.10406757005818,33.33184402412153],[11.10434056479897,33.33110725763753],[11.104615512721631,33.33045181339323],[11.105058739872767,33.328735972267935],[11.105499995770606,33.32693882081162],[11.105680015859065,33.326366325656004],[11.105844371319487,33.32514331035128],[11.106099709151843,33.32367469794336],[11.106091876485813,33.323349434497345],[11.106175027077468,33.32277858107488],[11.107244397453549,33.322923141550994],[11.10792437237494,33.32299295958608],[11.10860434989741,33.323062760032805],[11.10870120750686,33.323061115704036],[11.108989825795422,33.32297487333655],[11.10928040439574,33.32296993912914],[11.110349780597735,33.32311446565821],[11.110932898721702,33.32318590581375],[11.111998352422138,33.323167793669874],[11.112288929045416,33.32316285243529],[11.112480686108835,33.32307824231177],[11.112668508174043,33.32283100096136],[11.11305005308616,33.322580463863375],[11.113433556576213,33.322411241230775],[11.114014706244664,33.322401351531255],[11.114785640580777,33.32222553707877],[11.115076215606816,33.322220589412815],[11.11546364886439,33.322213991468665],[11.115953837844891,33.32244968848995],[11.11663775083489,33.3226820755056],[11.117124012798568,33.32275513699193],[11.117705161309145,33.32274522997389],[11.11799770684241,33.3228215975497],[11.118288283242567,33.32281664229295],[11.118772577084764,33.32280838202278],[11.121759405159697,33.32210660597535],[11.122144863271874,33.322018672172256],[11.122239747885514,33.32193570226434],[11.122627173978364,33.32192908210002],[11.123210292983376,33.32200046446695],[11.12330517652184,33.3219174937852],[11.123498887356753,33.321914182229335],[11.12378551487317,33.32174658424802],[11.123977250630777,33.32166195701347],[11.124265847155458,33.32157567299224],[11.124651300000208,33.321487731590885],[11.12464142386069,33.321081157016664],[11.124922115944454,33.3206696119217],[11.125016996413208,33.320586640036524],[11.125194902853325,33.31993280666655],[11.125376754476761,33.319441609848724],[11.125562559953098,33.31911303563896],[11.125742440038099,33.318540516446696],[11.126311697998958,33.31804268102432],[11.126886884702934,33.31778878767314],[11.12784156164994,33.31720299691213],[11.128511611467236,33.31686612941745],[11.129088762674156,33.316693541129474],[11.129280482041299,33.31660890628304],[11.129665907365814,33.31652095031441],[11.129857629861503,33.316436314541235],[11.130138278967994,33.31602475900324],[11.130822174208102,33.316257075476365],[11.131691849197658,33.316160805664275],[11.131978437617985,33.315993190064255],[11.132553589150536,33.31573927163781],[11.132935041834717,33.31548867667645],[11.133124776020484,33.31532272151343],[11.13341334193252,33.3152364242256],[11.133506221283188,33.315072131881536],[11.134089300090878,33.315143457786974],[11.13418218232889,33.31497917181109],[11.134279031444143,33.31497750786044],[11.134571562713774,33.315053830027445],[11.134864094290275,33.315130144591556],[11.136217993469225,33.31502552746451],[11.136698266692449,33.314854570293754],[11.137848525949366,33.31434668869457],[11.138332762683705,33.31433835410765],[11.13852447137476,33.314253705445964],[11.13861535642409,33.31400809533867],[11.138805076292918,33.31384213201503],[11.138992807469213,33.313594854171626],[11.139481020644801,33.31374914367629],[11.139678692721999,33.31390843597836],[11.139787472772085,33.31439465302517],[11.140182821755092,33.31471323611368],[11.140671039009435,33.314867520648924],[11.140866725971613,33.314945496704276],[11.141159261829053,33.31502179622842],[11.141352959262553,33.31501845737085],[11.141358930105177,33.3152623996979],[11.141558599498754,33.31550300279354],[11.141851137927185,33.31557930747406],[11.142141681677433,33.315574297453715],[11.142145663779722,33.31573692557434],[11.142343345163123,33.315896213211325],[11.142537044380296,33.315892872430695],[11.14282560144644,33.31580654667263],[11.14302129228337,33.31588451915921],[11.142928426321667,33.316048817993384],[11.143124117795153,33.31612679028962],[11.143128101805239,33.31628941829108],[11.143232920278168,33.3166130032777],[11.14343060150667,33.31677228907437],[11.143725138066584,33.31692989616059],[11.143924817816762,33.3171704949764],[11.144118519651558,33.31716715161775],[11.144126491711528,33.31749240734944],[11.144223342976126,33.31749073553641],[11.144525857207135,33.317973603083736],[11.145219768123697,33.318612407449834],[11.14571400321228,33.319010612266574],[11.146206247517146,33.31932749422383],[11.146595655750545,33.319402120376466],[11.146886211279906,33.319397098754514],[11.146981072589107,33.31931410398906],[11.147075925844963,33.31923112308357],[11.147168786879057,33.3190668214016],[11.147364488485541,33.31914477966236],[11.147556198081105,33.31906012393225],[11.14765305086159,33.31905844937634],[11.147848752836959,33.319136406857055],[11.14804245852144,33.319133057206926],[11.148331015994632,33.319046725443975],[11.148526722592417,33.3191246817616],[11.148817276832807,33.31911965566028],[11.149493248062205,33.319026618553565],[11.149878660009287,33.3189386002391],[11.15016322126339,33.31868963015725],[11.15055063003459,33.31868292341723],[11.150940038126757,33.31875752902109],[11.150942037584105,33.318838842570635],[11.151432290490906,33.31907438970265],[11.151627995869578,33.31915235487169],[11.15181970064092,33.31906767893722],[11.152305964064126,33.31914060914805],[11.152691373008832,33.31905257530243],[11.153173633777133,33.318962875219015],[11.15365989709918,33.31903578632027],[11.153851599815008,33.31895112111967],[11.153946449816678,33.318868128273735],[11.154525551662974,33.31877673675326],[11.154624414775983,33.31885636998658],[11.15481811076576,33.31885300993959],[11.154912959707277,33.318770016395035],[11.155496075218691,33.31884124690054],[11.15608119559747,33.31899378100765],[11.156472613429402,33.31914968225974],[11.156860022626427,33.319142955763915],[11.157441127968593,33.31913286389994],[11.15782452510464,33.31896350803213],[11.157917365407224,33.31879920601859],[11.158597334625885,33.318868739222886],[11.158795051866601,33.31902799909175],[11.159378171056224,33.31909920426684],[11.159955267663905,33.318926474366506],[11.160239799052176,33.318677489232044],[11.160332634272255,33.31851317870811],[11.160231766787156,33.31835223701193],[11.16080884842732,33.31817950353332],[11.16138794496579,33.318088080315576],[11.161482786599494,33.31800508202607],[11.161573609535774,33.317759457686606],[11.163403711978413,33.31732085721725],[11.164073614610873,33.316983796339535],[11.164654702856602,33.3169736713125],[11.165036063137435,33.316722981234925],[11.168980652536503,33.315596651217135],[11.169658585433652,33.31558481191249],[11.17110523546013,33.315315492144414],[11.172172572389503,33.315378180238724],[11.172949368868538,33.31544594188773],[11.173925922295474,33.31575424601914],[11.174410151189289,33.3157457705847],[11.174993257005891,33.3158169096977],[11.175761969477886,33.31555940442463],[11.176149357843602,33.315552618423126],[11.180287414822882,33.31442254363633],[11.181245733767526,33.313998981719976],[11.182591421052543,33.31356860702553],[11.18450799855024,33.31272144227948],[11.186815979696444,33.31203005403096],[11.186906725212891,33.31178441408669],[11.187096344658926,33.311618380817855],[11.188157531245523,33.31143699804942],[11.189499072212989,33.31084392811563],[11.18978349048841,33.31059487256529],[11.190554136515999,33.31041859081576],[11.19093131866994,33.31000520210639],[11.19247260825665,33.309652626879355],[11.192563335577042,33.30940698346422],[11.193430803822132,33.309228982177004],[11.193906843967659,33.30889517973845],[11.19438899783737,33.30880532339498],[11.196123925844503,33.30844927607025],[11.196606074333097,33.30835940441158],[11.19689250506968,33.308191644851455],[11.19756627597249,33.30801703340239],[11.198821074779733,33.3078321357709],[11.199393922713526,33.30749660627336],[11.200259319252753,33.30723724048145],[11.20218171296725,33.30663374767569],[11.203339636180013,33.30645052218526],[11.203720834620505,33.30619971928684],[11.204011339426453,33.30619456579297],[11.204392534749589,33.30594376094763],[11.204876707751408,33.30593516885517],[11.205356782592096,33.30576395333479],[11.206704253767516,33.30541463766264],[11.208338118464363,33.30489752294111],[11.209294135046427,33.3043924500656],[11.209574368941205,33.30398073098016],[11.210050308484652,33.3036468771278],[11.211210234385366,33.30354489769929],[11.211694391902931,33.30353627958884],[11.212275380651906,33.30352593536897],[11.212852249402163,33.30335296779883],[11.213039752291035,33.30310558694151],[11.213134518843482,33.30302254493807],[11.213709334295546,33.30276826996328],[11.214187315933067,33.30251571130793],[11.216307283833238,33.30207117644324],[11.21755987923259,33.30180478436999],[11.217945135566561,33.301716560426264],[11.218136733163542,33.3016317929558],[11.218229440939124,33.30146744393468],[11.218901058527859,33.301211410173394],[11.219475843899666,33.30095710272578],[11.220248406204387,33.30086195224825],[11.220821122144663,33.30052632881726],[11.220911760734007,33.30028066803442],[11.221972715991853,33.300099004622396],[11.222648440290156,33.300005571244185],[11.222840029257652,33.299920796838215],[11.223130509488877,33.29991559950936],[11.223416859112312,33.29974778179025],[11.224378925539636,33.29948652089113],[11.225343052837129,33.29930656252234],[11.22649255499358,33.298797894789274],[11.227069369359354,33.29862486335014],[11.227938708653571,33.298527930878834],[11.228612342664537,33.29835315618919],[11.229094395366284,33.29826316190854],[11.229475481083197,33.298012284170284],[11.229763882668502,33.297925762065496],[11.230441651134363,33.29791359678872],[11.231500497401251,33.297650551051525],[11.234401053412741,33.29743572938914],[11.234784178682688,33.29726614567217],[11.23516939479256,33.297177869775204],[11.235165242889277,33.29701525129421],[11.235554610059971,33.29708959271431],[11.235843001814612,33.297003056853804],[11.236032493662554,33.296836953660566],[11.236123085703822,33.29659128357962],[11.2393057353993,33.29604588507421],[11.242092713043752,33.29518216051881],[11.24516176621623,33.293987892346316],[11.245833240313065,33.293731718304315],[11.246687914904587,33.29306550334612],[11.24697628109826,33.2929789425911],[11.247268820386532,33.29305499842951],[11.247557185891472,33.29296843635072],[11.247746629758,33.29280231677608],[11.24832544525803,33.2927104984204],[11.248611720390384,33.29254262542471],[11.249287349797946,33.29244905059071],[11.25034188549666,33.2920232321485],[11.250720790399246,33.291690984214114],[11.250811336127098,33.29144530518468],[11.251002877001884,33.291360489141475],[11.251581678740378,33.29126865613088],[11.251870033606291,33.29118208443953],[11.252061572797507,33.29109726682721],[11.252446741522904,33.2910089391165],[11.252730911072117,33.290759748800355],[11.253309706583636,33.290667907969635],[11.253402336389613,33.290503535675576],[11.254172648226012,33.29032687138887],[11.254460997125006,33.29024029390685],[11.254555717697048,33.29015722910337],[11.254745158303226,33.28999109929928],[11.255317663909212,33.28965532473843],[11.255702822490676,33.28956698731403],[11.255986977894976,33.289317790080936],[11.256376324225206,33.28939206698334],[11.256569950013972,33.28938855089299],[11.256759385039523,33.289222418228334],[11.256950914870963,33.289137593429565],[11.257822227780895,33.28912176472875],[11.258493624281705,33.28886552516914],[11.258777769205457,33.288616321955004],[11.258965100919943,33.28836887812612],[11.25886409484385,33.2882080219639],[11.25905771768511,33.28820450210824],[11.2591566267716,33.288284056975066],[11.259350249741656,33.288280536656636],[11.259541774640951,33.28819570115096],[11.259634390312126,33.28803133164391],[11.25983220871343,33.288190419672716],[11.259929020054086,33.28818865902934],[11.260118446119016,33.288022528481136],[11.260503591882538,33.28793417665147],[11.260791909487747,33.287847585332436],[11.261174954355097,33.28767792356348],[11.261938939476297,33.287257288784375],[11.262037849742791,33.287336834409956],[11.262039949848416,33.28741814227518],[11.262237771115377,33.28757723325109],[11.26272182354391,33.28756842005561],[11.264173979564736,33.287541969171194],[11.26504527226622,33.287526090506056],[11.265910253185467,33.287266282799216],[11.266099665466117,33.287100143668866],[11.266583713966398,33.287091315545325],[11.266869917432704,33.28692340287099],[11.26716034581772,33.28691810444784],[11.267547583546149,33.28691103882921],[11.26841044389567,33.28656989983153],[11.269555295301014,33.2858982351129],[11.270315006811881,33.28531493617772],[11.271072599888871,33.28465032558294],[11.276161067329168,33.282930317372106],[11.27810349840582,33.283138761812666],[11.279065196745874,33.28287709116698],[11.279551333558535,33.282949520478624],[11.27984174622158,33.28294419298465],[11.280127925590277,33.28277624411594],[11.28099914486249,33.28276025593412],[11.282061869427269,33.282659406268024],[11.28350120695201,33.28214489259584],[11.284357591766534,33.2815597340081],[11.284927801608914,33.281142523027945],[11.285018240941127,33.280896830114145],[11.285601171634958,33.28096744920963],[11.285695851922503,33.28088436911514],[11.285982012758998,33.28071640747135],[11.286367096080845,33.28062798469865],[11.286558559772166,33.2805431164489],[11.286941518833613,33.280373378504095],[11.287318107469943,33.27995971984556],[11.287505338919875,33.2797122368733],[11.287597892668327,33.27954784203409],[11.287884045561553,33.27937988320867],[11.28845634799478,33.27904396370817],[11.289405217672847,33.278294377380846],[11.289502016097751,33.27829259417052],[11.289986008094354,33.278283676989595],[11.290852940978512,33.278105008612116],[11.291907084776085,33.27767885225723],[11.292475104909842,33.27718030272211],[11.29296332927226,33.27733398702456],[11.293348405804652,33.277245536303965],[11.293638780364253,33.27724017768753],[11.293927042406859,33.27715351189852],[11.294213174737223,33.27698553928574],[11.294408897322846,33.27706327159301],[11.29469928747761,33.277057910222275],[11.29518966095593,33.277292891460625],[11.29538751524149,33.27745192826454],[11.294430190648589,33.277876333197845],[11.294141926659712,33.277962993334924],[11.294045128913297,33.27796478014256],[11.294047257943085,33.278046086317325],[11.29404938698142,33.278127392490916],[11.293952589047281,33.27812917923426],[11.293954718004578,33.27821048541216],[11.293857919972305,33.27821227208573],[11.293860048848558,33.27829357826793],[11.29386217773336,33.27837488444896],[11.293767508317124,33.27845797724356],[11.29376963712943,33.278539283427705],[11.29367496745297,33.27862237616115],[11.29357816894712,33.27862416263633],[11.293481370432724,33.278625949036226],[11.293384588324665,33.278627735057924],[11.293386716795712,33.2787090412617],[11.293195231430534,33.278793920212514],[11.293197359739473,33.27887522642491],[11.293102705564968,33.27895831845397],[11.293201616382987,33.27903783884613],[11.293203744717562,33.27911914505498],[11.293205873060682,33.279200451262625],[11.293208001412344,33.27928175746909],[11.293111218562045,33.279283543308914],[11.293113346832673,33.279364849519695],[11.293018659243781,33.279447942110565],[11.29302078744189,33.27952924832448],[11.292829332773541,33.27961412618727],[11.292734661062124,33.27969721827882],[11.292637861306144,33.279699004072576],[11.292541061541625,33.27970078979102],[11.292446389454748,33.2797838816775],[11.292349589583555,33.27978566725086],[11.292254917219351,33.279868759002056],[11.292158117241485,33.279870544430324],[11.292160244675957,33.27995185068776],[11.292063444599956,33.27995363604623],[11.291966644515414,33.27995542132941],[11.291871971596562,33.28003851281002],[11.29177517140535,33.28004029794811],[11.291777298498515,33.280121604225144],[11.291680498209171,33.280123389293436],[11.291583697911289,33.28012517428644],[11.291585824833797,33.28020648057326],[11.29148902443778,33.28020826549645],[11.29139222403323,33.28021005034435],[11.29139435078508,33.280291356640994],[11.291297550282394,33.28029314141909],[11.291202876352365,33.280376232428324],[11.291009275125125,33.28037980161905],[11.290817800095079,33.280464676835784],[11.290531649640686,33.28063263541412],[11.290529523841284,33.28055133596435],[11.290432722993003,33.28055312008127],[11.29043484870281,33.28063441953653],[11.290338047756402,33.28063620358365],[11.290340173745518,33.280717516826286],[11.290243372700973,33.28071930080361],[11.290245498428838,33.280800607159016],[11.290148697286158,33.28080239106653],[11.290054021511981,33.280885474372404],[11.28986041900478,33.2808890418219],[11.289765743215451,33.28097213870575],[11.289671066886637,33.281055221741],[11.289673192291158,33.28113653501613],[11.289578515702077,33.28121961799019],[11.289481714051686,33.28122140139806],[11.289384912392766,33.28122318473064],[11.28929023560835,33.28130627439111],[11.289292360499918,33.2813875807931],[11.289195558644733,33.28138936398606],[11.289098756781021,33.28139114710371],[11.289004079540069,33.281474236563355],[11.288907277569699,33.281476019535916],[11.288812600051404,33.28155910886023],[11.28871579797438,33.281560891687676],[11.288621120178748,33.28164398087667],[11.2886232444772,33.28172528731232],[11.288526442203912,33.281727070000144],[11.288431764049864,33.28181015905811],[11.288337085716607,33.281893248050565],[11.288242407204141,33.28197633697749],[11.288145604627935,33.28197811938058],[11.288050925838126,33.28206120817219],[11.288053049641576,33.282142514634835],[11.28805517345355,33.282223821096295],[11.287960494322366,33.28230690983098],[11.287863691362158,33.28230869203009],[11.287769011953628,33.28239178062945],[11.287672208886766,33.28239356268347],[11.287674332365885,33.282474869163295],[11.28757752920089,33.28247665114747],[11.287480726027376,33.28247843305636],[11.287482849335799,33.28255973954599],[11.287386046064155,33.28256152138506],[11.287388169111525,33.28264282098741],[11.287291365741757,33.282644602756655],[11.287196685600058,33.282727697845864],[11.28709988212363,33.282729479469985],[11.287005201524625,33.28281256753229],[11.286908414357281,33.2828143487092],[11.286811594349949,33.282816130415],[11.286813716885268,33.282897430046695],[11.286815839788954,33.28297874346031],[11.286719052425383,33.28298052449762],[11.286721174888156,33.28306182413243],[11.28662435459491,33.28306360570403],[11.286529673360802,33.28314670032597],[11.286435008003483,33.28322978079724],[11.286338187505423,33.283231562153865],[11.286340309815207,33.2833128686986],[11.286243522050674,33.283314649381374],[11.286146717861786,33.28331643029086],[11.28605203571386,33.28339951768501],[11.28595735338671,33.28348260501365],[11.285860548993046,33.28348438570819],[11.285862670880336,33.28356569227676],[11.285765866388541,33.283567472901474],[11.285669061888232,33.28356925345087],[11.28567118360481,33.283650560029216],[11.285574379006372,33.28365234050879],[11.28557650064185,33.28373364709143],[11.28547969594528,33.28373542750118],[11.285382891240198,33.283737207835635],[11.28528820790175,33.28382029469267],[11.28529032928542,33.28390160128936],[11.285193524384075,33.28390338148416],[11.285098840687171,33.28398646821013],[11.285002035679184,33.283988248259774],[11.284905230662687,33.28399002823413],[11.28490735170492,33.28407133485038],[11.284810546590291,33.28407311475491],[11.284713741467156,33.28407489458413],[11.2846190571174,33.28415798096952],[11.28442544664933,33.28416154026238],[11.284330761924089,33.284244626442586],[11.28423395657916,33.28424640590623],[11.284139271576553,33.284329491951056],[11.283945660664914,33.284333050512764],[11.28385097528682,33.284416136352384],[11.283754169720112,33.28441791545044],[11.283659484064653,33.284501001154695],[11.283562678391307,33.284502780107616],[11.283465872709456,33.28450455898522],[11.28337118667851,33.28458764448427],[11.283373306346434,33.28466895117981],[11.283276500468327,33.28467072991775],[11.28327862005514,33.28475203661759],[11.283181814078908,33.28475381528571],[11.282990321427386,33.284838679111076],[11.282893515336013,33.28484045755872],[11.282702022193865,33.28492532095841],[11.282413722354583,33.28501196215962],[11.282125421909548,33.2850986027147],[11.281837120858764,33.28518524262362],[11.281355205859702,33.28527543650182],[11.28097221407198,33.28544515847346],[11.280587103585885,33.28553357248172],[11.280395606518816,33.28561843247582],[11.280204125484117,33.285703291888154],[11.280109418564953,33.28578637537386],[11.280014744299278,33.28586945819156],[11.279917936868934,33.28587123437025],[11.279823245909517,33.28595431735375],[11.27972643837256,33.28595609338727],[11.279537055719734,33.28612225901789],[11.279345556284634,33.28620711748351],[11.27925086441197,33.28629020006505],[11.279061480128883,33.28645636503142],[11.278872095128772,33.286622529735496],[11.278775286789868,33.286624305059604],[11.278680593922807,33.28670738724343],[11.278583785477291,33.286709162422355],[11.278392283601443,33.28679401261293],[11.278295475040837,33.28679578757138],[11.278103973032957,33.286880651119375],[11.277912470282564,33.28696550060358],[11.277817776207877,33.28704858217583],[11.277624158438538,33.2870521311464],[11.27752734954114,33.28705390551871],[11.277432654992836,33.28713698681582],[11.277335845988834,33.28713876104296],[11.277241151163151,33.28722184220462],[11.277144342052548,33.28722361628659],[11.277049646949484,33.28730669731282],[11.276954951667156,33.28738977827346],[11.27695706561052,33.28747108529613],[11.276860256205563,33.287472859168524],[11.276763446792122,33.28747463296559],[11.276668751053148,33.28755771372521],[11.276571941533106,33.28755948737711],[11.276477245516748,33.287642568001274],[11.27638043589011,33.287644341507985],[11.276283626254987,33.2876461149394],[11.276188929863128,33.28772919535826],[11.275997423452166,33.28781404892788],[11.27580591647813,33.28789889532528],[11.275614409478298,33.28798375522524],[11.275326091568243,33.28807037376686],[11.275134583693818,33.28815523296036],[11.275039885458611,33.288238305674874],[11.274943075077335,33.28824007809001],[11.274846264687586,33.28824185042982],[11.274749454289358,33.28824362269431],[11.274654755759576,33.28832670202524],[11.274459023043827,33.28824893903585],[11.274265402171098,33.28825248288695],[11.274073892603562,33.28833733361125],[11.273785588406744,33.28842395527667],[11.273690872316575,33.28850703421785],[11.273594077964699,33.28850880529448],[11.273499378014096,33.288591883799796],[11.273402550721714,33.28859365533197],[11.273307866910692,33.28867673340146],[11.273211055928702,33.28867850448811],[11.273116355423317,33.288761582722465],[11.273019544334748,33.288763353663896],[11.272924843551976,33.2888464317628],[11.272830142589926,33.28892950979607],[11.272735441448594,33.28901258776374],[11.272638630057225,33.28901435842023],[11.2725439286385,33.28909743625242],[11.272447117140551,33.28909920676372],[11.272350305634136,33.2891009771997],[11.27225560383991,33.289184054826514],[11.272160901866403,33.28926713238773],[11.272066199713612,33.28935020988333],[11.271779982864745,33.28951813468896],[11.271399061652387,33.28976913590507],[11.271304358227658,33.2898522128672],[11.2711107333896,33.28985575195411],[11.271013920957877,33.289857521384576],[11.27091921705953,33.289940598071446],[11.270921325609834,33.290021905402014],[11.270826621451016,33.29010498202754],[11.270729808724965,33.29010675124835],[11.270731917112906,33.29018805858743],[11.270637212595503,33.290271135081724],[11.270639320910723,33.290352442423895],[11.270542507898806,33.29035421151038],[11.270445694878429,33.29035598052155],[11.2702520688123,33.29035951831791],[11.270157363641982,33.29044259447129],[11.270060550498117,33.2904443631866],[11.269869031799967,33.29052920777456],[11.269677512717848,33.2906140520818],[11.26948599325176,33.29069889610832],[11.2692944734017,33.29078373985409],[11.269006139482531,33.29087035123306],[11.268719911547718,33.29103826940701],[11.26833686839189,33.29120795437193],[11.268338974648552,33.29128926183165],[11.268242160447516,33.29129102917012],[11.268145346238027,33.291292796433254],[11.267953823700198,33.29137763821385],[11.267857009375703,33.291379405256436],[11.267760195042758,33.291381172223694],[11.267663380701357,33.291382939115636],[11.267566566351512,33.29138470593223],[11.267469751993213,33.2913864726735],[11.267372937626465,33.291388239339454],[11.267375043003499,33.29146954685116],[11.267280333834476,33.29155262096318],[11.267185624486148,33.29163569500955],[11.267088826242704,33.29163746116627],[11.26709093137614,33.291718768690735],[11.266996205251571,33.29180184290536],[11.266804696827613,33.29188668270187],[11.26661106689154,33.291890214969044],[11.266514251910833,33.291891980989625],[11.266419541274495,33.2919750476022],[11.266322726187248,33.291976813477554],[11.266324830815607,33.2920581279324],[11.26613330453721,33.29214296014925],[11.26593967394497,33.29214649139436],[11.265941778053223,33.292227798976946],[11.26584496265478,33.29222956449193],[11.265748147247892,33.2922313299316],[11.265750251185276,33.29231263752385],[11.265653435680285,33.292314402893616],[11.265556620166855,33.292316168188044],[11.265558723933367,33.292397475789976],[11.265461908321832,33.292399241014515],[11.265365092701858,33.29240100616371],[11.265367196297499,33.29248231377532],[11.265270380579421,33.29248407885461],[11.265272484093847,33.29256538647046],[11.265175668277669,33.29256715147985],[11.2650809557966,33.29265022403945],[11.264986243136214,33.29273329653338],[11.264411655108454,33.292987807148826],[11.26431694143649,33.293070879170415],[11.264030696741651,33.29323878027376],[11.263361387301579,33.29357635805401],[11.26316985482298,33.29366119283422],[11.262883606085937,33.29382909834472],[11.26269207256199,33.2939139324277],[11.26250053865408,33.29399876622983],[11.262405822045418,33.294081836904105],[11.262311105257423,33.29416490751273],[11.26221428747612,33.29416667028982],[11.262119570410695,33.294249740762844],[11.262024853165936,33.294332811170186],[11.262026953817442,33.29441411894454],[11.261930135741844,33.29441588151187],[11.261833317657816,33.294417644003865],[11.26173859995629,33.29450071420995],[11.26164388207543,33.294583784350344],[11.261547063786779,33.294585546627175],[11.261549164015237,33.294666854425074],[11.261452345628484,33.29466861663199],[11.261355527233304,33.294670378763534],[11.261357627290852,33.294751686571104],[11.261260808797575,33.29475344863275],[11.261166090182508,33.294836518436284],[11.261069271582706,33.29483828035265],[11.260877750402177,33.29492311149296],[11.260785114367179,33.29508748915938],[11.26068831188299,33.29508925049193],[11.260593592354386,33.2951723198929],[11.260496756926992,33.29517408167763],[11.2604020535393,33.295257150644275],[11.260307333553914,33.29534021984395],[11.260210514340251,33.29534198111479],[11.260212613389186,33.29542328897793],[11.260021073635256,33.295508119177214],[11.259924254216978,33.295509880232856],[11.259926353013743,33.295591188109896],[11.259829533497365,33.295592949095614],[11.259732713972566,33.29559471000601],[11.259637992975511,33.29567777873314],[11.259543271799112,33.29576084739459],[11.259446452069698,33.29576260808977],[11.259351730615853,33.295845676615606],[11.259160189048632,33.295930505555724],[11.259065467137994,33.29601357388024],[11.258873924909366,33.29609840240383],[11.25877920254193,33.296181470527024],[11.258684479995145,33.29626453858452],[11.258301393276215,33.2964341942465],[11.257916208006819,33.2965225408083],[11.257821484252142,33.29660560825333],[11.257726760318109,33.296688675632666],[11.257629939442303,33.29669043495586],[11.257535215230817,33.29677350219955],[11.257341573257772,33.296777020480015],[11.256960577665183,33.29702798021467],[11.256672209633713,33.297114564254635],[11.25629121058835,33.297365522065554],[11.255908113921876,33.29753516382237],[11.255525015897192,33.29770481134712],[11.25543028855244,33.297787877102884],[11.255333466308914,33.297789634688044],[11.255238738686701,33.29787270030817],[11.255045093978252,33.29787621511253],[11.255047188437006,33.29795752323249],[11.254853543515564,33.297961037746276],[11.254470457857295,33.298130681872905],[11.253990531344975,33.29830208173635],[11.253704249095438,33.29846996735052],[11.253415872726322,33.298556544144276],[11.25322641191588,33.298722672596945],[11.253032765060796,33.298726184344666],[11.252843303140493,33.29889231225459],[11.252746479504177,33.2988940678755],[11.252748571733921,33.29897536921925],[11.252651747999526,33.298977124770225],[11.252653840325328,33.29905843300988],[11.252557016492846,33.2990601884909],[11.252462284806786,33.29914325214584],[11.25236546086782,33.299145007481535],[11.252270728904291,33.299228071000805],[11.25217390485884,33.29922982619119],[11.252175996761382,33.299311134454314],[11.251982348465907,33.29931464461984],[11.25188761594744,33.299397707867705],[11.25140976820199,33.2996504065213],[11.25112347639261,33.29981828654481],[11.250647714593741,33.30015229076858],[11.250552979889056,33.300235353079174],[11.25045824500498,33.30031841532401],[11.250361419634046,33.30032016915281],[11.250266684472491,33.300403231261946],[11.250075123556046,33.30048804691883],[11.249980387937619,33.3005711088265],[11.24988356225565,33.30057286229468],[11.249786736565296,33.3005746156875],[11.2496920005713,33.30065767738949],[11.249595174774475,33.30065943063698],[11.249310965421854,33.30090861513854],[11.249119402414633,33.3009934293998],[11.24892783902346,33.301078243380026],[11.248833101658823,33.30116130447757],[11.248736275248334,33.30116305707917],[11.248738364114786,33.30124436550936],[11.248546799784686,33.30132917893705],[11.248452061783759,33.30141223976736],[11.248357323603429,33.301495300531904],[11.24826049679222,33.301497052778274],[11.24816366997263,33.301498804949276],[11.248165758334402,33.30158011340707],[11.248068931416727,33.30158186550812],[11.24797419268142,33.30166492600119],[11.247782643064209,33.30174973801714],[11.247689975399062,33.3019141070858],[11.247498424949429,33.30199891869457],[11.247403668799226,33.30208197908586],[11.247022637134137,33.3023329099976],[11.246355275968968,33.3027517098612],[11.24587947943305,33.30308569020904],[11.245687908146405,33.30317049948762],[11.245593165413775,33.30325355831115],[11.245595251529416,33.30333486688959],[11.245498422501726,33.30333661706891],[11.24550050853603,33.30341792565155],[11.245405765363222,33.303500984347735],[11.245308936139365,33.30350273438708],[11.24521419268905,33.303585792947494],[11.24511736335874,33.3035875428415],[11.245022619630916,33.30367060126613],[11.245024705250145,33.303751909870975],[11.244929961261557,33.303834968234035],[11.244835216916778,33.30391801963958],[11.24473838719414,33.303919769253625],[11.244641557463131,33.30392151879232],[11.244546813096273,33.30400458377555],[11.244452068196498,33.30408763490956],[11.244357323470767,33.30417069976123],[11.244260493437135,33.30417244901457],[11.244163663395135,33.30417419819255],[11.243972087791926,33.3042589980876],[11.243877342236358,33.304342055705995],[11.243780511981468,33.304343804593245],[11.243685766325063,33.30442686896759],[11.243591020135872,33.30450991949266],[11.243689935033835,33.30458947941375],[11.24369201948911,33.30467078808093],[11.243595188858619,33.30467253683896],[11.243498358219764,33.304674285521614],[11.243401527572543,33.30467603412892],[11.243306781021728,33.30475909134833],[11.243308865134862,33.304840400034664],[11.243212034291478,33.30484214850197],[11.24321411832326,33.304923457192494],[11.243216202363408,33.30500476588184],[11.24311937133222,33.30500651428452],[11.243121455291016,33.305087822978074],[11.243024624161743,33.30508957131077],[11.242927793024107,33.305091319568085],[11.24283304557611,33.305174376458524],[11.24273829794867,33.30525743328316],[11.242641466606507,33.30525918132512],[11.242544635255982,33.305260929291705],[11.242447803897099,33.3052626771829],[11.24244988725294,33.305343985910554],[11.242353055795972,33.30534573373176],[11.242258307515405,33.305428790214805],[11.242163559055397,33.30551184663206],[11.242066727393905,33.305513594237894],[11.241969895724054,33.305515341768356],[11.241873064045844,33.30551708922344],[11.241778315112148,33.3056001453649],[11.24178039787338,33.30568145412544],[11.241683565999008,33.30568320144053],[11.241494067234395,33.3058493133944],[11.241399317582921,33.30593236927262],[11.241302485405946,33.30593411630233],[11.241207735476944,33.30601717204474],[11.241113001789111,33.30610022742512],[11.241016152987003,33.306101974535665],[11.24082458653373,33.306186776449216],[11.240729835870235,33.3062698318542],[11.240633003275873,33.30627157837779],[11.240536170673156,33.306273324825995],[11.24044141963405,33.30635638002516],[11.240346668415498,33.30643943515849],[11.240251917017492,33.30652249022603],[11.240253998435072,33.30660379905955],[11.240157165440033,33.30660554522775],[11.240062413683122,33.306688600163646],[11.240064494937958,33.30676990900557],[11.239967661746757,33.30677165503373],[11.239870828547204,33.30677340098653],[11.239776076333305,33.306856455720784],[11.23967924302732,33.306858201528186],[11.2394855763903,33.30686169291687],[11.239388743059264,33.30686343849813],[11.23919923730846,33.30702954720912],[11.23900765053025,33.30711434676173],[11.238912897108122,33.30719740088266],[11.238816063368075,33.30719914603312],[11.238624475821936,33.307283945023286],[11.238336053930588,33.30737048851653],[11.238144465510102,33.30745528679883],[11.237952876705652,33.307540084799896],[11.237856042523216,33.307541829218025],[11.237759208332436,33.30754357356079],[11.237662374133313,33.30754531782815],[11.237565539925845,33.30754706202015],[11.237468705710036,33.30754880613676],[11.237470784625643,33.3076301151118],[11.237373950311754,33.307631859158384],[11.23727711598953,33.307633603129595],[11.237182360313708,33.30771665601538],[11.237085525885064,33.307718399841185],[11.237087604458424,33.307799708835326],[11.236990769931706,33.307801452591114],[11.236893935396644,33.30780319627153],[11.236799179165745,33.30788624888561],[11.23670234452427,33.30788799242061],[11.236605509874453,33.30788973588025],[11.236508675216298,33.3078914792645],[11.23641391833558,33.30797452471093],[11.236319161627653,33.308057583875026],[11.236222326765011,33.30805932704384],[11.236127569427305,33.30814237228856],[11.23612964714503,33.30822368133044],[11.236032812086247,33.30822542435921],[11.235938054565718,33.30830847636401],[11.235841219400527,33.30831021924739],[11.235744384226996,33.308311962055384],[11.235552791050909,33.30839675651689],[11.235455955762633,33.30839849910409],[11.235264362272229,33.30848330003067],[11.235167526869203,33.30848504239708],[11.23507276804579,33.30856808689244],[11.234879113439758,33.30857157096364],[11.234782261492517,33.30857331332928],[11.234685442379247,33.30857505502874],[11.234590683160123,33.30865810606994],[11.234493831098128,33.30865984821476],[11.23439908802263,33.30874289882471],[11.234302252275405,33.30874464052874],[11.23420749250119,33.30882769129817],[11.234110656647562,33.308829432856804],[11.233916984915314,33.30883291574789],[11.233822224667417,33.308915966241386],[11.23372538869073,33.308917707503824],[11.23362855270571,33.30891944869088],[11.233531716712365,33.30892118980253],[11.233434880710691,33.30892293083882],[11.233340119891041,33.30900598098635],[11.233243283782972,33.30900772187722],[11.233148522685775,33.309090771888854],[11.233053761409103,33.30917382183464],[11.23295692509657,33.309175562510056],[11.23286216336649,33.30925860542817],[11.232765326947572,33.309260345958165],[11.232668490520327,33.309262086412765],[11.232573728766335,33.30934514290852],[11.232575803280403,33.309426452132094],[11.232478966657016,33.30942819244663],[11.232481040913843,33.30950949478258],[11.232384204192394,33.30951123502709],[11.232287367462625,33.30951297519622],[11.23219260507209,33.30959603142435],[11.232095768235922,33.30959777144804],[11.231998931391429,33.309599511396335],[11.23190416827368,33.30968255363497],[11.231807331322806,33.30968429343787],[11.231615731046034,33.309769082089836],[11.231518893980454,33.3097708216719],[11.231424130385328,33.309853870460465],[11.231327293213358,33.30985560989712],[11.23123252934068,33.309938658549775],[11.231135692062328,33.309940397841],[11.231040927912098,33.31002344635775],[11.230944090527357,33.31002518550353],[11.230752488608454,33.31010997288474],[11.230657723903116,33.31019302112966],[11.230560886305613,33.310194759984604],[11.230466121322724,33.310277808093616],[11.230369283618835,33.31027954680311],[11.230272445906632,33.31028128543721],[11.230177680548124,33.310364333340296],[11.230080842729542,33.310366071828945],[11.229984004902642,33.310367810242234],[11.22998607709348,33.3104491195961],[11.229889239168516,33.31045085793933],[11.2297944732549,33.310533905570566],[11.22969763522356,33.31053564376837],[11.229600797183902,33.310537381890775],[11.229506030894669,33.31062042931603],[11.229409192748637,33.31062216729302],[11.229312354594294,33.310623905194596],[11.229217587929437,33.31070695241388],[11.229120749668718,33.310708690170024],[11.229025982726307,33.31079173725339],[11.228832305983808,33.310795212399405],[11.228834377139245,33.31087652181152],[11.228642771168255,33.310961306088295],[11.228545932588416,33.31096304340812],[11.228449110421938,33.31096478035797],[11.228354326127121,33.311047827258065],[11.228259558074482,33.3111308737977],[11.228065880481013,33.31113434778022],[11.22787428956722,33.311219130627435],[11.227779520861414,33.311302176825166],[11.227682681847792,33.31130391348783],[11.227491073744439,33.31138869606685],[11.227396304483513,33.311471741992676],[11.227299465257158,33.31147347836446],[11.22720469571867,33.31155652415435],[11.227107856385949,33.31155826038068],[11.227013086569903,33.311641306034616],[11.226916247130818,33.31164304211551],[11.226819407683431,33.311644778121],[11.226722568227741,33.3116465140511],[11.226625728763745,33.3116482499058],[11.226528889291448,33.311649985685115],[11.226432049810848,33.31165172138902],[11.226335210321942,33.311653457017535],[11.226238370824737,33.31165519257067],[11.226048829085206,33.31182128255996],[11.226050897737556,33.311902592112816],[11.225954057946183,33.31190432745577],[11.225857218146505,33.31190606272333],[11.22576244672992,33.31198910748317],[11.225667675133824,33.312072152177116],[11.225570835129734,33.31207388722916],[11.225379223145634,33.312158666693726],[11.225282383026892,33.31216040152492],[11.225187610777612,33.31224344587689],[11.225090770552516,33.31224518056263],[11.22499599802567,33.312328224778604],[11.224899157694223,33.31232995931889],[11.224802317354477,33.31233169378377],[11.224707544452015,33.31241473779372],[11.224610704005917,33.312416472113156],[11.224612771370035,33.3124977817378],[11.224517998108544,33.31258082561594],[11.224421157466342,33.31258255979523],[11.224326383927282,33.31266560353741],[11.224229543178728,33.312667337571234],[11.224134769362102,33.312750381177445],[11.223943154413005,33.31283515853603],[11.223848380139293,33.31291820194035],[11.22375153907999,33.312919935613195],[11.223557856936505,33.312923402732665],[11.223463082189117,33.31300644586087],[11.22326939981636,33.31300991253862],[11.223174624693348,33.31309295546077],[11.222980942091318,33.313096421696784],[11.22298300782079,33.31317772451082],[11.222888232415794,33.313260774122895],[11.222791390914532,33.313262507063065],[11.222694549404979,33.313264239927825],[11.222597707887138,33.313265972717204],[11.222502931833363,33.31334901516132],[11.22240609020918,33.31335074780521],[11.222309248576712,33.313352480373716],[11.222311313877832,33.31343379011334],[11.22221653736696,33.313516832355546],[11.22211969553839,33.31351856478389],[11.222022853701533,33.313520297136854],[11.221928076640012,33.313603332281176],[11.221831234696824,33.31360506448865],[11.221734409167592,33.313606796327],[11.221639615658242,33.313689845342616],[11.221542790022687,33.31369157703552],[11.221544854463875,33.313772879921224],[11.22144801230802,33.31377461183778],[11.22145007684273,33.31385592161946],[11.221256392326634,33.31385938523699],[11.221161614329864,33.313942426729135],[11.22106477196134,33.31394415835472],[11.220969993686992,33.31402719971086],[11.220873151212137,33.31402893119098],[11.220681530079025,33.31411370374574],[11.220584687489557,33.314115435004965],[11.220489908562007,33.314198476019016],[11.22039306586621,33.314200207132764],[11.220296223162132,33.31420193817111],[11.220199380449774,33.314203669134045],[11.220102537729137,33.31420540002158],[11.220005695000214,33.31420713083371],[11.219908852263018,33.314208861570435],[11.219814072567653,33.314291902098084],[11.219719292692758,33.31437494255978],[11.21962244975119,33.31437667308095],[11.219527669598719,33.314459713406634],[11.219430826550825,33.31446144378232],[11.219336046120775,33.314544483971986],[11.219239202966557,33.314546214202174],[11.219142359804065,33.31454794435696],[11.218948673454253,33.31455140444033],[11.21885183026693,33.31455313436891],[11.218757049167124,33.31463617414222],[11.21866226788778,33.31471921384959],[11.218565424496097,33.3147209435626],[11.218468581096138,33.314722673200194],[11.218373799441173,33.31480571270146],[11.218276955934895,33.314807442193555],[11.21818217400235,33.31489048155879],[11.218085330389759,33.3148922109054],[11.217988486768895,33.31489394017662],[11.217893704460726,33.314976979335725],[11.217605234314304,33.315063476464736],[11.217221980149471,33.31523300473489],[11.216933516803827,33.31531950710721],[11.21664504446744,33.315406002086306],[11.216356571526276,33.31549249641746],[11.216164942484765,33.31557726229503],[11.215971253467664,33.31558071783087],[11.2157796236551,33.315665476244035],[11.21558593439235,33.31566893118723],[11.215392245096545,33.3156723858288],[11.215103770057368,33.315758884224266],[11.214815294064445,33.31584536818804],[11.214621604277355,33.31584882164432],[11.214429972637323,33.31593358494061],[11.214333127625093,33.315935311410136],[11.214238340613411,33.31601834795532],[11.21414149549489,33.316020074279336],[11.214046708205624,33.316103110688466],[11.213949862980808,33.31610483686697],[11.213853017747734,33.316106562970056],[11.213756172506404,33.31610828899774],[11.213659327256815,33.316110014950006],[11.213562490210371,33.31611174068054],[11.213564547607275,33.31619305086644],[11.213467694039988,33.31619477681953],[11.213370856887266,33.316196502404566],[11.213276068650707,33.31627953826114],[11.213179214968868,33.3162812639933],[11.213082377701612,33.31628298935742],[11.212985532214681,33.316284714792445],[11.2128886867195,33.316286440152055],[11.212791841216061,33.316288165436255],[11.212694995704371,33.31628989064505],[11.21259815018443,33.31629161577843],[11.21260020670007,33.31637292601505],[11.212505417516217,33.31645596131906],[11.21241062815281,33.31653899655709],[11.212313782338773,33.316540721480166],[11.212216936516487,33.316542446327816],[11.21212009068595,33.316544171100055],[11.212023244847162,33.31654589579689],[11.211926399000122,33.31654762041831],[11.211831608967008,33.31663065523984],[11.211732707281294,33.31655106943493],[11.211635861409505,33.31655279383011],[11.211539015529468,33.31655451814989],[11.211444225104241,33.31663755269099],[11.211347379117926,33.31663927686524],[11.211250533123364,33.316641000964076],[11.211155742322527,33.31672403529898],[11.211157797532747,33.316805345609275],[11.211060951342128,33.316807069567886],[11.210964105143265,33.3168087934511],[11.210869313885285,33.31689182758392],[11.210772467580147,33.31689355132161],[11.210675621266763,33.31689527498389],[11.210677676044579,33.31697658531832],[11.210679730830645,33.31705789565159],[11.210582884329455,33.317059619249065],[11.210389191302335,33.317063066217756],[11.210292344776407,33.317064789589],[11.210294399211595,33.31714609994227],[11.210197560799159,33.31714782309729],[11.210100705955446,33.3171495464691],[11.210003867526524,33.31715126947329],[11.209909074962153,33.31723430292147],[11.209812228215446,33.317236025926256],[11.209717435373488,33.31731905923834],[11.209624696191666,33.31748340287008],[11.20952784915088,33.31748512566452],[11.209431002101855,33.317486848383524],[11.209334155044589,33.31748857102713],[11.20923936146789,33.317571604001],[11.209142514304359,33.317573326499065],[11.209045667132585,33.31757504892172],[11.20904772045007,33.31765635933681],[11.208950873180273,33.31765808168936],[11.208854025902237,33.31765980396647],[11.208759231672335,33.31774283659799],[11.208662384288035,33.31774455872957],[11.208567589780541,33.31782759122498],[11.208470742289979,33.31782931321104],[11.208373894791183,33.31783103512168],[11.208277047284149,33.317832756956896],[11.208182252303017,33.31791578917595],[11.208085404689719,33.31791751086562],[11.207990609430999,33.31800054294854],[11.207893761711444,33.3180022644927],[11.207796913983657,33.31800398596142],[11.207700066247634,33.318005707354736],[11.207603218503374,33.318007428672644],[11.207605270341345,33.3180887322694],[11.207508422499073,33.31809045351718],[11.207510474603344,33.31817177090184],[11.207413626663044,33.31817349207949],[11.207316778714507,33.31817521318173],[11.207318830299611,33.31825651679201],[11.207221982253063,33.318258237824125],[11.20712514240992,33.318259958634926],[11.207026234819503,33.31818037603595],[11.206929386838038,33.31818209683653],[11.206832547059973,33.318183817415786],[11.206737741896832,33.318266841853465],[11.206544053908361,33.31827028279139],[11.206546105131158,33.31835160022663],[11.20644925692896,33.3183533206607],[11.206255560499875,33.3183567613026],[11.206160762971017,33.31843979207376],[11.206065965088772,33.318522815887],[11.205874318853633,33.318607573415456],[11.205777470324463,33.31860929333748],[11.205585823251655,33.31869403665492],[11.205488974608018,33.318695756355964],[11.205295277296072,33.318699195531835],[11.205198428627757,33.318700915006644],[11.205101579951217,33.31870263440603],[11.204909932137147,33.318787383605915],[11.204813083346142,33.318789102784336],[11.204716234546913,33.31879082188733],[11.20461938573946,33.3187925409149],[11.204425688099882,33.31879597874381],[11.204328839267761,33.318797697545136],[11.204231990427415,33.31879941627104],[11.20413719043243,33.31888244559001],[11.204040341485848,33.31888416417037],[11.203943500742763,33.318885882529585],[11.203846643568026,33.318887601104805],[11.203749802808497,33.318889319313215],[11.203652945617318,33.318891037737586],[11.203461304078722,33.3189757846273],[11.203364446773083,33.318977502830684],[11.20326965394459,33.31906053138099],[11.203174852724784,33.31914356001095],[11.203080051325399,33.31922658857487],[11.202983201929236,33.31922830634675],[11.202791550749863,33.319313052400815],[11.202696748795288,33.31939608069241],[11.202599899186668,33.31939779817318],[11.2025050969545,33.31948082632858],[11.202408247239651,33.31948254366378],[11.202313444729889,33.319565571683015],[11.202218642040538,33.319648599636224],[11.202123839171598,33.31973162752339],[11.202026989154508,33.31973334457275],[11.2019301391292,33.31973506154667],[11.201835335884653,33.31981808922753],[11.201740532460517,33.319901116842345],[11.201645728856793,33.3199841443911],[11.201548878529245,33.31998586107919],[11.201550925073478,33.32006717187383],[11.20145407464792,33.32006888849177],[11.20135722421415,33.32007060503428],[11.201359270587005,33.32015191583831],[11.201264466346498,33.32023494311881],[11.201167615716706,33.320236659521036],[11.201070765078708,33.32023837584785],[11.201072811198598,33.32031968666535],[11.200978006500893,33.32040271374363],[11.200980052547413,33.320484024564045],[11.20088524758853,33.320567051580376],[11.200788396566702,33.320568767702035],[11.200596748414064,33.320653510412754],[11.20049988906591,33.320655226458896],[11.20050193468807,33.320736537302174],[11.20030824042324,33.32073996874229],[11.200310285874016,33.32082127959495],[11.200213434533538,33.3208229952799],[11.200116583184847,33.3208247108894],[11.200021776844185,33.320907730398886],[11.199828073926184,33.32091116125134],[11.199830119117715,33.320992479019935],[11.199735312319866,33.321075498327176],[11.19954160899342,33.32107892874816],[11.199446801993293,33.32116195474095],[11.199349950219755,33.32116366976816],[11.199255142942016,33.32124669562475],[11.199158291062266,33.32124841050638],[11.198871823861262,33.32141618343889],[11.198680163485259,33.32150091658539],[11.198486459080298,33.321504345399745],[11.198294798281323,33.3215890848652],[11.198199989517523,33.321672109970585],[11.198103137098528,33.321673824048865],[11.198006284671333,33.321675538051714],[11.197909432235939,33.32167725197916],[11.197812579792343,33.32167896583116],[11.197618874880558,33.321682393308876],[11.197522030624379,33.32168410678932],[11.197423127097231,33.321604509485795],[11.197326274702451,33.321606222955396],[11.197324231961709,33.321524911949865],[11.1971264422295,33.32136571661653],[11.196928661427709,33.32120652078938],[11.19683180944097,33.32120823385551],[11.196732915285107,33.32112863580316],[11.19663606337178,33.32113034871314],[11.196539211450258,33.32113206154772],[11.196442359520542,33.32113377430686],[11.196345507582635,33.32113548699056],[11.196151803682234,33.32113891213171],[11.196054951719749,33.32114062458914],[11.195960141191566,33.32122364805631],[11.19586328912289,33.32122536036816],[11.195766437046023,33.321227072604586],[11.195669584960964,33.321228784765566],[11.195671626142246,33.32131009586537],[11.195576815058866,33.32139311906007],[11.195479962777817,33.321394831080745],[11.195381069568514,33.32131523191157],[11.195383110488578,33.321396543025976],[11.195288299202582,33.321479572906235],[11.195193487391018,33.321562588936516],[11.19519552815605,33.32164390005794],[11.195197568929277,33.32172521117818],[11.195104797647664,33.32188954516567],[11.19510683835566,33.32197085628763],[11.195014066665976,33.32213519021895],[11.195016107308744,33.322216501342666],[11.1950181479597,33.32229781246519],[11.195020188618852,33.32237912358655],[11.195119082775683,33.32245872299476],[11.195213895410022,33.32237570009772],[11.195312789730096,33.32245529934454],[11.195217977112138,33.32253832231584],[11.195121123541028,33.3225400341085],[11.195026310645456,33.32262305694355],[11.195028351337374,33.32270436806018],[11.194931497570268,33.3227060797125],[11.194933538180567,33.32278739083324],[11.194838724844143,33.322870413540215],[11.194743911328096,33.322953436181116],[11.194647057266987,33.322955147622935],[11.194550203197693,33.32295685898932],[11.194453349120213,33.322958570280264],[11.194358535130549,33.32304159264458],[11.194261680946882,33.32304330378993],[11.194166874891764,33.3231263258729],[11.194070012389746,33.323128037017725],[11.194067972554986,33.32304672585433],[11.193969078610005,33.32296712560354],[11.193967038881437,33.32288581443253],[11.193964999161057,33.32280450326034],[11.193962959448866,33.32272319208698],[11.193866113803832,33.32272490276449],[11.19386407418963,33.32264359158469],[11.193765172685778,33.322563991285385],[11.193763133177772,33.32248268009798],[11.193761093677953,33.32240136890939],[11.193662208973931,33.32232176821997],[11.193563316237434,33.32224216758849],[11.193464423680558,33.32216256686987],[11.1933655313033,33.32208296606412],[11.193169785999501,33.32200507541847],[11.193072932885158,33.32200678559025],[11.192877187989493,33.32192889446454],[11.192485699202244,33.32177311124131],[11.19209421175377,33.3216173267224],[11.191995321377952,33.32153773163392],[11.19179957824428,33.32145983182882],[11.19170272564408,33.321461540907784],[11.191605873035702,33.32146324991133],[11.191509020419147,33.32146495883943],[11.191414205213334,33.32154798591298],[11.191317352490616,33.321549694695484],[11.191222536661865,33.32163270784885],[11.191125683832999,33.32163441648575],[11.191030867899329,33.321717436394806],[11.190837162021111,33.32172085330197],[11.190740317281799,33.32172256149758],[11.190643456110204,33.321724269907435],[11.190546611354545,33.32172597795218],[11.190449758378664,33.32172768606634],[11.19045179475137,33.321808997444265],[11.190354933465445,33.32181070563306],[11.190258088595472,33.32181241345679],[11.190161235505268,33.321814121349924],[11.190064382406891,33.32181582916761],[11.18996956523219,33.32189884831289],[11.189872712027666,33.321900555984975],[11.189775858814974,33.32190226358163],[11.18967900559411,33.32190397110285],[11.189582152365078,33.32190567854863],[11.189487334618853,33.32198869734709],[11.189390481283676,33.32199040464728],[11.18929566325986,33.32207342330944],[11.18919880981854,33.32207513046402],[11.18920084505643,33.32215644190551],[11.189103991517134,33.32215814898991],[11.189009173036109,33.32224116744969],[11.18891435437547,33.32232418584334],[11.18872268169382,33.32240891096932],[11.188528973986541,33.32241232433986],[11.188434154672738,33.32249534239075],[11.188337300708874,33.3224970488927],[11.188240446736847,33.32249875531921],[11.1880467387683,33.32250216794591],[11.18795191888298,33.32258518564996],[11.18785709881804,33.3226682032879],[11.187760244625572,33.32266990934773],[11.187665424283034,33.32275292684937],[11.187473749364301,33.322837650128925],[11.187280040546671,33.32284106159069],[11.187088373244125,33.322925784152446],[11.186894664181589,33.322929195021246],[11.186414456820666,33.32310034403576],[11.186317602056745,33.323102048990314],[11.186220747284667,33.323103753869454],[11.186125924966323,33.323186770268414],[11.185934247492176,33.32327149126457],[11.18583942471661,33.3233545074611],[11.185744601761412,33.323437523591494],[11.185550891392714,33.323440932411046],[11.185456068061947,33.32352394833494],[11.185361244551553,33.323606964192685],[11.185072709872395,33.32369338808095],[11.184975854365598,33.32369509201611],[11.184782143327553,33.323698499660125],[11.184685287796304,33.323700203368986],[11.184588432256904,33.32370190700241],[11.184394721153653,33.32370531404293],[11.184297865589802,33.32370701745005],[11.184203040740462,33.323790032473575],[11.184108215539366,33.323873040538984],[11.183916534636978,33.323957765443296],[11.183724861218975,33.32404247613729],[11.183149814542086,33.32429662763654],[11.182958131549027,33.324381344238994],[11.18286330467482,33.324464358312206],[11.182768477620971,33.32454737231927],[11.182673650387486,33.32463038626021],[11.182578822974357,33.32471340013499],[11.182387138487162,33.324798115910056],[11.18219545361625,33.32488283140314],[11.182100625468264,33.32496584493905],[11.181908939936028,33.32505056001377],[11.18181411133079,33.3251335733472],[11.181719282545902,33.32521658661447],[11.181626482033659,33.325380911626475],[11.181531652807799,33.325463924765494],[11.181440880004557,33.32570956147282],[11.181442908317907,33.32579087328829],[11.1814449366394,33.325872185102575],[11.18145102165273,33.32611612053839],[11.181453050006793,33.32619743234798],[11.181553965249954,33.32635834776018],[11.181555993890209,33.32643966645301],[11.18165285265444,33.326437965060904],[11.181749711410532,33.32643626359335],[11.181848598904438,33.32651587383431],[11.181947486406044,33.32659547709617],[11.181949515430084,33.326676795764534],[11.182048403209322,33.326756398932915],[11.182147291340193,33.3268360089062],[11.182244150504726,33.326834307035256],[11.182341009661116,33.32683260508885],[11.182343038896954,33.32691391684076],[11.18214932039637,33.32691732066857],[11.181957630747869,33.32700203596627],[11.181860771379245,33.327003737621354],[11.181763912002483,33.32700543920098],[11.181667052617579,33.32700714070517],[11.181570193224534,33.32700884213391],[11.18147333382335,33.327010543487205],[11.181281643260528,33.32709525777457],[11.181186820139988,33.327178270573704],[11.181089952313963,33.327179971779906],[11.180995128915793,33.327262984442676],[11.180898260983648,33.3272646855032],[11.18080140125599,33.32726638634407],[11.18079937342491,33.32718507451314],[11.180894205149954,33.32710206185064],[11.180892177245319,33.3270207500226],[11.180795317787164,33.32702245084776],[11.180698466533478,33.32702415145328],[11.180504747576483,33.3270275527264],[11.18040991554126,33.327110565103986],[11.18031305595259,33.327112265557155],[11.180216196355785,33.32711396593489],[11.180117309564867,33.327034354367285],[11.180020450041626,33.32703605458887],[11.179923590510251,33.32703775473504],[11.179828757887215,33.32712076669131],[11.179635038604127,33.327124166616855],[11.17963706534907,33.327205478511694],[11.179540205605493,33.32720717836652],[11.179445372427194,33.32729019005003],[11.17935053906923,33.32737320166737],[11.179255705531599,33.32745621321854],[11.179061985432247,33.32745961228053],[11.178967151519014,33.327542623625085],[11.178870291359175,33.32754432297268],[11.178872317426112,33.32762563490347],[11.178775457168307,33.32762733418084],[11.178680622797772,33.32771034532284],[11.17858376243387,33.32771204445454],[11.178486902061843,33.3277137435108],[11.178392067315704,33.32779675444616],[11.178297232389895,33.32787976531536],[11.178202397284414,33.32796277611838],[11.178107561999258,33.32804578685523],[11.177915865664447,33.328130496155566],[11.177532480056367,33.32829991376602],[11.177243921373986,33.32838632033734],[11.176666802197131,33.32855913153324],[11.176475103241684,33.32864383870402],[11.17647712716834,33.32872515075011],[11.176380265539485,33.328726848209136],[11.17628340390251,33.32872854559271],[11.176186542257414,33.328730242900825],[11.176089680604196,33.32873194013349],[11.17599484242843,33.328814949361714],[11.175900004072982,33.32889795852374],[11.175805165537852,33.32898096761959],[11.175708303582631,33.32898266456611],[11.175611441619287,33.32898436143717],[11.175516602708552,33.32906737032635],[11.17541974063913,33.329069067051734],[11.175322878561593,33.329070763701644],[11.175226016475936,33.32907246027611],[11.175129154382162,33.32907415677513],[11.17503431472846,33.32915715842514],[11.174937452528617,33.32915885477848],[11.174840590320661,33.32916055105634],[11.174743728104586,33.32916224725876],[11.174745750634214,33.329243566283736],[11.174650910425251,33.3293265676609],[11.174652932709858,33.329407879796726],[11.174558092582298,33.32949089489578],[11.174560114621894,33.32957220014245],[11.174463260145128,33.32957389600079],[11.17436638923449,33.32957559207127],[11.174269534741498,33.3295772877787],[11.174172672027513,33.329578983554484],[11.17417469388725,33.329660295712856],[11.174176715755104,33.32974160787007],[11.174275600614598,33.329821224234685],[11.174277622588534,33.329902536384324],[11.174279644570586,33.3299838485328],[11.17428368855904,33.33014647282621],[11.174188847132676,33.33022948078865],[11.174190869057348,33.33031079293763],[11.174192890990136,33.33039210508545],[11.174098049220614,33.33047511298976],[11.17409602736956,33.33039380083792],[11.17399916374087,33.33039549651492],[11.173902300104064,33.33039719211647],[11.173807458040656,33.330480199810054],[11.173710594297777,33.330481895265905],[11.173712615797546,33.33056320743743],[11.173714637305432,33.330644519607795],[11.173621816235157,33.330808839346226],[11.173623837677537,33.330890151518275],[11.17353101619858,33.331054471200275],[11.173533037575451,33.331135783374016],[11.173442236999168,33.331381415174995],[11.173446279646235,33.331544039522335],[11.173351435948678,33.331627046921234],[11.173254570907305,33.331628742072766],[11.173256591900099,33.33171004736188],[11.173258613243636,33.331791366433904],[11.173260634252657,33.331872671720674],[11.173163768933614,33.33187436681239],[11.173165790203516,33.331955685887266],[11.173068924786497,33.331957380908726],[11.173070945632047,33.33203868620358],[11.173169832253734,33.33211830335739],[11.173171853376667,33.3321996155367],[11.173173874507714,33.33228092771484],[11.173079029780576,33.332363934939345],[11.173081050837991,33.332445247120354],[11.173085092977164,33.332607871478835],[11.173087114058921,33.33268918365633],[11.173091156246773,33.33285180800777],[11.173097219589406,33.33309574452611],[11.173099240719843,33.33317705669654],[11.173198128713162,33.33325667376093],[11.17320014994969,33.333337985923805],[11.17320217119433,33.3334192980855],[11.173204192447088,33.33350061024603],[11.173206213707958,33.33358192240537],[11.173305102272916,33.33366153935716],[11.173406012482548,33.333822468367266],[11.173408033955607,33.333903780511484],[11.17350692307599,33.33398339727635],[11.173512987837798,33.33422733368281],[11.173517030881563,33.33438995105588],[11.173519052672646,33.334471270078694],[11.17352107412914,33.33455257531629],[11.173621985849078,33.3347135040714],[11.173624007591139,33.33479481619228],[11.173628051099612,33.3349574404305],[11.17363209464055,33.335120064664025],[11.173634116423193,33.335201376779025],[11.17373300727483,33.33528099328032],[11.173737051060442,33.335443617494],[11.173835942287802,33.33552323389545],[11.17393887790495,33.33576547439325],[11.17413868396356,33.33600601881237],[11.174237576203899,33.336085634846334],[11.174336468623988,33.336165250793215],[11.174433338616671,33.336163554595004],[11.17443536122383,33.33624486665301],[11.174338491141272,33.33624656285643],[11.174340513666678,33.336327874918474],[11.174245665929774,33.33641088311774],[11.174150818013121,33.33649389125077],[11.174053947636589,33.33649558724341],[11.17405596991672,33.3365768993176],[11.17405799220497,33.33665821139059],[11.173963143847057,33.33674121939523],[11.173965165890262,33.336822524579055],[11.173868295137998,33.33682422044161],[11.17387031744224,33.336905539413536],[11.17377546864306,33.33698854728977],[11.173678597694801,33.3369902430118],[11.1735837484465,33.33707324385953],[11.173488899361192,33.337156258425075],[11.17349092099562,33.33723756362911],[11.173492942980905,33.33731888261602],[11.173396071648787,33.33732057813247],[11.17329717850305,33.33724095457612],[11.173204350341257,33.33740527415627],[11.173016671607055,33.33765260102354],[11.17301869301214,33.337733913138614],[11.173020714425338,33.337815225252506],[11.173022735846653,33.33789653736524],[11.17302475727608,33.33797784947678],[11.17302880015928,33.33814047369637],[11.17313173707798,33.3383827147346],[11.173232652926798,33.338543643563796],[11.173236696283151,33.33870626774607],[11.173337612728103,33.3388671964591],[11.173339634524574,33.3389485085409],[11.173438529556956,33.33902812507109],[11.173442573370254,33.33919074921841],[11.173446617216019,33.339353373361035],[11.173448639151077,33.33943468543058],[11.173450660922871,33.33951599060694],[11.17345470483357,33.33967861474017],[11.173456726801094,33.33975992680503],[11.173460770760494,33.3399225509312],[11.173462792923754,33.340003869884555],[11.173464814752363,33.34008517505268],[11.173561689140612,33.34008347935896],[11.173563711238614,33.34016479141272],[11.173662607904658,33.34024440768569],[11.173664630108787,33.34032571973188],[11.173763527052634,33.34040533591137],[11.17386242417627,33.34048495200376],[11.173864446584544,33.340566264036006],[11.173866469000938,33.34064757606708],[11.17376959400777,33.34064927202375],[11.173674741251208,33.340732279945264],[11.17357988831486,33.34081528780053],[11.173386137912143,33.34081867920634],[11.17328724080536,33.340739062736],[11.173190365673614,33.34074075824496],[11.173093490533754,33.34074245367845],[11.172996615385784,33.340744149036446],[11.17290176176337,33.340827156399804],[11.172806907961167,33.34091016369692],[11.172808929421171,33.34099147578065],[11.17281095088929,33.34107278786319],[11.172812972365522,33.34115409994455],[11.172817015342332,33.34131672410378],[11.17281903684291,33.341398036181616],[11.172821058351603,33.34147934825828],[11.172724182370217,33.34148104343672],[11.172631349062852,33.34164536271034],[11.172441639054918,33.34181137689743],[11.172346783781252,33.34189438389161],[11.172251928327789,33.34197739081956],[11.172157072694528,33.34206039768125],[11.172062216881464,33.3421434044767],[11.17196534011599,33.34214509909291],[11.171870483853843,33.34222809885982],[11.17187250471593,33.34230941786887],[11.171777648192192,33.342392417573556],[11.17168279987403,33.342475423960366],[11.171587934947857,33.342558430568246],[11.171493078055981,33.34264143696622],[11.171495098427734,33.342722749098215],[11.171400249488395,33.34280575529033],[11.171402269786471,33.34288706742518],[11.171307404157247,33.34297007384237],[11.17130942438163,33.343051385980075],[11.171117697001828,33.34313608604707],[11.170927980913014,33.34330209813039],[11.170643405431198,33.34355111575847],[11.170360847737443,33.343881444968304],[11.170265988262626,33.34396445051708],[11.170171128607988,33.34404745599961],[11.170173147858875,33.34412876818454],[11.170175167117867,33.34421008036829],[11.170177186384965,33.34429139255087],[11.170080307119798,33.34429308579262],[11.16998544694191,33.34437609115068],[11.169890586584197,33.34445909644248],[11.169700865329306,33.344625106827294],[11.169606004432124,33.344708111920305],[11.16960802320837,33.34478942412707],[11.169610041992723,33.34487073633267],[11.169513162049553,33.344872429157846],[11.169323439192434,33.34503843902062],[11.169325457560257,33.34511974434626],[11.169230595780151,33.34520274918227],[11.169232614245354,33.345284061402815],[11.169236651200071,33.34544668584035],[11.169141788994688,33.345529690622186],[11.169046926609475,33.34561269533775],[11.168952064044426,33.34569569998705],[11.168857201299543,33.34577870457007],[11.168665457279765,33.345863401294935],[11.168570594077192,33.34594640567512],[11.168475730694785,33.34602940998902],[11.168477748521653,33.34611072223944],[11.168382893092062,33.34619372634764],[11.168384910845216,33.34627503860091],[11.168290038725008,33.34635804293379],[11.16819315704994,33.346359734795605],[11.168098301080851,33.346442738704994],[11.168102336104324,33.34660536323453],[11.168104353628209,33.346686675497516],[11.168203245078445,33.34676629609047],[11.168205262708444,33.34684760834593],[11.16820728034654,33.3469289206002],[11.168112423804734,33.34701192453779],[11.168015533179535,33.34701361643364],[11.167823793843109,33.34709831184127],[11.167728928531025,33.347181315649124],[11.167730945580923,33.34726262103269],[11.167636080178143,33.34734563167033],[11.167541214253568,33.34742862845762],[11.167446348491076,33.3475116389627],[11.167349465484211,33.34751333021778],[11.16725459927288,33.34759633369424],[11.167159732710761,33.34767933021238],[11.167161749611589,33.34776064940415],[11.16696999938885,33.34784533683387],[11.16687311598182,33.347847027732215],[11.166681365439924,33.34793172162574],[11.166683381744454,33.348013033947936],[11.166590530586774,33.348177349281436],[11.166495662936613,33.34826035222759],[11.166400795106595,33.34834335510748],[11.166305927096715,33.34842635792108],[11.166211058906978,33.34850936066837],[11.166116190537378,33.34859236334938],[11.165926453258596,33.34875836851253],[11.165734699766132,33.34884306104924],[11.165546976542666,33.349090378043286],[11.165262367117132,33.34933938449525],[11.164882893579739,33.34967139202648],[11.164596265864889,33.34983908467669],[11.1644065228233,33.35000508081821],[11.1644085373424,33.350086400127786],[11.16431366538458,33.3501693946571],[11.164220807610358,33.35033370843653],[11.164029048944066,33.35041839852333],[11.163839303750999,33.35058440076928],[11.163556698232032,33.350914716093406],[11.16336695107643,33.3510807176843],[11.163272077228802,33.35116371838027],[11.16308232899389,33.35132971957329],[11.162793679370777,33.35141609589502],[11.162700817482444,33.351580408674906],[11.16251307997183,33.35182772156079],[11.162129552250533,33.35199709653279],[11.161844923643475,33.352246095811324],[11.161750055296414,33.35232909529516],[11.161558289748077,33.35241378181077],[11.161463412728121,33.35249678123465],[11.161176769040074,33.352664466552],[11.160417742570973,33.35332845103932],[11.160227984197276,33.353494448220836],[11.1600362145458,33.35357913253138],[11.159751574802147,33.353828127396135],[11.15956181407349,33.35399412364095],[11.158419224496235,33.35482747004332],[11.157847917200312,33.35524413276741],[11.157563265779434,33.3554931230184],[11.157371489203264,33.35557781035687],[11.157181719963589,33.35574379636028],[11.156991950174415,33.35590978899036],[11.156707294141173,33.356158777437784],[11.156515515065074,33.35624345664458],[11.156327750244449,33.356490761105334],[11.15623286382043,33.35657375685633],[11.15613998438449,33.356738065315476],[11.156045097518682,33.35682106093775],[11.155857330177573,33.35706836476854],[11.155667555022543,33.3572343555565],[11.155380892635275,33.35740202829273],[11.155193113985943,33.35764933136501],[11.15500333631168,33.35781532122384],[11.15491046136942,33.35797962184314],[11.154817578045828,33.35814392943762],[11.154819584099197,33.35822524226342],[11.154724694556512,33.358308243864606],[11.154728706353534,33.35847086262861],[11.154633816297014,33.35855385727933],[11.154444035644106,33.35871984638166],[11.15425425427137,33.35888583521847],[11.154161368819095,33.35905014238757],[11.153969580862578,33.35913481797585],[11.153781802866543,33.359382119015116],[11.153594023830971,33.35962941980367],[11.153406243755839,33.35987672034146],[11.15331135093406,33.359959714074854],[11.153026671388908,33.360208694876704],[11.152838888506679,33.36045599464865],[11.152649100359618,33.36062198126038],[11.152267526062483,33.360872633726004],[11.1521726228651,33.360955626805165],[11.15188793684089,33.361204605216955],[11.151696150084508,33.36128927739872],[11.15150435472807,33.361373949440186],[11.151411461606465,33.36153825480261],[11.151219665415988,33.361622926433704],[11.150932971766087,33.36179058984368],[11.150934974484047,33.361871902829655],[11.150842079790806,33.36203620781761],[11.150749184761699,33.36220051274597],[11.150751187339862,33.362281825736396],[11.150656289396727,33.36236481761472],[11.150563393695883,33.36252912242387],[11.15047049765917,33.36269342717342],[11.150375599012133,33.36277641886051],[11.15018580117808,33.362942402035465],[11.149899101220443,33.36311006327586],[11.149707300065732,33.36319473274565],[11.149230801491681,33.36352837469538],[11.148942096541155,33.363614713903566],[11.148847195423983,33.363697704508155],[11.14885119727761,33.36386033065193],[11.148756295816487,33.36394332119804],[11.148758296673373,33.36402463427216],[11.148661394175356,33.36402631167776],[11.148566492354222,33.36410930209103],[11.148469589750144,33.36411097935066],[11.148275784517908,33.364114333643236],[11.148178881889752,33.36411601067619],[11.148081983361703,33.364117687562505],[11.147987076762266,33.36420067762844],[11.147793275377895,33.36420403110466],[11.147504562681716,33.364290374067636],[11.14731276057602,33.36437503994533],[11.147217857054537,33.36445802938888],[11.147120953978085,33.36445970561131],[11.146929146996058,33.36454437099449],[11.146353723745424,33.36479836544717],[11.145871208466993,33.36488805565249],[11.145584493484511,33.36505570745814],[11.145392683601761,33.36514037056969],[11.145200873334925,33.365225033398396],[11.144914155907982,33.36539268374173],[11.144817255757188,33.36539435813636],[11.144722348703127,33.36547734579695],[11.144530537005984,33.365562007640314],[11.144338724924754,33.36564666920085],[11.144050007776288,33.365733004360244],[11.14395509944081,33.36581598458126],[11.143860191263757,33.36589897852008],[11.143381654774185,33.366151286093974],[11.142903119395138,33.366403584959464],[11.142327671430971,33.36665756162069],[11.142040943563957,33.36682520569436],[11.141659306936079,33.36707583455653],[11.141374570609113,33.367324790605316],[11.140992925742058,33.36757541763265],[11.140803099347586,33.36774138745987],[11.140611278658486,33.36782604356362],[11.140419457585297,33.36791069938446],[11.140227640236356,33.36799535485156],[11.140035818394994,33.36808001010659],[11.139747088515666,33.36816633570895],[11.139555265800112,33.36825099025215],[11.13926454247246,33.36825600125145],[11.139072719054775,33.3683406550737],[11.138687079237219,33.36842864831733],[11.138398346713457,33.36851497087448],[11.138111608999738,33.36868260629084],[11.137919779172485,33.36876725158502],[11.137824865888618,33.36885023426256],[11.13772994831632,33.368933216944406],[11.137633039676375,33.36893488595826],[11.137441213080054,33.369019537371],[11.137346295120333,33.36910252667113],[11.137251376643102,33.36918550212046],[11.137156458154541,33.36926848439545],[11.136772802141207,33.369437785550474],[11.136389148699974,33.36960708550292],[11.136102399290026,33.369774716613854],[11.135720728062555,33.370025328355304],[11.135431987025177,33.370111644313056],[11.135143245383746,33.37019795962018],[11.134854503138271,33.37028427427667],[11.134660686598826,33.37028760778767],[11.134565764397223,33.3703705882119],[11.134369955567141,33.37029260759333],[11.13427304520729,33.37029427404404],[11.134176134839466,33.37029594041919],[11.134077236787514,33.3702162929452],[11.134075249119338,33.370134979170494],[11.134073261459141,33.3700536653946],[11.133976351345472,33.370055331603226],[11.133974363783292,33.36997401782104],[11.133877453751683,33.36997568394898],[11.133780543712101,33.369977350001335],[11.133778556337967,33.369896036207734],[11.133681646380447,33.369897702179394],[11.133582749228863,33.36981805427046],[11.133580762050752,33.36973674046429],[11.133483856365789,33.36973840620392],[11.133481869285685,33.36965709239146],[11.133384955465914,33.36965875819165],[11.133286062962975,33.36957910995115],[11.133189153325727,33.36958077552445],[11.132991360807317,33.36942147876234],[11.132892464818216,33.3693418302508],[11.132795555419182,33.36934349550644],[11.132696659692211,33.36926384682723],[11.13259776431366,33.36918420495321],[11.132500855070774,33.36918586997189],[11.132403945819917,33.36918753491499],[11.132307036561091,33.36918919978253],[11.132210127294298,33.369190864574485],[11.132208141272116,33.3691095437951],[11.132111232087395,33.36911120850637],[11.132012337228877,33.369031559243446],[11.13181852310807,33.36903488820731],[11.131622715440846,33.36895690308977],[11.13133199236798,33.36896189553524],[11.131136189367696,33.36888390955443],[11.13094237135523,33.36888723720804],[11.130843477943712,33.36880759385018],[11.130649660063517,33.36881092104014],[11.13055076665979,33.36873126364956],[11.130453857789824,33.3687329270505],[11.130354969092995,33.36865328320612],[11.13016114738491,33.368656609690404],[11.1300622588641,33.36857695870551],[11.129965346025994,33.36857862178886],[11.12986844139671,33.368580284655614],[11.129771532651075,33.36858194751731],[11.129674623897484,33.36858361030344],[11.129577715135932,33.368585273013984],[11.129478823097145,33.368505621609216],[11.12938191440971,33.3685072841635],[11.129285005714316,33.36850894664223],[11.129188097010964,33.36851060904537],[11.129186114019735,33.36842929498913],[11.129089205398458,33.36843095731158],[11.128992296769223,33.36843261955846],[11.128798479486887,33.368435943825524],[11.128699588300663,33.36835629176274],[11.128503788805551,33.368278301471776],[11.128406884417027,33.36827996318457],[11.128307989646693,33.36820031085693],[11.128211085332289,33.36820197241347],[11.128209103273177,33.36812065830147],[11.12811219493247,33.368122319847764],[11.128015282475435,33.36812398138893],[11.127916396446125,33.36804432858514],[11.127819488171593,33.36804598989962],[11.127720598296042,33.36796633699864],[11.127623690095632,33.367967998156864],[11.127526781887273,33.36796965923952],[11.127429873670964,33.36797132024661],[11.127427892355938,33.367890006090235],[11.127330984221706,33.367891667016636],[11.127232094952506,33.36781201369972],[11.127135186892401,33.36781367446988],[11.127036297885336,33.36773402098534],[11.126939394007723,33.36773568152884],[11.126937413166685,33.36765436734344],[11.126935432333598,33.36757305315687],[11.12683653967627,33.36749339956254],[11.126834558949115,33.36741208536852],[11.126832578229912,33.36733077117332],[11.126830597518659,33.36724945697696],[11.126828616815354,33.36716814277942],[11.126826636120004,33.367086828580725],[11.126824655432602,33.367005514380836],[11.12682267475315,33.3669242001798],[11.126820694081651,33.36684288597758],[11.126723787070054,33.36684454638421],[11.126818713418103,33.3667615717742],[11.126816732762503,33.366680257569634],[11.126812771475159,33.36651762915699],[11.126713884449794,33.36643798222223],[11.12661500137703,33.36635832134574],[11.126613020941221,33.36627700712511],[11.126611040681222,33.36619569979553],[11.126609060093454,33.36611437868036],[11.126607079849352,33.36603307134844],[11.12660509944534,33.365951757123135],[11.126603119049278,33.365870442896664],[11.126601138661165,33.365789128669014],[11.126599158281003,33.365707814440206],[11.12659717790879,33.365626500210226],[11.12649828784909,33.36554684622328],[11.126496307582798,33.36546553198587],[11.126494327324453,33.36538421774725],[11.126492347074057,33.365302903507484],[11.12649036683161,33.36522158926654],[11.126488386597112,33.365140275024416],[11.126391485560308,33.36514193502681],[11.126389505423772,33.36506062077842],[11.126484426151963,33.36497764653668],[11.126482445941313,33.36489633229105],[11.12648046573861,33.36481501804426],[11.126478485543858,33.3647337037963],[11.126379604860313,33.364654049518926],[11.126282700247408,33.36465570948552],[11.126280720248575,33.36457439522501],[11.126278740257689,33.36449308096332],[11.12627676027475,33.364411766700464],[11.126179855923944,33.36441342657619],[11.12608295156519,33.36441508637634],[11.125984067493539,33.364335431821615],[11.125885183601913,33.36425577717994],[11.125788279399353,33.364257436743216],[11.125691375188852,33.364259096230924],[11.125689395769824,33.36417778193395],[11.125588533007198,33.364016812733325],[11.125491629050842,33.36401847205462],[11.125489650003432,33.36393716463614],[11.125390770952356,33.363857502597256],[11.12529386305196,33.36385916182755],[11.125196959251802,33.36386082091194],[11.125194980490287,33.36377951347583],[11.12509808088037,33.36378117240925],[11.124904273420363,33.36378449019005],[11.12480736967845,33.363786148967115],[11.124708487457333,33.363706493313614],[11.124611583789553,33.36370815193445],[11.124514676005655,33.363709810550056],[11.124512697722357,33.3636284961837],[11.124415798236882,33.363630154578004],[11.124318894635296,33.363631812967064],[11.12422001302044,33.36355215689774],[11.12412310949299,33.36355381513059],[11.124121131417954,33.36347249384928],[11.124024227972587,33.36347415200148],[11.124022250330786,33.36339284449833],[11.123923369255989,33.36331318816825],[11.123824488361208,33.36323353175122],[11.1238225107556,33.363152217342154],[11.123820533157934,33.36307090293192],[11.123818555568201,33.36298958852053],[11.123721652639063,33.36299124641546],[11.123719675147276,33.36290993199779],[11.123620794906365,33.36283027538813],[11.12352191484547,33.36275061869156],[11.12342303907272,33.36267096183778],[11.123324155263722,33.36259130503765],[11.123225279850992,33.362511648010035],[11.123223302856848,33.36243033355987],[11.123124423613943,33.36235067650936],[11.123122446725676,33.362269362051755],[11.123025540442933,33.3622710194422],[11.123023563652609,33.36218970497833],[11.12292468897577,33.362110047677454],[11.122922712291315,33.362028733206145],[11.122920735614793,33.36194741873368],[11.122821857205727,33.36186776140363],[11.122724955457318,33.36186941847166],[11.12272297897667,33.36178810398667],[11.122624100927615,33.36170844648278],[11.122527199343349,33.36171010338953],[11.122525223058567,33.361628788892],[11.12242832155637,33.361630445718085],[11.122331420046244,33.361632102468626],[11.122234518528188,33.36163375914361],[11.12223254252134,33.36155244462963],[11.122329443949399,33.36155078795974],[11.122327467860485,33.36146947344969],[11.12223056652243,33.361471130114474],[11.122131689275465,33.361391472182305],[11.122034788011552,33.361393128690914],[11.121937890847788,33.36139478505373],[11.121839010004347,33.36131513383582],[11.121645211709085,33.36131844624373],[11.121548306387458,33.36132010243968],[11.121449433851499,33.361240436968025],[11.121352532712098,33.36124209293756],[11.121253656664978,33.361162441153034],[11.12105787964726,33.36108443812207],[11.120960978656152,33.36108609377922],[11.120864077657119,33.36108774936081],[11.120765202048808,33.361008090268314],[11.120763227455384,33.36092677566863],[11.1206663266205,33.36092843108892],[11.12056745137219,33.36084877182263],[11.120565476974612,33.360767457210414],[11.120466602004223,33.36068779785098],[11.120464627712492,33.36060648323134],[11.120462653428685,33.36052516861053],[11.120460679152805,33.36044385398855],[11.120456730624818,33.36028122474107],[11.12035983048614,33.36028287989402],[11.12035785632403,33.36020156526345],[11.120355882169845,33.36012025063169],[11.120257008146968,33.3600405910609],[11.120255034098626,33.359959276421726],[11.12015616035366,33.3598796167578],[11.120057286788683,33.35979995700694],[11.119958417511699,33.359720297099074],[11.119861513855373,33.35972195190879],[11.119760671281682,33.359560977162914],[11.119663771897507,33.359562631741234],[11.119564895026564,33.359482971632325],[11.119466026551589,33.35940331129626],[11.119367154148609,33.35932365094343],[11.119268281925615,33.359243990503714],[11.119266308856414,33.35916267580198],[11.119169409882605,33.35916432997712],[11.119167436911315,33.359083015269114],[11.119070538019583,33.359084669363625],[11.1190685651462,33.35900335464939],[11.11897166633654,33.35900500866325],[11.11896969372828,33.358923700835],[11.118872795000685,33.35892535476823],[11.118773923510407,33.35884568700184],[11.11877195093075,33.35876437226883],[11.11867308005275,33.35868471819379],[11.118477314729018,33.35860670378798],[11.118281545967887,33.358528702913084],[11.118182675626775,33.35844904152389],[11.118085773267854,33.35845069489235],[11.118083801357699,33.358369380117914],[11.117984935484486,33.35828971848486],[11.11788803739766,33.35829137162197],[11.11778916767856,33.358211709891506],[11.117692269665898,33.35821336287243],[11.117593400208847,33.35813370097447],[11.11749650227035,33.358135353799234],[11.117397633075349,33.35805569173375],[11.117298764060326,33.3579760295814],[11.117199895225276,33.357896367342185],[11.1171010265702,33.357816705016084],[11.117004133060021,33.35781835737275],[11.116907231326094,33.35782000979396],[11.116808363015144,33.35774034721974],[11.116612597414408,33.35766233667302],[11.116513733653392,33.357582673774395],[11.116414861856525,33.357503010928966],[11.116219101224011,33.35742499965357],[11.116122199876772,33.35742665144502],[11.115928409482287,33.35742995459121],[11.115831512219238,33.357431606086],[11.115637717669424,33.35743490884895],[11.115540820382666,33.3574365601171],[11.115445892473627,33.357519526235315],[11.115348997135033,33.35752117732246],[11.115252097680628,33.35752282840406],[11.115155202326232,33.357524479340114],[11.115056335884288,33.357444815289725],[11.114862541208048,33.35744811684396],[11.114765645912033,33.35744976747277],[11.114668746500207,33.357451418096026],[11.114571849134439,33.35745306860874],[11.114474953814726,33.357454719010924],[11.114378054379204,33.35745636940754],[11.114376085991305,33.35737505442495],[11.114182293438397,33.35737835487644],[11.113988498799948,33.35738165506074],[11.113891603522832,33.3573833050046],[11.11379470412991,33.35738495494285],[11.113600911482248,33.35738825448784],[11.113505979643687,33.3574712192277],[11.113312188822643,33.357474518294595],[11.113215289292365,33.357476167784654],[11.113118391808152,33.3574778171642],[11.113023463506028,33.357560781485674],[11.112926563862084,33.35756243075416],[11.112829668318163,33.35756407987718],[11.112732768658432,33.35756572899459],[11.11263587309873,33.357567377966525],[11.112538975477177,33.35756902689787],[11.11244010919765,33.35748936070579],[11.112341247206015,33.35740969435695],[11.112242385394348,33.357330027921265],[11.112240419001877,33.357248712824784],[11.11214155336015,33.357169046365904],[11.112139587073449,33.35708773126202],[11.112042689952345,33.35708937978524],[11.111943828778458,33.35700971308279],[11.111844963676644,33.356930046363345],[11.11174610286269,33.3568503794872],[11.111647240174756,33.35677071255915],[11.11154837766679,33.35669104554424],[11.111449515338787,33.3566113784425],[11.111447549737202,33.35653006329496],[11.111445584143503,33.356448748146235],[11.11125179122268,33.356452043978464],[11.111152931655086,33.356372383473555],[11.110957171518374,33.35629435680866],[11.110858312392772,33.356214696049456],[11.110660590073921,33.356055353663514],[11.110466799980657,33.35605864820151],[11.110174147490605,33.35598228116507],[11.10997839125573,33.35590425973959],[11.109881497364771,33.35590590649001],[11.109782635357124,33.35582623799053],[11.10968573948646,33.35582788461971],[11.109586881848715,33.35574821588299],[11.109489983998348,33.35574986239093],[11.10939309024794,33.35575150875352],[11.109294230900426,33.35567183980368],[11.109001580428975,33.35559546301296],[11.108807791147484,33.35559875492187],[11.108710893414045,33.35560040081535],[11.108517104085294,33.355603692271025],[11.108418243618479,33.355524022618205],[11.108321350051346,33.355525668134696],[11.10812952122545,33.355610274345686],[11.108032625490802,33.355611919675496],[11.107838833997883,33.35561521010849],[11.107741940293536,33.35561685517681],[11.107645044527393,33.35561850020447],[11.107451252971492,33.35562179003315],[11.107354359235655,33.35562343479931],[11.107259423022006,33.35570639493887],[11.107162527126526,33.35570803959387],[11.107063671819152,33.35562836874916],[11.106966773943988,33.3556300132829],[11.106869880168796,33.35563165767137],[11.106774945519831,33.35571461742364],[11.106583114658235,33.35579922131612],[11.106292428566924,33.35580415344848],[11.10600370083481,33.35589040037839],[11.10590680671101,33.35589204402663],[11.105713012278027,33.35589533120102],[11.105422325704385,33.35590026130893],[11.10513359668803,33.355986506258695],[11.104939804003186,33.35598979219968],[11.10484290764897,33.355991435056865],[11.104746011286892,33.355993077838505],[11.104554179743069,33.35607767865634],[11.104457281213492,33.35607932125121],[11.104360386783924,33.35608096370091],[11.104263490292562,33.35608260610991],[11.104166593793337,33.35608424844334],[11.104069697286254,33.35608589070124],[11.103972802825249,33.356087532848775],[11.103780965989856,33.35617212568457],[11.103395339734595,33.35626001550615],[11.103300400988507,33.35634297274793],[11.10320350414076,33.35634461434108],[11.103106609339102,33.3563462558239],[11.103009710421698,33.356347897300765],[11.102912815604327,33.3563495386325],[11.102815918725158,33.356351179923486],[11.102719019784187,33.3563528211737],[11.102622124943252,33.35635446227882],[11.102525230094464,33.356356103308386],[11.102428331129932,33.35635774433199],[11.102331434211493,33.356359385245256],[11.102234539339145,33.3563610260482],[11.102139597117086,33.356443975590324],[11.102042702139059,33.35644561624723],[11.101945805099236,33.356447256863376],[11.10184890805156,33.356448897403965],[11.101750054589898,33.35636922910368],[11.101655115986603,33.356452178223755],[11.101558216861426,33.35645381857249],[11.101463278311996,33.356536781340104],[11.101366379081128,33.35653842154278],[11.10126948189636,33.356540061635165],[11.101172586757693,33.356541701617225],[11.101075687503275,33.35654334159328],[11.10107373138754,33.35646201900915],[11.100976836323165,33.35646365883509],[11.100781086556585,33.35638562951411],[11.100684189504694,33.356387269143156],[11.100587294498903,33.35638890866189],[11.100492350613836,33.35647185700545],[11.100298558329127,33.356475135710035],[11.100102809082523,33.356397105296175],[11.097182234503096,33.355877034008905],[11.095141555891185,33.35566744279902],[11.094271437769157,33.35576347287666],[11.093306368128179,33.35594244689429],[11.093013729645325,33.355866031861325],[11.09253119273499,33.35595551497748]]]}}]}
