{"type":"FeatureCollection","features":[{"type":"Feature","id":"osm:relation:7142947","properties":{"sourceId":"isie-best-effort-imada-525560-20260928","officialCode":"525560","governorateCode":"52","delegationCode":"5255","nameAr":"حمادي","officialSourceNameAr":"حمادي","sourcePdfURL":"https://www.isie.tn/wp-content/uploads/2023/CartesCirconscriptionsElectoralesLocales2023/مدنين/جرجيس/حمادي.pdf","sourcePdfSha256":"4fb60d1998f2b979ed412fcd6ab82ca1f85644aa695808850d045ae9cf14af16","sourceGeometrySha256":"0366eebd7fde3cfc8d7dd8f063e3365f2a03f3ed38938048ccf23f53881414a6","geometryMethod":"Pinned native ISIE red-face linework; exact registered EPSG:32632 face WKB; transformed to EPSG:4326 with always-XY axis order."},"geometry":{"type":"Polygon","coordinates":[[[11.091816732818973,33.48970589632351],[11.091824841116447,33.490043126465714],[11.091881242343852,33.49037953966618],[11.092025917429446,33.4910383339286],[11.092250558618888,33.49234351799397],[11.092342725748312,33.492827769089864],[11.092493250014341,33.49372936544187],[11.092565106303391,33.49403852867771],[11.092584774076775,33.49418663657782],[11.092654359533467,33.49440137539234],[11.092992879483386,33.49508387995854],[11.093009951690968,33.495124075402444],[11.093077916094915,33.495271367962864],[11.093131729808738,33.49549986655213],[11.093132054413163,33.49551335573423],[11.0930883031593,33.49570302066163],[11.092820923455953,33.49663866992481],[11.092678110701977,33.4973967827297],[11.092482779730199,33.49798035221167],[11.092498878737665,33.49798008014908],[11.093626780127426,33.498001498138095],[11.093803869111039,33.497998503698],[11.094528973474809,33.49801322941195],[11.09562597689485,33.49808913043288],[11.096287008167026,33.49811842487139],[11.096448648397331,33.49814267749439],[11.096529468542085,33.498154803725406],[11.096804449576116,33.49820412604238],[11.097194078273558,33.49833247271592],[11.097763400438039,33.498565732212356],[11.097895118596751,33.49868495124131],[11.098764971136935,33.499358435782405],[11.099765908681725,33.500124152215484],[11.099719890477077,33.50021939508046],[11.0993100991467,33.50059069788216],[11.098853310812595,33.501016774619586],[11.098570355536452,33.50130495711364],[11.098523033391276,33.50134624310145],[11.098458635116218,33.501347334566304],[11.09842676147499,33.50136136940978],[11.098394887823137,33.50137540424544],[11.098363014160658,33.50138943907323],[11.09834724006835,33.50140320104629],[11.09833114048755,33.50140347389322],[11.098299917761508,33.50144448695441],[11.098164134295947,33.50182463681368],[11.098106895663872,33.5021224888567],[11.098041042269177,33.502730861263004],[11.098016981651746,33.50306863494316],[11.097971285562105,33.50317736637416],[11.097781340740916,33.50331552892912],[11.097703769727028,33.503438294972575],[11.097707023849518,33.50357318622409],[11.097711254241155,33.503748544846246],[11.097718738814772,33.5040587924162],[11.097724921855463,33.504315085763174],[11.097711425118135,33.50442327153586],[11.097581973131367,33.50439847551586],[11.09737169513811,33.50436155396987],[11.097258343456735,33.50433648486065],[11.097177192098085,33.50431087021578],[11.097111490252646,33.50425800455152],[11.097062539242312,33.504231844407265],[11.096997162836441,33.504192467806284],[11.096832586313585,33.504046814135314],[11.096618406493306,33.50384802395232],[11.096487004260748,33.50374229193131],[11.096437728505844,33.50370264238384],[11.096404878027517,33.503676209340206],[11.09630730230226,33.50363737756269],[11.096177201465824,33.50358560173409],[11.095642652914595,33.50345970431243],[11.095415952817111,33.50340956268421],[11.094282783597619,33.50317233955367],[11.094104709584307,33.50313486761314],[11.093926635711368,33.50309739541028],[11.093797511383746,33.50308608446871],[11.093604639599025,33.50310284065894],[11.093090090654133,33.50313852972341],[11.091883894081777,33.50321289379582],[11.091353246067317,33.50324884538002],[11.090467746042226,33.503263799596716],[11.089984748483301,33.50327195373116],[11.089630872359654,33.50329142375003],[11.089003298200783,33.50331550873908],[11.08887482198575,33.5033311710535],[11.088457516844624,33.503392187283815],[11.088006718066556,33.503399790576296],[11.087491839962434,33.50342196731295],[11.08568896019393,33.503465845941236],[11.083643604288195,33.50347329518778],[11.083482604489546,33.503476004581316],[11.082454136176526,33.50357427541373],[11.080957794192361,33.503639918350906],[11.079477226572518,33.50369178359321],[11.0784162278514,33.50377707265701],[11.077916799789385,33.50377196085923],[11.077001665373926,33.50389527383451],[11.076519947322781,33.50395733285729],[11.075556508855568,33.50408144535645],[11.074562153871717,33.50426004730916],[11.074016673562907,33.504350154478544],[11.073293444327334,33.50441624650154],[11.073196842631273,33.50441786413532],[11.072068531255228,33.50438277368262],[11.071536576507587,33.504364685820256],[11.071504375698813,33.504365224586365],[11.071456074484045,33.50436603271984],[11.070228271060875,33.50421113743405],[11.068304306891127,33.503905924608766],[11.067818730667609,33.50380607746462],[11.067640665697668,33.50376856705169],[11.06754374295627,33.503756690878475],[11.067301917590342,33.50374723418184],[11.067285817427887,33.503747503008434],[11.067394991628927,33.50359724021488],[11.067659394485878,33.50320147749662],[11.068035212715378,33.50274987551796],[11.068379468010903,33.502325789212264],[11.068538543036297,33.502242164381535],[11.069111402876445,33.501949202897244],[11.069238597496067,33.501879603546364],[11.06934969195441,33.50181027315585],[11.069444365627872,33.501727722389994],[11.069523581263965,33.50167242054895],[11.069587017542101,33.50163087600725],[11.06966559055097,33.501548594202674],[11.069728384574216,33.50148007085361],[11.069790857443119,33.50139805810618],[11.070071342955716,33.50100202278319],[11.070133494068664,33.50090652051457],[11.070181151207919,33.500878735378485],[11.070245871048806,33.500891146853284],[11.070585892620963,33.50096642953571],[11.070699233492935,33.500991523546624],[11.070747532856556,33.500990715779615],[11.070779732431234,33.50099017725781],[11.070828031109105,33.50098936947088],[11.07087504559015,33.5009346042085],[11.070906602694038,33.500907086932116],[11.071110437716866,33.50067426817076],[11.071297208120892,33.50040124921496],[11.07142118607982,33.50019675531188],[11.071497506588468,33.50002004694167],[11.071543234927558,33.49991132516534],[11.071781226275382,33.499084166754],[11.071842088484036,33.49893470629989],[11.071857867215268,33.49892094754357],[11.07188974396673,33.49890691941676],[11.072235251945623,33.49853678085801],[11.072425550197986,33.498412143320216],[11.072441649490987,33.498411873860526],[11.07258139920476,33.49819361900072],[11.072889559248878,33.49760818925346],[11.073043798875842,33.497322218802104],[11.07336998124941,33.49681745344781],[11.073432447127779,33.49673543907082],[11.07354288886176,33.49663912654157],[11.073765057365161,33.496500458608494],[11.0739048008891,33.496282203580456],[11.073997212792998,33.496105224243166],[11.074072882239536,33.495901536956275],[11.074147264705143,33.49564389225102],[11.074161111139373,33.4955491971843],[11.074237744773859,33.49538597670438],[11.074392619032677,33.49512698349825],[11.074500805746258,33.49493624480497],[11.074672742249584,33.49471744961746],[11.074973145129235,33.49448300569282],[11.07513219906069,33.49439937308976],[11.075195627695082,33.494357824785794],[11.075242314185404,33.49428956985795],[11.075289321716436,33.49423480312092],[11.07533600804316,33.494166547018466],[11.075366595833916,33.494098560711834],[11.075393965228194,33.493895681019694],[11.075405235475888,33.493693072288444],[11.075432283578351,33.49347670437697],[11.075525017610957,33.49263847776942],[11.075041107118341,33.492606103401826],[11.074041413526526,33.492555378681764],[11.074271323057497,33.49139098356997],[11.074316400622683,33.491255281085216],[11.074361478057805,33.49111957858667],[11.074485435881595,33.49091508098071],[11.074686022204137,33.49054736487282],[11.074995752058326,33.490029375258366],[11.075118741743253,33.48978441019604],[11.074988352463489,33.489719121345445],[11.074661896602171,33.48953566571229],[11.07454792660583,33.4894835960469],[11.074686050114599,33.48919789248612],[11.074503831391999,33.48898503035289],[11.074453930695569,33.48891839368857],[11.074370870201,33.488811827075686],[11.073727958717472,33.48818834258596],[11.07371121764015,33.48816163342211],[11.072622733929574,33.48776151928564],[11.071971776019998,33.48747552870417],[11.071319537093963,33.48713557698485],[11.071270603215506,33.48710940590535],[11.071490183570036,33.48686282754049],[11.071678852456214,33.48667074493937],[11.072515290525631,33.48595502483665],[11.073874228329666,33.4848661923976],[11.073907064859938,33.48489263203201],[11.074693859709356,33.48547322295701],[11.074840982367045,33.485565219167526],[11.075151326317437,33.48574894586419],[11.075265613341813,33.48581450453446],[11.07544042671318,33.48571711180755],[11.075551496307936,33.48564777665919],[11.075567271446747,33.48563401752905],[11.075599465239344,33.485633477971916],[11.075696045929575,33.485631859261844],[11.07619955422484,33.48581234557843],[11.076205347746482,33.4860551538514],[11.076223375918541,33.48613582007587],[11.076406236867129,33.48637565966126],[11.076620969626095,33.48660146748538],[11.07663738862864,33.48661468690746],[11.076929711669836,33.48671774269126],[11.07714122649112,33.48680865841393],[11.077223000102695,33.48686126579291],[11.077501482021454,33.48705901551483],[11.078005968537836,33.48727996083587],[11.078868140026998,33.48764334227264],[11.078965368053197,33.48766869956055],[11.079289569310609,33.487757719725074],[11.079855873645498,33.48786966151852],[11.080050329390675,33.48792037444397],[11.080634990929783,33.48812646851047],[11.081316884481975,33.48835791394223],[11.08125830329548,33.488601803489246],[11.081245755331905,33.488750455173914],[11.081238692903769,33.4891284249325],[11.081246114648701,33.489438678786414],[11.081270279468864,33.48977563952813],[11.081257408771835,33.48991080189693],[11.081229731187412,33.49010019313619],[11.081152469672377,33.49023643879666],[11.081106435327635,33.490331675469825],[11.081028528097734,33.490440942469405],[11.081944848482712,33.491046295103686],[11.082500568740903,33.49138781226508],[11.082778752738431,33.49157205856032],[11.08305629330292,33.4917293267462],[11.08310200312603,33.49162060014501],[11.083240745707307,33.49136186780417],[11.083346647138097,33.49107669841044],[11.083558771085524,33.49051984752681],[11.084170423078184,33.48983482044603],[11.084704810525816,33.48928603943742],[11.085161290689133,33.488846524564785],[11.085324203086147,33.48892474846869],[11.08552092872045,33.48906987739342],[11.08555377028144,33.4890963137246],[11.08584999202692,33.48936121879034],[11.086245387038941,33.48973240772569],[11.086897700090079,33.49007227882675],[11.087227741274953,33.490404082807856],[11.087556491641449,33.49068192880978],[11.088522444911252,33.49134037485685],[11.08880031825346,33.49151111788457],[11.0890778660404,33.49166837220605],[11.08987703133835,33.4920867163974],[11.089974915288733,33.492139043140526],[11.090085008229035,33.49202922750384],[11.090442616328044,33.49149689954194],[11.090817617413007,33.491018256824674],[11.091365146029899,33.49034777384943],[11.091816732818973,33.48970589632351]]]}}]}
