{"type":"FeatureCollection","features":[{"type":"Feature","id":"osm:relation:7142946","properties":{"sourceId":"isie-best-effort-imada-525559-20260928","officialCode":"525559","governorateCode":"52","delegationCode":"5255","nameAr":"خوي الغدير","officialSourceNameAr":"خوي الغدير","sourcePdfURL":"https://www.isie.tn/wp-content/uploads/2023/CartesCirconscriptionsElectoralesLocales2023/مدنين/جرجيس/خوى الغدير.pdf","sourcePdfSha256":"7761e63d4d96b42fbdbe454a8b785529df538f9569eb811af35fa6a6ad01a4de","sourceGeometrySha256":"b1c981a157ce90133a610d0c11034827066d84045c23aa99d9e10c007a596d2c","geometryMethod":"Pinned native ISIE red-face linework; exact registered EPSG:32632 face WKB; transformed to EPSG:4326 with always-XY axis order."},"geometry":{"type":"Polygon","coordinates":[[[11.03017187572087,33.54793887201549],[11.02946936704226,33.548704394234576],[11.028943358866094,33.54931621538821],[11.02894453416687,33.54936646354807],[11.028885696585993,33.54941769463934],[11.028364380197944,33.55023051050622],[11.028072536715424,33.55058716081984],[11.02783953002341,33.55089257563938],[11.027547682233717,33.551249224842955],[11.027432351878732,33.5514521821794],[11.027315846543155,33.55160489123027],[11.027144023715286,33.55195957511104],[11.026968676585646,33.55216350993414],[11.02667565715557,33.552469908936665],[11.02644146679423,33.55272507745967],[11.025445849197073,33.55379697714199],[11.025152808705311,33.554103368775756],[11.025093965723611,33.55415459823046],[11.024976279551995,33.5542570570625],[11.024977452775683,33.554307305305755],[11.024509051005994,33.5548176361212],[11.02409948807898,33.55527673207268],[11.023454540797255,33.555940746180966],[11.023395705757785,33.55599197473121],[11.02275191990417,33.556706233790244],[11.022517706723674,33.55696139131914],[11.022046933140514,33.557371217071484],[11.02169385003764,33.55767858530202],[11.02098884742792,33.558343567310644],[11.020047266332304,33.55916320219247],[11.019811868306306,33.55936811094537],[11.019695339273099,33.55952081353198],[11.019517619211765,33.55962424630578],[11.019339898719373,33.55972767883838],[11.019103337593949,33.559882337800836],[11.01821706469373,33.56049998779285],[11.016209067229742,33.56194017661137],[11.013909067955586,33.563736959085084],[11.013731332173014,33.56384038405596],[11.013140431998183,33.56425212173758],[11.011842064666983,33.56522830206856],[11.011597303004816,33.565031207795286],[11.01135370825617,33.56488436157024],[11.010926545441874,33.56458970151249],[11.010804176583582,33.56449115328964],[11.010621773905656,33.564393579560466],[11.010136922153615,33.5642003797168],[11.01001570954117,33.56415207944551],[11.009955685764341,33.5641530535777],[11.009894497058951,33.56410377905009],[11.00983447331107,33.56410475312227],[11.009529695687869,33.563908628475346],[11.007955120143794,33.56333095575722],[11.008015143425597,33.56332998261602],[11.008073997780254,33.563278760834635],[11.008072833948189,33.56322851214058],[11.008131698380177,33.56317729016973],[11.00813053451916,33.563127041476626],[11.008069342469305,33.563077766055734],[11.008006996884557,33.56297824173846],[11.007881127190773,33.56272894453276],[11.007816454780649,33.56252892268322],[11.007442357219142,33.56193177573461],[11.007315332661726,33.56163223324464],[11.007124797413075,33.56118291279005],[11.007063612428416,33.56113363670268],[11.006875405749541,33.560784813240595],[11.006874242721373,33.5607345644893],[11.006808406367599,33.560484297497986],[11.006743733261521,33.56028427494841],[11.006610899508761,33.55973348339515],[11.006427348798244,33.55958565409242],[11.005943700499994,33.55944268503415],[11.0057601515167,33.55929485467],[11.005577765463677,33.55919727707034],[11.005151812023596,33.558952835349736],[11.005150649975615,33.55890258227135],[11.005499150541839,33.55839426797475],[11.005439130581669,33.55839523977047],[11.005074363245097,33.55820007462748],[11.004768455547685,33.557953688071464],[11.004523730639402,33.55775657822907],[11.004218987512687,33.557560443297554],[11.004153161543725,33.55731017014105],[11.004085013493988,33.556959399190596],[11.00400989897575,33.55630713491705],[11.00387825103185,33.55580659237193],[11.0038159107264,33.55570706554375],[11.003814749693044,33.555656816656935],[11.00332880593523,33.55541333852257],[11.003206448640547,33.555314782012836],[11.003020592121024,33.55506644916762],[11.00270889976084,33.554568812147664],[11.002646561731183,33.55446928462907],[11.002461868995102,33.554271203983944],[11.002215999887586,33.55402383994152],[11.002030149087615,33.553775505352704],[11.001847778780531,33.553677917328955],[11.001603077874888,33.55348080080775],[11.001417230027327,33.55323246516991],[11.00135489448725,33.55313293689006],[11.001353734991735,33.553082687906596],[11.00135141600933,33.55298218993836],[11.001287921291624,33.55283241262462],[11.001044378294601,33.55268554391452],[10.999832468437129,33.55220244211913],[10.999772457639455,33.55220341092836],[10.99965358433024,33.55225559766681],[10.999597038641308,33.552407313686444],[10.999180406039711,33.55256484163713],[10.998633313135453,33.552272063415984],[10.998572139309529,33.55222278265196],[10.998507492140584,33.55202275461749],[10.998386302787328,33.55197444199391],[10.998265113564274,33.55192612924629],[10.998021577999467,33.55177925428245],[10.997778043247433,33.551632378805536],[10.997656859908579,33.55158406534737],[10.997655702621836,33.551533816237715],[10.99752641397586,33.55113375892473],[10.997641815502849,33.55093083114648],[10.997577166485085,33.55073080255415],[10.99757600928183,33.55068055343513],[10.997027781859556,33.5503375181769],[10.996600739193667,33.55004279504068],[10.99647955362911,33.549994480393686],[10.996418382645544,33.54994519844336],[10.996236026499476,33.54984760156067],[10.995379647591633,33.54915765358855],[10.995134968920087,33.548960523208834],[10.994889135797047,33.54871314308096],[10.994583290594726,33.548466728685185],[10.994093941879497,33.5480724639271],[10.993114108488916,33.54723368293615],[10.99231432542056,33.54639199825],[10.991515711402705,33.545600552803116],[10.991393386435666,33.545501983377925],[10.991326449663557,33.545201451967486],[10.991136036628138,33.54475210564881],[10.990884466862825,33.54425346960087],[10.990445947260252,33.543456229177814],[10.990444794502523,33.54340597978121],[10.990443641747653,33.54335573038418],[10.990381326299374,33.54325619996116],[10.989954341135743,33.542961451455675],[10.989769702175336,33.54276334529079],[10.989763940523154,33.54251209817182],[10.989638160174543,33.542262778526855],[10.989575846382149,33.54216324335975],[10.989572389797313,33.542012495057286],[10.989571237608084,33.54196224562225],[10.989510076273437,33.54191295984389],[10.989265431628573,33.54171581639891],[10.988716142085204,33.5413224953526],[10.988473803933,33.541225849143274],[10.98792566701424,33.54088276962483],[10.987924515827187,33.540832520130294],[10.987614114492938,33.540385088449085],[10.987477985698394,33.539683524815956],[10.987291058048639,33.53938491534288],[10.987166440351913,33.53918584217019],[10.98691836232895,33.538837944827655],[10.98667143161361,33.53854029652985],[10.98654911718581,33.538441721724205],[10.98575867947901,33.53800198485422],[10.985270580064988,33.53765793053342],[10.984782489580153,33.53731387404591],[10.984721334256527,33.537264585645865],[10.984599023817347,33.537166008746375],[10.984537868701793,33.53711672024691],[10.984536719638943,33.5370664706184],[10.984414409788346,33.536967897774694],[10.98422520105319,33.53656878366605],[10.984100594610732,33.53636970691467],[10.983472977853369,33.5351733264278],[10.983410676486988,33.53507378760305],[10.983408379846065,33.53497328824367],[10.983160324333468,33.53462538223266],[10.983033432237963,33.534325804684414],[10.982719636998786,33.533727613642945],[10.982532739247313,33.53342899564206],[10.982406993820678,33.53317966705931],[10.98240584616174,33.53312941733388],[10.982284691890426,33.53308108750409],[10.982283544306519,33.53303083777414],[10.982038941428197,33.5328336782571],[10.981793192378428,33.53258626846149],[10.981548591869121,33.53238910787529],[10.981423998024592,33.53219003211711],[10.980924481421578,33.531343460738924],[10.980858750941838,33.53109317091844],[10.980549569045467,33.53069596804497],[10.980538104504236,33.53019347426269],[10.980471224684953,33.529892934391334],[10.98027861208882,33.52934306313544],[10.980152879549474,33.529093731654086],[10.979841416527016,33.52859603109687],[10.97971454052183,33.528296449210956],[10.979526519772897,33.52794757576424],[10.979341937535885,33.52774945154791],[10.979279646571275,33.527649910163],[10.979215064617424,33.527449869003135],[10.979087047241276,33.527100040666426],[10.979025902504297,33.52705074899381],[10.978357900187403,33.52670953793543],[10.97763104367752,33.52641953057851],[10.977207618386517,33.52627548253081],[10.976780762240654,33.52598068737668],[10.976172774963985,33.52563850676471],[10.974044272628513,33.52441572476182],[10.971916970502068,33.52324315812331],[10.970093120612031,33.522216534952896],[10.969789724760782,33.52207055261851],[10.968697261771238,33.521534959966125],[10.968513862002881,33.52138706817104],[10.96712029978284,33.5208059750123],[10.965604496053988,33.52012627628462],[10.965058855934545,33.519883586946754],[10.964755471176282,33.5197375916969],[10.964267559706936,33.5193934467756],[10.963292881721067,33.51875540115015],[10.962441609148035,33.51826619886105],[10.962015978941622,33.51802159533662],[10.96195598529607,33.51802254504595],[10.961591486050168,33.51782724073331],[10.960318010926134,33.51724417212073],[10.959527901072212,33.516804254373085],[10.958437833313289,33.51636906715563],[10.957650000571983,33.51602963376438],[10.956922168561011,33.515689247893754],[10.956073226419957,33.51530050047043],[10.955345403825772,33.51496010488625],[10.952439824257066,33.51384973986162],[10.950866516625625,33.51327128947062],[10.950624296698653,33.51317456436892],[10.950317573704282,33.51287777929006],[10.949830884391023,33.51258382451643],[10.94952642423514,33.51238753900745],[10.948919757687129,33.51209546747307],[10.948434201893388,33.511851757804784],[10.947947524501162,33.5115577951437],[10.947765302035618,33.511460121370426],[10.947036418828953,33.51106942765206],[10.946065334023633,33.510581990619684],[10.945579794437835,33.51033827336544],[10.944489873074113,33.5099029574476],[10.943703277041523,33.50961368191876],[10.943399962254563,33.50946763151195],[10.943217750336201,33.50936995065197],[10.942611126283134,33.509077846525415],[10.941764555511877,33.50878949823196],[10.940920234065594,33.50860164630594],[10.940558063186806,33.508506783299026],[10.939894831943155,33.50836635797023],[10.9388683134709,33.50808080543355],[10.938203968039339,33.50789011954653],[10.937660719570665,33.50774780599412],[10.936817536103463,33.50761018093248],[10.936516480420408,33.507564611295415],[10.935614433561526,33.50747816206204],[10.93465016182974,33.507292143950046],[10.934108040793358,33.50720006583691],[10.933565920790167,33.50710798530735],[10.933324855364662,33.507061476350465],[10.932240620082865,33.50687730588058],[10.931459672198667,33.506839207335354],[10.930738713674693,33.506800169523],[10.93037879216272,33.50680577479514],[10.929648629498478,33.503650210118835],[10.92908955150145,33.50008982502604],[10.929025106275105,33.49988975197436],[10.929023990905096,33.499839500374534],[10.929323902247862,33.499834833511365],[10.930345830019172,33.49991946391188],[10.931427741660661,33.500003151351876],[10.93166766958015,33.499999413268576],[10.932148644374662,33.50004218718553],[10.93431470981341,33.50031002368987],[10.93485678893449,33.50040210250472],[10.93533776499905,33.500444863923654],[10.938285862305847,33.500800957542474],[10.93973104833109,33.501029698235875],[10.9408141009365,33.50116355406683],[10.941777190750543,33.50129927937828],[10.94322126859298,33.501477727507904],[10.943642269986611,33.501521387977036],[10.945384020638754,33.50159460588769],[10.94736682821732,33.50171429012024],[10.948328805001779,33.50179970433021],[10.951391308875785,33.50190234208113],[10.953194180423164,33.502024756280974],[10.95433611053661,33.50210729673619],[10.958121816158128,33.502349170138004],[10.960946674616197,33.50255586126133],[10.961307706769194,33.502600418425295],[10.961788702783132,33.50264307615907],[10.963651577098057,33.502764387763],[10.964673558308524,33.5028487323211],[10.965635560512126,33.50293401944413],[10.965935470905011,33.502929263659425],[10.96641647263184,33.502971903221884],[10.966957457846465,33.50301358917007],[10.967378477214512,33.503057176687896],[10.968219373755419,33.503094097061954],[10.968760360190371,33.50313577507174],[10.969060275801445,33.50313101161724],[10.969601262679884,33.50317268592907],[10.97122308071332,33.50324744433827],[10.97128306382926,33.50324649051036],[10.971464153198184,33.503293879153],[10.971644102607474,33.50329101722857],[10.971764063780304,33.503289109214755],[10.971824051991332,33.503288155043],[10.971884035113629,33.50328720092311],[10.971944013147201,33.50328624685511],[10.972183945596822,33.50328242996935],[10.972721511915722,33.50317333975354],[10.973857759305327,33.50300444770617],[10.97421651476469,33.5029484664674],[10.97493402413993,33.502836500920154],[10.975113972226152,33.502833633990555],[10.975232795406315,33.50278147236912],[10.975831479233651,33.50272166331674],[10.976490139525932,33.50266089514571],[10.977269912074592,33.502648460162014],[10.97798855791388,33.50258672725548],[10.978768324005339,33.50257428294688],[10.980146767881013,33.50250200397603],[10.980446679245233,33.5024972130391],[10.981406395133758,33.50248187716656],[10.982065048170663,33.50242107954171],[10.98344463697134,33.502399013913525],[10.983744547381201,33.502394215006866],[10.984763089473246,33.50232764347634],[10.985841616562205,33.50226010268978],[10.986201507947273,33.50225433697333],[10.987461121901962,33.502234148822005],[10.987821012825666,33.502228378405405],[10.988899529828656,33.5021608111915],[10.989319401841852,33.50215407407581],[10.99027795791572,33.50208841987854],[10.991356470154209,33.50202083139277],[10.992556095296594,33.50200155508327],[10.993395835776585,33.50198805470436],[10.99441551989222,33.50197165374226],[10.995495179440152,33.50195427896055],[10.996633664827405,33.50188567916657],[10.998133195278378,33.501861518082336],[10.998791827256928,33.50180063206414],[11.001129926405936,33.50171264286532],[11.001429831218601,33.501707801237885],[11.002868210119885,33.501634302057454],[11.003647960951584,33.50162170140393],[11.003827903382287,33.50161879286452],[11.004127807376012,33.50161394471861],[11.004187788166139,33.5016129750024],[11.004307749737777,33.50161103548293],[11.004847571582223,33.50160230629149],[11.005027513840549,33.5015993960114],[11.00622828828867,33.501630236723116],[11.00640823045248,33.50162732443569],[11.007247955122306,33.50161373039103],[11.007607839130632,33.501607902595914],[11.008326445571235,33.50154599468521],[11.009642521626004,33.50137386227127],[11.010241163351333,33.50131388803842],[11.010839804099122,33.50125391094092],[11.011558404329081,33.501191984460725],[11.011978265847524,33.50118517073366],[11.012756844486047,33.50112226384388],[11.012996765001832,33.501118368146145],[11.014077561148238,33.5011510809407],[11.015097222530322,33.501134510138385],[11.015518248258456,33.50117793339832],[11.017261168340193,33.50130038700773],[11.017442275121535,33.50134770763023],[11.018884121639738,33.50142476979742],[11.01906406197746,33.50142183914602],[11.019783823067861,33.501410113929445],[11.021223343997866,33.50138665096377],[11.021343304000059,33.50138469496237],[11.021583223969673,33.501380782611406],[11.02224065488728,33.50126952390199],[11.023554361438846,33.500996747140306],[11.023793109834916,33.500942581834764],[11.024869229831127,33.500774205416626],[11.02510797666821,33.50072003762706],[11.026062950641023,33.500503362137756],[11.0263028674788,33.500499440738615],[11.026721550186565,33.5004423370654],[11.02696029457873,33.500388157260126],[11.027680043599059,33.50037638649323],[11.028818472506739,33.500307500858916],[11.029298304235706,33.50029964696582],[11.029716983079902,33.500242516233975],[11.029776961977955,33.5002415341656],[11.030075672680725,33.50018638354975],[11.030373219000706,33.500080975027075],[11.030671938474555,33.500025805803226],[11.03114941953329,33.49991745632468],[11.031805659934035,33.499755899024045],[11.032820592444796,33.49953818917194],[11.033179286647918,33.49948203898904],[11.033479177842011,33.499477120075234],[11.03401662978024,33.49936776738905],[11.034615224468856,33.499307676590526],[11.035033894308814,33.499250536697815],[11.035453740358404,33.49924364377312],[11.035753630306308,33.49923871938527],[11.035813608287137,33.499237734420674],[11.036114675365278,33.49928305750529],[11.036355764698605,33.49932936510399],[11.038223320922613,33.49965054669766],[11.040757740500352,33.500262320530084],[11.040938856041649,33.50030960638621],[11.04136106625428,33.500403189600156],[11.041844436512003,33.500546031575524],[11.042992289058036,33.500878992603255],[11.043716761703001,33.50106812091877],[11.045709076675593,33.50158820128218],[11.047820178681425,33.502056019179406],[11.049144465885629,33.502235204789365],[11.049264424974702,33.502233221711556],[11.050528727155188,33.5024133797597],[11.05197061019105,33.50249005461146],[11.05209056941918,33.50248806878416],[11.053772372608742,33.50256075480006],[11.053600746024596,33.5029154660427],[11.053371512843922,33.50337167047222],[11.05302469065443,33.50393035274147],[11.052670742164365,33.504187551732464],[11.052613135347809,33.50428904055383],[11.052555528401623,33.50439052935194],[11.052265118124513,33.50479747741359],[11.051971145261053,33.50505368148118],[11.051852369056329,33.50510591512764],[11.05155602110424,33.50526162267165],[11.051032792637558,33.50597402156248],[11.05103635106662,33.5061247650197],[11.051037537215523,33.50617501283788],[11.050864706952478,33.5064794772275],[11.05080591057153,33.50653071748871],[11.050747114121346,33.5065819577242],[11.050447201656535,33.50658691935574],[11.049863983607056,33.50730030590025],[11.04945595538465,33.50780972768649],[11.049523050883359,33.50811022297406],[11.049465437956533,33.508211710508306],[11.048823392155656,33.50897633680503],[11.048649364012736,33.50923055061105],[11.048531764804903,33.50933302494155],[11.048536504204106,33.50953401642291],[11.048480074073648,33.50968575142573],[11.048424828564473,33.50988773427712],[11.04830959772542,33.51009070417284],[11.048136750644815,33.51039516523032],[11.048139119977186,33.510495660979515],[11.04802507243975,33.51074888278131],[11.047969825318686,33.510950865462775],[11.047854592217481,33.51115383925488],[11.047799344489064,33.51135582187262],[11.047687663869267,33.511709539166496],[11.047688848333342,33.51175978704478],[11.048114675048904,33.51200408828347],[11.048115859773011,33.51205433614592],[11.048118229230038,33.51215483186949],[11.04806416621951,33.51240705817741],[11.047951300908904,33.51271052780244],[11.047779632401923,33.51306523634856],[11.047550344057475,33.51352142721088],[11.04737393495757,33.51367514379387],[11.047136353375352,33.51377960312075],[11.047077549989861,33.51383084182463],[11.047018746535107,33.51388208050277],[11.046901139417807,33.51398455778197],[11.046667118509278,33.5142397597541],[11.046381384825363,33.51484768726471],[11.046266143252478,33.51505065979422],[11.047165960211322,33.515035799957445],[11.049744275195428,33.51494291729731],[11.04998422834182,33.51493894854193],[11.050582924722116,33.514878776860435],[11.050821680977174,33.51482455890128],[11.051120435206137,33.514769347545894],[11.05135801422673,33.51466488066599],[11.052664688303885,33.51409030503268],[11.054094883590572,33.51366447085541],[11.055346282148024,33.51329185297655],[11.056121354527768,33.51307792771518],[11.056181341291657,33.51307693253043],[11.055889732338759,33.51343364141644],[11.055541701049695,33.513942087448505],[11.055136055830312,33.5145520226021],[11.055020835514725,33.51475500250136],[11.054963235335038,33.51485649224744],[11.054910369827555,33.51515897280256],[11.05479634705319,33.51541219572066],[11.054268335509569,33.5159236222421],[11.053856731410168,33.51628231550082],[11.05332989695499,33.51684398175729],[11.052391438750854,33.517764339042095],[11.052215030379081,33.517918062428464],[11.051922202242102,33.51822451525075],[11.051804595558371,33.518326997125605],[11.051625810930064,33.51838022434537],[11.051269427817457,33.51853692574419],[11.050974231064085,33.51874288090267],[11.050679022624982,33.518948831313025],[11.050504981645727,33.51920304789579],[11.050095718927873,33.519662225115816],[11.049394793284753,33.5204780919658],[11.048806726986461,33.52099048927078],[11.048511505873197,33.52119643918367],[11.048335083688396,33.52135015748368],[11.047571765106223,33.522066510981865],[11.047277722083336,33.522322705969785],[11.046515580774132,33.52308930114897],[11.046341519641988,33.52334351249224],[11.046166273402273,33.52354747578942],[11.045639345981437,33.52410911649884],[11.045465280333168,33.52436332674459],[11.044587837365418,33.52533288328849],[11.044413766297396,33.525587092217016],[11.044123251297439,33.5259940239927],[11.043598661621438,33.52665614836759],[11.043128148671933,33.52706604629732],[11.042718810792506,33.5275252014482],[11.04242947395861,33.527982377413785],[11.042311842883791,33.52808484677945],[11.042254209349915,33.528186331468824],[11.042138941892652,33.52838930077762],[11.041788409114226,33.52879721644756],[11.041730774526995,33.5288987009231],[11.041263785403453,33.5294593362126],[11.041148513949782,33.529662300451655],[11.040740335010684,33.53017169767659],[11.04062506155024,33.530374665746905],[11.040333332428649,33.53073134165147],[11.040159238601683,33.53098554526502],[11.039808686287365,33.531393451652875],[11.039693409132239,33.53159641896089],[11.039401672226717,33.531953092901745],[11.039285212908064,33.53210581190071],[11.038995833406931,33.532562980944185],[11.038702920369584,33.53286940100338],[11.038585278490942,33.532971871424714],[11.038174709661565,33.533380765089646],[11.038058246340716,33.533533483054086],[11.037532387035917,33.534145340662654],[11.03724063286855,33.53450200576801],[11.037007699645596,33.534807440025695],[11.036655938530272,33.53516509461168],[11.036540649306746,33.53536805933216],[11.036425359563593,33.53557102395924],[11.036075950697349,33.536029173146254],[11.036019483645878,33.53618089906872],[11.035728895431197,33.53658781329841],[11.03561478088422,33.536841025317145],[11.035384192909524,33.53724695297163],[11.035326545591039,33.537348434826875],[11.034979490741167,33.53790707297754],[11.034515945407788,33.53861842970446],[11.034106509217446,33.53907755932256],[11.033992386870366,33.53933076579105],[11.033645305908092,33.5398894050776],[11.033528826264384,33.540042119255396],[11.033242923677925,33.540650020709826],[11.033129974293734,33.540953474591134],[11.032899364545653,33.54135939820799],[11.032728760172384,33.54176433688276],[11.032496969517235,33.542120011745645],[11.032265177016228,33.54247568622636],[11.032152222128834,33.54277913934842],[11.032095744457893,33.54293086800617],[11.031920426563202,33.54313481326668],[11.031808646514772,33.54348851849833],[11.03163685669773,33.54384320776585],[11.031347400000978,33.54430035682987],[11.031174430450891,33.54460479741562],[11.031060303268669,33.54485800565287],[11.031004988627545,33.54505998218402],[11.03088968416745,33.54526294215639],[11.030717887298591,33.5456176260658],[11.030660229366527,33.54571910603117],[11.030548441351574,33.54607281030287],[11.030491958999635,33.54622453833812],[11.030317806936958,33.546478729755144],[11.030261323949558,33.54663045770077],[11.030202488949596,33.546681689340986],[11.030084818741535,33.54678415254408],[11.029740036121003,33.54744327859876],[11.029565879442297,33.547697464825355],[11.030111863903606,33.547939855503586],[11.03017187572087,33.54793887201549]]]}}]}
