{"type":"FeatureCollection","features":[{"type":"Feature","id":"osm:relation:7142951","properties":{"sourceId":"isie-best-effort-imada-525553-20260928","officialCode":"525553","governorateCode":"52","delegationCode":"5255","nameAr":"الطاهر صفر","officialSourceNameAr":"الطاهر صفر","sourcePdfURL":"https://www.isie.tn/wp-content/uploads/2023/CartesCirconscriptionsElectoralesLocales2023/مدنين/جرجيس/الطاهر صفر - (جرجيس).pdf","sourcePdfSha256":"63bc38d93ff2010ed6ad132fae9b113685eae5c228e8d715d0f50a8939eb06c1","sourceGeometrySha256":"37efebf087b3cea4a5826237f6c731449c00ff6b46bee908cd786cd6fb1f2859","geometryMethod":"Pinned native ISIE red-face linework; exact registered EPSG:32632 face WKB; transformed to EPSG:4326 with always-XY axis order."},"geometry":{"type":"Polygon","coordinates":[[[11.104694186877904,33.51317244652001],[11.104775832285476,33.51307729437655],[11.105019641755113,33.5127449761405],[11.105181805131712,33.51250780990969],[11.10579909804492,33.51141903883449],[11.106557332388615,33.51037473886217],[11.107422336043523,33.50911765223885],[11.107449171575274,33.5090703133754],[11.107503974797117,33.509022498502304],[11.107503410453274,33.508999067037585],[11.10755821182328,33.50895125217324],[11.107691831421388,33.508691130562845],[11.107906523510266,33.508312423397996],[11.108390141350363,33.507483762887375],[11.108766404906914,33.5068444544057],[11.10879267622669,33.50677368529652],[11.10890001792396,33.50658433167572],[11.108981089867969,33.50646574560168],[11.10903475953837,33.50637107023589],[11.109142100211594,33.50618171494353],[11.109273452228805,33.505827869046186],[11.109374579613455,33.50538078253159],[11.10939972054014,33.50526315190393],[11.10942712045499,33.50523924409237],[11.109732190165657,33.50396826792976],[11.109727106918873,33.50375739530446],[11.109725412467187,33.503687102440836],[11.109807610466712,33.50361537882482],[11.109889806517092,33.503543653699026],[11.110111256126626,33.50344610874175],[11.110360669214892,33.50334808387783],[11.110555850605385,33.503321307513076],[11.1106391758405,33.50329644331046],[11.110918812311267,33.50329166201879],[11.111489388741,33.50375070522303],[11.112651988543005,33.503238574066856],[11.11381344241684,33.50267957119056],[11.1140046576473,33.50248877722308],[11.114086850841119,33.502417049444695],[11.114168476161367,33.50232189174738],[11.11427636690633,33.5021559639086],[11.114410522680625,33.50191926587057],[11.115251897215765,33.500850051727845],[11.115251330995841,33.500826621839224],[11.115278727861043,33.50080271134394],[11.115605785100982,33.50044550732497],[11.11599159749721,33.50020449488907],[11.117285430947634,33.49933847250345],[11.117423543651956,33.49926578357899],[11.117671235426116,33.499097455136756],[11.118164915188618,33.498690507307856],[11.118329283872002,33.49854704670546],[11.118658023168894,33.498260124839426],[11.118712246362207,33.498188875587594],[11.118793293804407,33.49807028382856],[11.118937641994961,33.49825532608108],[11.118939343469664,33.49832561560847],[11.118996398849843,33.49837151849034],[11.119109949549001,33.49843988824555],[11.119251462806824,33.49850778088476],[11.119367279517006,33.498669872769845],[11.11936784679927,33.49869330260433],[11.1193404517065,33.49871721245203],[11.11934101898256,33.49874064228673],[11.119313056598688,33.49874112229415],[11.119286228810306,33.49878846494623],[11.119286796073295,33.49881189478149],[11.119152092713332,33.49902516614991],[11.119097869407845,33.499096415591765],[11.118516162752252,33.500489359099056],[11.118387122307045,33.500936934185226],[11.118150200324006,33.501550438631554],[11.117997732763333,33.5021859348087],[11.117740778632237,33.50312794358917],[11.11761570299803,33.503739528323706],[11.117207393498305,33.50536389003216],[11.117363656430731,33.50604097061722],[11.117973415666485,33.50811666946022],[11.118380636771407,33.509914559600226],[11.11774575838065,33.51142561092763],[11.11766809712424,33.511684782725126],[11.117457410499474,33.51222751695995],[11.117155449619494,33.51246709644973],[11.117053789491369,33.5128907592757],[11.116981796498564,33.51338423330822],[11.11707987106348,33.51396855006856],[11.117206481713701,33.51457581673159],[11.117236150418904,33.5146456279108],[11.117322319590812,33.51473790941815],[11.117464424169707,33.514829232782496],[11.117605963591778,33.51489712316032],[11.117609933782457,33.515061134736705],[11.117584234813652,33.515155336735496],[11.117478602574648,33.51541498823774],[11.117456873336758,33.51567320030024],[11.117376941388635,33.51583865121438],[11.117350674834388,33.515909421882775],[11.11735351043123,33.51602657237083],[11.117356346080602,33.51614372434653],[11.117358047434843,33.5162140137427],[11.11733178254649,33.51628478437764],[11.117305515840217,33.51635555503841],[11.117224448863952,33.51647414627459],[11.117144514034363,33.51663959709529],[11.116988047575758,33.51711108036127],[11.116727080000855,33.51788907397354],[11.116466106365055,33.518667068647744],[11.116339869767552,33.519231790824875],[11.116313034579605,33.51927913150743],[11.116285634208612,33.51930304086135],[11.116230263018837,33.51932743129974],[11.116203994583394,33.51939820027532],[11.11620626216727,33.519491922470635],[11.116207962808009,33.519562211881],[11.116209663490721,33.51963250278056],[11.116211364179357,33.519702793679244],[11.116213064873916,33.51977308457705],[11.116215332463858,33.51986680527608],[11.116159962643888,33.5198911941752],[11.116077755504074,33.51996292372112],[11.115995550006767,33.520034653186485],[11.115913911223798,33.52012981389749],[11.115780301017471,33.52038994217194],[11.115758566327713,33.52064815547894],[11.115680327329837,33.520883894896976],[11.115682027707305,33.52095418729554],[11.115569017548601,33.520909242470466],[11.115287625255565,33.52084374702547],[11.115061604006817,33.520753859528824],[11.114977130580167,33.5207318676134],[11.114807615540675,33.520664453814526],[11.114215733399904,33.52048707515282],[11.114131826759841,33.52048851247186],[11.114075321413006,33.520466037861084],[11.113849304151387,33.520376151007426],[11.113792799017281,33.520353679241694],[11.113229456315132,33.52019924650421],[11.113059943490443,33.52013182723225],[11.112551974361647,33.51995300374442],[11.112071410740764,33.51975026959016],[11.112014906438032,33.519727796976674],[11.112016037947997,33.519774656708584],[11.111990897486153,33.519892287636125],[11.111963495687561,33.51991619608487],[11.111965192960055,33.51998648717285],[11.111910951489307,33.520057735472925],[11.111858408909415,33.52019927481194],[11.11166205897799,33.52017919190774],[11.111577021205322,33.52013376774335],[11.111380105943796,33.520090257490125],[11.111211161990084,33.52004626695623],[11.111041650920248,33.519978846335384],[11.111013681554358,33.51997932473515],[11.11087100920464,33.519864565706],[11.11072890441772,33.519773236350616],[11.11064273492496,33.519680950274335],[11.110529163497466,33.51961257227355],[11.110416722921705,33.51959105543251],[11.110332251607165,33.51956905876252],[11.110219809349136,33.51954754176872],[11.110079401460595,33.51952650279287],[11.109854518948232,33.51948346671146],[11.109686142006007,33.51946290540702],[11.109545732573089,33.519441865845415],[11.109348254674464,33.51937492085698],[11.109179311230179,33.51933092748054],[11.109066306339267,33.51928597947272],[11.109009804789135,33.51926350392302],[11.108953866443755,33.5192644597808],[11.108925334136925,33.519241507755396],[11.108869395802653,33.51924246357448],[11.108841426634532,33.51924294147455],[11.108757520904287,33.51924437510657],[11.108701582562112,33.51924533084994],[11.108645645995383,33.5192462865377],[11.108561173660547,33.5192242901476],[11.108504672269405,33.51920181436039],[11.108420200008837,33.519179817870835],[11.108419635235771,33.519156387948435],[11.108362004410115,33.51908705224628],[11.108333470534998,33.5190641001058],[11.108276404572097,33.51901819428267],[11.108246741261613,33.518948380778895],[11.108047006694466,33.518787712422785],[11.108129219706555,33.51871598798365],[11.108294208308422,33.518595970402025],[11.108376983904192,33.51854767576743],[11.108347885470833,33.51850129369584],[11.10831822230349,33.51843148019911],[11.108288560964633,33.51836166666232],[11.108258897898134,33.5182918531462],[11.108200136644482,33.518175657504436],[11.108141375519274,33.51805946033654],[11.10808148702615,33.51789640323777],[11.10799306544858,33.517710393852795],[11.10796057975369,33.51752342907447],[11.107960015104211,33.5174999976488],[11.107987419106882,33.51747609003419],[11.108069064570158,33.51738093576286],[11.10817698437232,33.51721501243357],[11.108176419707032,33.51719158250006],[11.108256937079632,33.51704956673244],[11.108338017123407,33.51693098088218],[11.108364289650149,33.51686021335949],[11.108418532265766,33.516788966544],[11.108469384548204,33.51657713717064],[11.108493399641512,33.516412646888],[11.108462607718797,33.51629597351588],[11.108434076518627,33.51627301983382],[11.10834734836727,33.51615730194583],[11.108086039594294,33.515763284929776],[11.107450995446598,33.51495372908215],[11.107336303982327,33.5148384878549],[11.107335739558804,33.51481505640967],[11.107307207408287,33.51479210395257],[11.107249016170323,33.514699337582535],[11.107134325282534,33.51458409465009],[11.107019634737632,33.51446885308761],[11.10684957348487,33.51437799615408],[11.106649852359649,33.51421732492259],[11.106621886546511,33.51421780222854],[11.106593354780538,33.514194849589835],[11.106167641497544,33.51394427299392],[11.104751246989803,33.51321835276839],[11.104694186877904,33.51317244652001]]]}}]}
