{"type":"FeatureCollection","features":[{"type":"Feature","id":"osm:relation:7142931","properties":{"sourceId":"isie-best-effort-imada-525557-20260928","officialCode":"525557","governorateCode":"52","delegationCode":"5255","nameAr":"واد التياب","officialSourceNameAr":"وادي التياب","sourcePdfURL":"https://www.isie.tn/wp-content/uploads/2023/CartesCirconscriptionsElectoralesLocales2023/مدنين/جرجيس/وادي التياب.pdf","sourcePdfSha256":"ceee060b3b2f55fb08fd3cc345709f08ab1b0bb5cab9bd9ffa7a64c3f6a490d7","sourceGeometrySha256":"8a6a4b2c951bd7c043ee8cbef7e263ac13200fd90992ed848b6cdf3f99f561c9","geometryMethod":"Pinned native ISIE red-face linework; exact registered EPSG:32632 face WKB; transformed to EPSG:4326 with always-XY axis order."},"geometry":{"type":"Polygon","coordinates":[[[11.045590087057423,33.5536398918449],[11.04530199412997,33.55364463683761],[11.04459584302827,33.55338051153059],[11.043926799414988,33.552943425697464],[11.043216604962705,33.55250701893817],[11.042591159198928,33.552172615710035],[11.042091618229993,33.55193954650966],[11.041551734584317,33.55174160756387],[11.041012663358298,33.551578122019],[11.04076492027295,33.55154772401075],[11.040101575539401,33.5513518072477],[11.039398697088577,33.551225474406344],[11.039192110791921,33.55119439737397],[11.039027489254538,33.55119710021603],[11.038862869439912,33.55119980281074],[11.038739403255933,33.55120182963476],[11.03865709245974,33.55120318078243],[11.038574781658047,33.55120453187543],[11.03853362625514,33.551205207401416],[11.038286693808816,33.55120926027036],[11.037832368372547,33.55114777737103],[11.037461161133026,33.55111939844843],[11.037212613440909,33.55105453726059],[11.036922909009368,33.550990350574175],[11.036633206717626,33.550926163163965],[11.036466968960825,33.550859950670436],[11.036258769917398,33.55075996255626],[11.035759251192477,33.55052686681803],[11.03509350125404,33.55022755449475],[11.034968420929964,33.55016066552199],[11.0340121722827,33.54976269893061],[11.033513472016812,33.549564049671574],[11.033014775696978,33.54936539828197],[11.032889698142668,33.549298507091954],[11.032764620777286,33.54923161576756],[11.032721852772038,33.5491633772337],[11.032636318714399,33.54902690008337],[11.032466859426204,33.54882286068194],[11.032466052845336,33.54878840462744],[11.032424093613194,33.54875462199602],[11.032382939214456,33.54875529543421],[11.032340978285172,33.54872151280118],[11.031551790566347,33.548424200547764],[11.031136217663004,33.54825865092939],[11.030140463749019,33.547930240972455],[11.029558669785539,33.54769846416386],[11.02971764748276,33.54745458131795],[11.030072725214948,33.546793864812926],[11.030193768945653,33.54668847852105],[11.030233310289825,33.546618893632754],[11.030312394539434,33.54647972379464],[11.03047056230501,33.546201383986435],[11.030549645820978,33.54606221401635],[11.030665046735068,33.54571563747414],[11.030704588163665,33.545646052441434],[11.030901488537323,33.545263671005394],[11.03102091739164,33.545089371784016],[11.031098387248344,33.544881289298836],[11.031174243130545,33.54460429459033],[11.031332405041951,33.54432595675332],[11.031608379825599,33.54380440390373],[11.031806884771305,33.5434909363458],[11.031922276787375,33.54314435590588],[11.032081240014838,33.54290047041591],[11.032119166600902,33.542761972800754],[11.032276516060866,33.54244917782365],[11.032515358745256,33.542100577001605],[11.032713050233971,33.5417526491676],[11.032909127135072,33.54133580888593],[11.033105200566292,33.54091897128689],[11.03322219946417,33.540641301963205],[11.033536882252266,33.54001570649614],[11.033615955636142,33.539876534831365],[11.033973394869738,33.539319173975095],[11.034132345825276,33.53907528910807],[11.034492199851284,33.53862129514514],[11.035010191158085,33.537888958289955],[11.035327272171862,33.53736672415294],[11.035406340436062,33.5372275514865],[11.035602395175394,33.53681071044085],[11.035720188616862,33.53656749514398],[11.035999342951747,33.536183758036934],[11.036078409138703,33.53604458499706],[11.036437435020426,33.535556132869075],[11.03655603061143,33.53534737295346],[11.036675435230842,33.53517306895077],[11.036995730478077,33.534788655196],[11.03723534412368,33.534474505287584],[11.037516101609382,33.53415967720158],[11.038036465324543,33.53353069724244],[11.038197819926408,33.5333901729026],[11.038599585341093,33.532969949211996],[11.038720599882563,33.53286455547073],[11.038961010758667,33.5325848556505],[11.039279667399237,33.53213152751592],[11.039399062328961,33.53195722117228],[11.03967899687503,33.53160793263442],[11.039838727412889,33.531398497280634],[11.04011703856488,33.53098029590269],[11.040358249060144,33.53073504964145],[11.040596219480236,33.530351979050955],[11.040755945592442,33.53014254264375],[11.041114921717444,33.52965407549669],[11.041274643535223,33.52944463560152],[11.04171509396945,33.52892036173444],[11.041794954472389,33.528815641449256],[11.042114392853035,33.5283967598778],[11.042273301942839,33.52815286284316],[11.04235397096563,33.52808259819541],[11.042433830027795,33.52797788046324],[11.042711310029073,33.52752521793493],[11.043153359145867,33.52706984852605],[11.043596217543191,33.52664893648385],[11.044115684959062,33.52598547763918],[11.044394769636003,33.52560172365876],[11.044593999793626,33.52532269103529],[11.045435292582395,33.524343706974555],[11.04563532768397,33.524099128767496],[11.046157195067167,33.52353903003383],[11.046316895655789,33.523329584292],[11.046516926014064,33.52308500480451],[11.047281572994336,33.522348553117965],[11.047563069525586,33.522068163287116],[11.048328510893553,33.52136616448473],[11.048530155395888,33.52119049378507],[11.048772127723488,33.520979688546355],[11.049377865832039,33.52048712939368],[11.050099700396352,33.5196824315809],[11.050458582474938,33.51919394309968],[11.050699731715323,33.51894867858619],[11.050982832295082,33.51873719039897],[11.051307067594056,33.51852502249223],[11.051632931278109,33.51838176535551],[11.051795862704324,33.51831013647951],[11.051917654412135,33.51823918678479],[11.052239448550546,33.51792364910988],[11.052400751586294,33.517783110806],[11.053325788478412,33.516871630640956],[11.053846749445343,33.51627704369516],[11.054249177599928,33.51589122971499],[11.05477338768239,33.51543446516272],[11.054890286210094,33.51515677820085],[11.054966046328845,33.51487977440442],[11.055004740665336,33.51477572679008],[11.055163589787794,33.51453181501714],[11.055561112651587,33.513939262735185],[11.055878804022068,33.5134514377554],[11.056158614679825,33.51310211865405],[11.056117477778079,33.51310279934331],[11.055339134619379,33.5132535528881],[11.054114796582116,33.51368742599353],[11.05268475848676,33.51412468831852],[11.051339419705549,33.51466394394026],[11.051095035354981,33.51477138591023],[11.050849021229466,33.51480991577975],[11.050603819594805,33.51488290102185],[11.049987563624034,33.51492753860231],[11.049699598121206,33.514932289023996],[11.04715067328889,33.515043246731594],[11.046286777382546,33.51505747619228],[11.046364187194674,33.514849385592676],[11.04667868990598,33.5142237584393],[11.0469198336864,33.513978501282004],[11.046999674958498,33.51387377815761],[11.047040001168934,33.5138386445463],[11.047162602278036,33.51380215550766],[11.047365855329959,33.51369539894189],[11.047525536164008,33.51348595504367],[11.047762621232001,33.513068416697934],[11.04796019051338,33.51272047069581],[11.047959378893177,33.51268601477317],[11.048035159549014,33.51240901143951],[11.04811174794192,33.512166464046054],[11.048108501297225,33.51202864035502],[11.04764951030492,33.51176045004346],[11.047689023823448,33.51169086032226],[11.047763181718313,33.51134494816468],[11.047881721298594,33.51113617887804],[11.047959932325169,33.51096254342413],[11.048036526848772,33.510719995949486],[11.048113929172747,33.51051190734433],[11.048152626682503,33.51040786162365],[11.048268729155476,33.51009572422777],[11.048387265951579,33.50988695452804],[11.048464666719957,33.50967886281674],[11.048502555235395,33.50954036101733],[11.048538820215157,33.50933295027109],[11.048618655510593,33.509228226264234],[11.04881864884757,33.50898364400891],[11.049458129425888,33.50818030827494],[11.049497643478148,33.50811071799769],[11.049496831390345,33.50807626208258],[11.049450008745191,33.50783574910968],[11.049449196684723,33.50780129319201],[11.049848359090857,33.50727767011645],[11.050449125046017,33.50657837895292],[11.050737059255207,33.50657362789001],[11.050777384008372,33.50653848730938],[11.050858835944922,33.50650267970213],[11.051056378974119,33.50615472652754],[11.051051503122874,33.50594799117032],[11.051569983716847,33.505250046993346],[11.051855478012035,33.50514192579306],[11.051976438808273,33.505036520721816],[11.052217542969261,33.504791254436036],[11.052537662434583,33.50440680553092],[11.05261667549463,33.50426762919344],[11.052656181864288,33.5041980380878],[11.05301986993031,33.50391627627799],[11.053377047748745,33.50335886662274],[11.053572133372333,33.50290754235122],[11.053729336036087,33.50259472099966],[11.053770468027924,33.502594041291246],[11.055665792122783,33.50270058326269],[11.058965312559577,33.503025125149975],[11.059954110283995,33.50307767797203],[11.061314730492189,33.50319299471748],[11.063046359650114,33.5033366073054],[11.063994847212651,33.50342426605452],[11.064118243564572,33.503422216619974],[11.065686169612812,33.50360298008546],[11.066675793837138,33.503689934379096],[11.06725328213457,33.50374926788266],[11.067294414322442,33.50374858366389],[11.067541203932889,33.50374447812269],[11.06762428742476,33.503777565026695],[11.067830767588724,33.5038085987195],[11.06832681216175,33.50390375147151],[11.070227091710084,33.50421680170307],[11.071465160801496,33.504368510849915],[11.07150629317279,33.504367825221706],[11.071547425542686,33.504367139579834],[11.072082963659678,33.50439268049789],[11.07319435494546,33.50440861367723],[11.073276619634552,33.50440724125757],[11.074016179895828,33.504360431621535],[11.074548434006298,33.504248140206315],[11.075531488986842,33.50405938594926],[11.076516191316623,33.50393952294813],[11.077008952804833,33.50389681913917],[11.077911387055016,33.50377833174165],[11.07840496307691,33.50377007786668],[11.079472744550404,33.50368327690351],[11.080953482874486,33.503658490553654],[11.08243257635777,33.503564775959646],[11.083500349389698,33.50347794050339],[11.083664868949976,33.503475182108176],[11.085681143467365,33.50347582777294],[11.087490097588974,33.50341098528488],[11.088024806975763,33.50340200211962],[11.088436121727012,33.50339509042366],[11.088886912691558,33.503318575816394],[11.089010306945454,33.50331650159681],[11.089626443209514,33.50327167370735],[11.08999662555885,33.503265448478395],[11.090490201847325,33.503257146454224],[11.091353959864438,33.50324261318501],[11.091887838162904,33.503199158366705],[11.09307980864945,33.50314461873254],[11.093613685074807,33.50310115652682],[11.093819341022462,33.50309769159995],[11.093942734574139,33.50309561248014],[11.094108088900313,33.50312729509877],[11.094273443335542,33.50315897749172],[11.095431750604467,33.50341520297873],[11.09563823728228,33.50344618993935],[11.096176265728065,33.50357498544661],[11.096301320760572,33.503641813789834],[11.09642554543415,33.503674187083604],[11.09642637612213,33.503708647839396],[11.0965094693724,33.50374170909212],[11.09663535552392,33.503842991987426],[11.09684599715159,33.5040462514036],[11.097013846531183,33.504181294727076],[11.0970566397714,33.50424951041686],[11.097097771416301,33.50424881629485],[11.097181696431635,33.50431633779998],[11.097264790676212,33.50434940434975],[11.097388185731983,33.50434732173003],[11.097594675161202,33.50437830530977],[11.097718894338307,33.5044106773602],[11.097719725421138,33.50444513224252],[11.09788591459263,33.50451126453461],[11.09809739197745,33.50474897649817],[11.09843559195596,33.50512242380475],[11.098272726505588,33.50519411178335],[11.097542321690733,33.5056200697943],[11.097177954439235,33.50586750204608],[11.097096520361774,33.50590333943595],[11.096654032123679,33.50632443311396],[11.096612899485226,33.50632512712654],[11.096533126225154,33.506429879803854],[11.096298788885969,33.506950866963784],[11.096220675847816,33.50712452926695],[11.096182034498511,33.507228587853255],[11.09606195732161,33.507368489041326],[11.095942710240077,33.50754284502927],[11.09586459601062,33.507716507140415],[11.09570587539885,33.507960463596646],[11.095055211509175,33.508281655887025],[11.094651352213202,33.508598681759594],[11.094329750906496,33.50891432288878],[11.094208838629646,33.509019767515916],[11.094171023942495,33.50915828050479],[11.094093734635296,33.50936639658385],[11.094058409021013,33.50960827434711],[11.094065047356235,33.50988391089442],[11.093583878898865,33.51040905273685],[11.093185803937349,33.510967259041955],[11.093107681397589,33.51114091965597],[11.093858068562712,33.51154190386068],[11.093697676405924,33.51171695115155],[11.092973000636924,33.51238406642171],[11.092852082041547,33.512489509918815],[11.092690027444545,33.512595646131835],[11.092527143161936,33.51266732719535],[11.092282816147554,33.51277484548632],[11.092040982853296,33.512985731000455],[11.091760492387678,33.513300673618176],[11.09152030722403,33.51358046825471],[11.091359906649767,33.513755512789885],[11.091197847844319,33.51386164719063],[11.090792284756683,33.514109754833015],[11.090344754241153,33.51432409831484],[11.09018269309905,33.51443023146612],[11.09006093981821,33.51450121453004],[11.090021459836176,33.51457081649412],[11.089981979793233,33.51464041844731],[11.089904676148265,33.51484853231474],[11.08982571551194,33.514987733226455],[11.089707274205937,33.515196538893015],[11.089425947118217,33.51547702159845],[11.088988341868998,33.51610482063058],[11.088909378770236,33.51624402395247],[11.088751451841707,33.51652243046564],[11.089287069568483,33.51654789375888],[11.090645433496643,33.516559510433545],[11.091221360303926,33.516549818145506],[11.091836766241295,33.51647052361324],[11.092369888817394,33.51639260884849],[11.092861050294811,33.51628092973151],[11.093065078301212,33.516208555015126],[11.093186001556166,33.51610311117883],[11.09334640239464,33.51592806431365],[11.09386624838554,33.515298864620235],[11.095922256815898,33.51522972994747],[11.096375593199527,33.515256550646065],[11.096788623955078,33.51531851874964],[11.09703876989893,33.515452172480494],[11.097372021896854,33.51561889167534],[11.097743917881624,33.51568155091468],[11.098036859518407,33.5158834177068],[11.098129944709598,33.516329940882166],[11.09821637758529,33.51650082257361],[11.098387581068204,33.516773681966214],[11.097980370493564,33.51695290306009],[11.097450569325174,33.517168658393224],[11.097124792294144,33.51731203310723],[11.096920765498737,33.51738441447369],[11.096475727918719,33.517702144586885],[11.096234716139838,33.5179474932319],[11.096031517899597,33.51805432805444],[11.095748534829188,33.51826591500335],[11.094655243343297,33.519008195568084],[11.094047293722,33.519397598610155],[11.094006984981515,33.519432749796756],[11.093398199555466,33.51978769496462],[11.09319582316319,33.51992898029768],[11.092991786706168,33.52000135552275],[11.092787749893763,33.52007373042379],[11.092624022453817,33.52011095716687],[11.092541743914916,33.520112343004534],[11.092460294862416,33.52014818369856],[11.09229657409587,33.52018540990137],[11.09225626419669,33.52022055763467],[11.092092536216713,33.520257783693275],[11.092011086829356,33.5202936241033],[11.09188932725464,33.52036461208348],[11.091403945111443,33.52071747273788],[11.090875761373471,33.521002111196786],[11.090591098378576,33.52114478014681],[11.090429853935879,33.52128536602034],[11.090309748993942,33.52142526244042],[11.09022995503814,33.521530011646476],[11.090189643600693,33.52156515583551],[11.090148503579538,33.52156584797911],[11.090108192232284,33.52160099798414],[11.090026740654025,33.52163683424075],[11.089945289076617,33.521672673366574],[11.089904148998146,33.52167336543097],[11.089863008918263,33.52167405748171],[11.089821868836975,33.52167474951881],[11.089780735730722,33.5216754414249],[11.089698448584661,33.52167682554818],[11.089575035296122,33.52167890133735],[11.08953389520498,33.52167959327888],[11.088875653555252,33.521690662486854],[11.088834513440181,33.521691354196314],[11.088794201411716,33.52172650087503],[11.08875306127754,33.52172719255809],[11.088671609045516,33.52176303086865],[11.088672437087476,33.52179748585383],[11.088632952972063,33.52186708746928],[11.088633781001956,33.52190154245474],[11.088634609033262,33.521935997439975],[11.088636265100096,33.522004907409844],[11.088637921172564,33.52207381737887],[11.088640405291834,33.522177182330815],[11.088601749023328,33.52228123892376],[11.088603405085754,33.52235014889121],[11.088522780218359,33.52242044210984],[11.088363185982073,33.52262993837727],[11.088161622442982,33.5228056709785],[11.088040683928556,33.5229111103945],[11.0879197451209,33.523016549701964],[11.087676211242435,33.523158517992876],[11.086746525032316,33.52386351262997],[11.08658609663572,33.52403855181008],[11.086424013147937,33.524144680760045],[11.08638287180667,33.52414537169979],[11.086261102026167,33.52421635156634],[11.085648115793767,33.524398988624704],[11.085526345098502,33.524469970722784],[11.08540622786921,33.52460986279079],[11.085125677273702,33.524924792194014],[11.08500390540904,33.524995773817196],[11.084923275158717,33.52506606486949],[11.084720872379384,33.525207337236274],[11.084517642429658,33.525314154237634],[11.083663582256305,33.525742106108616],[11.083542634141939,33.52584754144973],[11.083502318038644,33.525882686539305],[11.083420859644285,33.525918521604844],[11.083182265979625,33.526267209144486],[11.083063794517262,33.52647601222554],[11.082822720332937,33.526721333903886],[11.082742912560317,33.526826078733656],[11.082663930420358,33.52696527860612],[11.082582470658172,33.527001113166286],[11.082134853535601,33.527215429880656],[11.08168640869453,33.527395289946625],[11.081604122683936,33.527396668782956],[11.081482351369612,33.52746764704136],[11.081400890546941,33.5275034779374],[11.081154857386833,33.52754206884347],[11.080661965284762,33.52758479408398],[11.080132053638613,33.52780048200304],[11.07972391993909,33.527945191139246],[11.079683601293683,33.52798033507036],[11.079643282615688,33.52801547898939],[11.079602139263967,33.52801616774691],[11.079603788547638,33.5280850780456],[11.079606262483669,33.52818844349208],[11.079649879914415,33.52829112017194],[11.079692672766408,33.52835934168535],[11.07973464098234,33.52839310803623],[11.07977743395402,33.52846132951477],[11.079778258608673,33.528495781737476],[11.079738764523649,33.52856538375637],[11.079576663952787,33.52867150139109],[11.079496025862294,33.52874178916804],[11.07941456305092,33.52877762174739],[11.079333924729484,33.52884790942638],[11.07925081269327,33.528814831599654],[11.07879493409435,33.528684585253814],[11.078712646711407,33.52868596221575],[11.078671503017837,33.528686650676235],[11.078632014854682,33.52875624934012],[11.078593336942419,33.528860303393614],[11.078472385237237,33.5289657340159],[11.078432065611306,33.52900087757144],[11.078351426261664,33.5290711646463],[11.078311106537955,33.52910630816561],[11.078271610929892,33.5291759068452],[11.078150651420755,33.52928133729657],[11.078070011585035,33.5293516242038],[11.078030515678558,33.52942122281554],[11.07799019566432,33.52945636623966],[11.07790955553807,33.52952665305169],[11.07778777113335,33.52959762799878],[11.077546673286765,33.529842940187734],[11.077466032443473,33.529913226734145],[11.077424888136099,33.5299139148027],[11.07734342332139,33.52994974608717],[11.077261958437294,33.52998557732039],[11.077220814090325,33.529986265322464],[11.077136877945266,33.529918730900185],[11.077094909921634,33.52988496366555],[11.0770529419306,33.52985119641528],[11.077010974041972,33.529817432069756],[11.076928685492806,33.52981880788738],[11.076806899766499,33.52988977899202],[11.07660447223149,33.53003103891873],[11.076523830425158,33.53010132488505],[11.07640286747121,33.530206753744],[11.076362546421374,33.530241896672834],[11.076280257436284,33.530243272074976],[11.076197145086478,33.530210192210745],[11.076158470638003,33.530314245500456],[11.076161764034506,33.53045206634727],[11.076084414781047,33.530660172898294],[11.07612720616773,33.530728395683006],[11.076046563340785,33.530798681370534],[11.075926429036421,33.53093856198806],[11.075846609098395,33.53104330277121],[11.075724820835255,33.53111427581788],[11.075561887411064,33.53118593622418],[11.075522388695129,33.53125553412514],[11.07540059986107,33.53132650687199],[11.075361100955158,33.53139610472739],[11.075280456889596,33.53146638995607],[11.075198989690168,33.53150221991006],[11.07511916836732,33.531606960268505],[11.075037700966718,33.53164279012315],[11.074998201633353,33.53171238787603],[11.07487805749171,33.53185227060653],[11.07479494405056,33.53181918984705],[11.074671508206883,33.531821251452854],[11.074588394867247,33.53178817055033],[11.074505281588612,33.53175508958937],[11.074463313613096,33.53172132146634],[11.074422168370981,33.53172200857],[11.074218087382249,33.53179435437643],[11.074177764706352,33.53182949664701],[11.073937472936542,33.532109257598265],[11.073735857941209,33.53228496841458],[11.07365521520358,33.53235525259832],[11.073614892041526,33.5323903947012],[11.07357539123478,33.532459992048736],[11.073536712742833,33.53256404464235],[11.073540824642825,33.53273632092417],[11.073501323633067,33.53280591825273],[11.07346182256231,33.53287551557036],[11.073463467278096,33.53294442608352],[11.07342314370454,33.532979565213786],[11.07322317023887,33.53322418580671],[11.073182846509622,33.533259327786325],[11.073142522747778,33.53329446975385],[11.073101376726056,33.533295156447075],[11.073061052913912,33.533330298389764],[11.073020729069171,33.53336544032038],[11.072821575729566,33.53364451559266],[11.072582096847746,33.53395873238347],[11.072383766261868,33.5342722622452],[11.072344260183263,33.53434185930865],[11.072304760951516,33.53441145332434],[11.072306404844948,33.53448036387092],[11.072308048743974,33.534549274416655],[11.072309692648593,33.534618184961566],[11.072311336558807,33.534687095505625],[11.072312980474614,33.53475600604885],[11.072193649832789,33.5349303417076],[11.072113821849243,33.535035080332406],[11.071992846752279,33.535140505269624],[11.07167271017096,33.535525000827754],[11.071554198923826,33.535733791220956],[11.071434043833975,33.535873670947566],[11.071394539806871,33.53594326768974],[11.07135421410107,33.535978409135566],[11.0712719194201,33.53597978141681],[11.071190446286018,33.536015608932395],[11.071150120461912,33.53605075031578],[11.070946029956234,33.536123091113375],[11.070906525426567,33.5361926877164],[11.070826694765849,33.53629742559454],[11.070746042527976,33.536367708130385],[11.070706537664124,33.53643730175695],[11.070667032808874,33.536506898293],[11.070586380250544,33.53657718073491],[11.07054276873893,33.536474503658056],[11.07054194735952,33.536440045437054],[11.070499978557397,33.53640627894171],[11.070416040911745,33.53633874006318],[11.06933143328725,33.535736371539926],[11.069080446071457,33.53556820747677],[11.068788312687051,33.53540072816122],[11.068662409763585,33.53529942085117],[11.068074869831722,33.53482663785467],[11.067402579535027,33.53425185827895],[11.06735979295446,33.53418363231764],[11.067229793793251,33.533910043551884],[11.067094876377526,33.53342972225551],[11.067009304708545,33.53329327295613],[11.066800298377315,33.53315887443892],[11.066590469561795,33.532990020193424],[11.066186384318522,33.53330696341339],[11.065740330359713,33.53359013132339],[11.06517329480905,33.53397871912896],[11.06428198910365,33.53457950496081],[11.063917401177493,33.5348268465459],[11.063310835360713,33.53528502100515],[11.062663937237328,33.53577832846961],[11.062380813232368,33.535989843866176],[11.062138017557144,33.53616622008612],[11.061854073130487,33.5363432788736],[11.061286184173111,33.53669739163331],[11.060190716397999,33.537370477776996],[11.059907581003344,33.53758198496948],[11.05966477924689,33.53775835659624],[11.05942115606498,33.53790027230289],[11.059259829335833,33.53804082323896],[11.058937174312357,33.53832192453061],[11.058089381916757,33.53902535320354],[11.056518017821826,33.54046460917233],[11.055994488934802,33.5409558403663],[11.055672631588573,33.541271389370266],[11.05551047705047,33.54137748021534],[11.055308802592148,33.54155316299566],[11.054944971223952,33.54183493562872],[11.05462066132079,33.5420471152837],[11.054377832691891,33.54222347443468],[11.054095482247302,33.54246942785213],[11.053813130204556,33.54271538067672],[11.053450918533512,33.54306606050071],[11.053210532083762,33.54334578438567],[11.053010477550595,33.54359037499778],[11.05257165674398,33.54418360236079],[11.052252214474253,33.54460250732602],[11.051772231376306,33.54519641211787],[11.051292245244891,33.54579031226465],[11.051172857286854,33.54596462953648],[11.051054282738583,33.54617340237619],[11.050698555725845,33.54679971738289],[11.050578351550781,33.54693957847746],[11.050418624649431,33.54714903016767],[11.050296792333349,33.547219979658685],[11.049976514943257,33.547604426631516],[11.04973772846469,33.54795305590652],[11.049226318627317,33.548961096380275],[11.049067391109995,33.54920500233544],[11.049029493089469,33.54934350403965],[11.04890846970359,33.54944890799609],[11.0488294134799,33.54958808863715],[11.048507495235327,33.549903620842365],[11.048225916473324,33.550184017858435],[11.048065361726135,33.550359005354736],[11.047864464515216,33.550569138673616],[11.047745879486158,33.550777902836835],[11.047388485877958,33.551335300990296],[11.047151304328818,33.551752840219464],[11.046992369628407,33.55199674376158],[11.046792278377767,33.55224132541387],[11.045992717723115,33.553254098962384],[11.045752276549067,33.55353381287581],[11.045590087057423,33.5536398918449]]]}}]}
