{"type":"FeatureCollection","features":[{"type":"Feature","id":"osm:relation:7142964","properties":{"sourceId":"isie-best-effort-imada-525555-20260928","officialCode":"525555","governorateCode":"52","delegationCode":"5255","nameAr":"البساتين","officialSourceNameAr":"البساتين","sourcePdfURL":"https://www.isie.tn/wp-content/uploads/2023/CartesCirconscriptionsElectoralesLocales2023/مدنين/جرجيس/البساتين - (جرجيس).pdf","sourcePdfSha256":"9f70dffcb1a8765086c636061b77c5b71a762d80043e3392d6df05a6d1655925","sourceGeometrySha256":"ac7eaeca984efab69b143f5c392eada6774b8f623e52619b609571bf3ee09dc7","geometryMethod":"Pinned native ISIE red-face linework; exact registered EPSG:32632 face WKB; transformed to EPSG:4326 with always-XY axis order."},"geometry":{"type":"Polygon","coordinates":[[[11.058874886682705,33.55727080244534],[11.0587704454932,33.55736178766252],[11.058491936090602,33.55760441448667],[11.058317161045622,33.55772632025476],[11.058212718722494,33.55781730503778],[11.058143090385515,33.557877961514706],[11.058072757093079,33.557908882232155],[11.05703354763681,33.55753949536719],[11.056035497111033,33.557407393672264],[11.055395455318752,33.55738831030975],[11.05496852424684,33.55736567432756],[11.054754004831917,33.557309757113956],[11.054394594012193,33.557137252051106],[11.053638853067255,33.556733373293724],[11.05335329847483,33.5566786308854],[11.053281557910017,33.55665007727485],[11.052603892514774,33.55654236285876],[11.052497336557531,33.55654413550487],[11.052461817903048,33.55654472636656],[11.052461115004848,33.55651499053159],[11.052425597867279,33.556515581357374],[11.052424894982266,33.556485845521586],[11.05238937484423,33.55648643638664],[11.05231763623492,33.55645788217312],[11.05228211761173,33.556458472981916],[11.05224589616533,33.55642932794114],[11.052210377552228,33.5564299187289],[11.052174156141254,33.55640077366564],[11.052138637538238,33.55640136443238],[11.052066897569762,33.55637281009235],[11.049766335023087,33.5552508968982],[11.0494424604606,33.555077796710435],[11.049047552432276,33.5549058702795],[11.049046850747505,33.55487613437302],[11.048546091919336,33.55473571168607],[11.04850987242063,33.55470656546905],[11.048080150473023,33.554564961429584],[11.04793667685778,33.55450784775425],[11.04739900165677,33.554308537913556],[11.04693306457733,33.55413778315331],[11.046538866275654,33.55399558429476],[11.045893942904772,33.55376830152093],[11.045750471939401,33.55371118519894],[11.045642518027366,33.55365347986473],[11.045607001156101,33.55365406870293],[11.045746268814348,33.553532769355144],[11.046024103110698,33.55326043424359],[11.046817874188125,33.552265601420174],[11.04698914971006,33.551995034358136],[11.047160425642215,33.551724464542794],[11.047399929796159,33.55133377207038],[11.04774247416385,33.550792633780844],[11.047879630810298,33.55058212441634],[11.048052303790447,33.55037102541417],[11.048225677282064,33.55018966466084],[11.048502790475823,33.54988758862528],[11.048816122880298,33.54961465820343],[11.048919161574542,33.54946420939757],[11.049022902954976,33.54934349642465],[11.049091128317327,33.54922337315546],[11.049227578555351,33.548983129039485],[11.04973645183785,33.547963261828045],[11.04997663494844,33.547602300925824],[11.050323362311412,33.5472395693343],[11.05042780119103,33.54714859375608],[11.050564945120621,33.54693808177474],[11.050704196018371,33.546816777378794],[11.051044598044463,33.546186423265524],[11.05118173904487,33.54597591068389],[11.051319583125519,33.54579513385165],[11.051767922236433,33.54522247869864],[11.052250365764653,33.54458975714946],[11.052560854250139,33.544197877189006],[11.053043285027272,33.54356515290927],[11.053215932004209,33.54335404747938],[11.053458198749633,33.54308229074019],[11.053840403937523,33.542718959394115],[11.054083370073723,33.54247693741955],[11.054397360320733,33.54223373012788],[11.05464172851019,33.542051176384845],[11.05495641899997,33.54183770363726],[11.055340724420242,33.54156357557499],[11.055549577895665,33.541381614105866],[11.055688813020334,33.541260304599284],[11.056001385427589,33.54095762186386],[11.05652280492917,33.5404729754309],[11.058087028527641,33.539019019019506],[11.058923092734451,33.53832088244322],[11.05927186054875,33.53804733548545],[11.059445889726218,33.537895693793104],[11.059655429099843,33.53774345925098],[11.059900480034013,33.53759063418116],[11.060179630635144,33.53737774179902],[11.061300450201436,33.53670458356307],[11.061860145495297,33.53633826388126],[11.062139992855471,33.53615510312557],[11.062385034752905,33.53600227091487],[11.062664171044656,33.535789373352614],[11.06332685666538,33.53527259080054],[11.063919924811074,33.53481646157172],[11.06430487844094,33.534572045850766],[11.065142967783432,33.53396307494856],[11.06577364987066,33.533595552875475],[11.066157175726913,33.5332916578972],[11.066611719307165,33.53298657268726],[11.06679350588345,33.53316201388373],[11.067010094774785,33.53330712444087],[11.06708394157041,33.533424877771225],[11.067202492807327,33.53392859749889],[11.06735018525361,33.53416410384419],[11.067423325863894,33.534252121249054],[11.068075936724181,33.534806387948265],[11.068656120976495,33.535302372462496],[11.06880098808333,33.535418934263475],[11.069053095680141,33.535563445628334],[11.069305912153409,33.53573768954337],[11.070421589883383,33.53634367590453],[11.070494026930499,33.53640195568187],[11.070530245490477,33.53643109555305],[11.070530954040926,33.536460831146],[11.070569298275448,33.53657917525977],[11.070638192667095,33.53648877698558],[11.070708504199573,33.536457852377076],[11.070741888361392,33.53636804982542],[11.07081078241235,33.53627765146552],[11.070915183226063,33.53618665729285],[11.070984788665186,33.53612599438187],[11.071125407705093,33.53606413977103],[11.071195718652923,33.53603321238306],[11.071266029549056,33.53600228495691],[11.071336340393488,33.53597135749258],[11.071371141383848,33.53594102595633],[11.071440743291712,33.53588036285684],[11.071544437091704,33.53575963256304],[11.07168080465442,33.535519366368774],[11.071991173939416,33.53512743914587],[11.072095575153693,33.53503644401105],[11.072199267068214,33.53491571322643],[11.072302246635516,33.53476524936709],[11.0723356285087,33.53467544393],[11.07233421032907,33.534615975315106],[11.07233208297728,33.53452676861102],[11.072330664747957,33.534467297474194],[11.072329246522802,33.53440782633672],[11.072327828301813,33.53434835519863],[11.0723612100714,33.53425855227651],[11.072567881929412,33.533987354688634],[11.072808642871193,33.53365608933315],[11.073050111407891,33.53335456164374],[11.073084201432767,33.53329449411658],[11.073119710114579,33.533293897700304],[11.073190018099085,33.533262969279136],[11.073224817378541,33.53323263727543],[11.073432190630387,33.53299117400529],[11.073466280256024,33.53293110638515],[11.073464861335856,33.53287163527571],[11.073498950895944,33.53281156764814],[11.0735323309921,33.53272176697859],[11.073528783614556,33.53257308920501],[11.073561454059604,33.532453550453475],[11.073631051704904,33.53239288625549],[11.073665140977488,33.53233281858937],[11.073734738454906,33.53227215433844],[11.073944239906853,33.53211989691926],[11.074150192339212,33.531818963957264],[11.07422049875827,33.53178803500345],[11.074395909706555,33.53169584468044],[11.074467632463282,33.5317243867275],[11.07450385326691,33.53175352542916],[11.074576285914938,33.531811802949306],[11.074682810038045,33.531810012455814],[11.074824842187564,33.53180762498877],[11.074896568176861,33.53183616672717],[11.075000252485546,33.531715433832375],[11.07506984851714,33.5316547688795],[11.075103936510176,33.53159470085952],[11.075208330269337,33.531503703337314],[11.0752786360292,33.53147277380502],[11.075348231672313,33.531412108708246],[11.07541782721831,33.5313514435755],[11.075522220355204,33.53126044580893],[11.075591812647739,33.531199780636875],[11.075731716160558,33.53110818555366],[11.075836815885978,33.53104692311237],[11.07594120821539,33.530955925018986],[11.076044179751301,33.53080545581265],[11.076113774326124,33.53074479032017],[11.076112353710927,33.530685319289574],[11.076142889052601,33.53047657343837],[11.076174134651362,33.5302975656153],[11.076172003764448,33.530208361586524],[11.076314743463877,33.53023570550499],[11.076350250822507,33.53023510821015],[11.076420555197213,33.53020418059845],[11.076419844738414,33.53017444256603],[11.076524945862058,33.530113179542916],[11.076593829103311,33.53002277829838],[11.07680331711025,33.52987051895792],[11.076943927770634,33.5298086581217],[11.076979431929903,33.52980806070381],[11.077015649691152,33.52983719872761],[11.077051867476676,33.52986633673979],[11.077088085286471,33.529895474740286],[11.07712430312054,33.529924612729125],[11.077232246096893,33.52998229112806],[11.077267753331238,33.52998169357412],[11.07733805708992,33.52995076293997],[11.077443868001751,33.52991923466419],[11.07747866445221,33.52988890155714],[11.077548257280295,33.5298282353161],[11.077755613500841,33.52958676539801],[11.077896219964062,33.529524903571335],[11.078001319215522,33.52946363935833],[11.0780354013472,33.52940357067237],[11.078069489454652,33.52934350187691],[11.078139078424524,33.52928283538187],[11.078242755217838,33.52916210001336],[11.078312346933346,33.52910143337875],[11.078347142754687,33.52907110004795],[11.078452241134912,33.52900983548105],[11.078486325797275,33.52894976663487],[11.078590712824315,33.52885876648068],[11.078623375165982,33.52873922916684],[11.07869367735696,33.528708295293434],[11.07872847288907,33.52867796186476],[11.078799486222927,33.52867676592952],[11.07926462644373,33.528817668736124],[11.079336351227637,33.528846207952604],[11.079441448600013,33.52878494258068],[11.0795110392131,33.528724277832595],[11.079580629608484,33.528663608007804],[11.079720521773025,33.52857201126902],[11.079756028374756,33.52857141302375],[11.079790111959577,33.52851134385571],[11.07975318239575,33.52845247119528],[11.079751759412513,33.528393000280104],[11.079715541405687,33.5283638630629],[11.079643105464848,33.52830558859348],[11.079604753282304,33.52818724747784],[11.079602618922568,33.52809803857222],[11.079636702508218,33.528037971965595],[11.079635991006812,33.528008233983506],[11.07967078598815,33.527977902830465],[11.07974108723177,33.52794697091678],[11.080128810552905,33.52782144788969],[11.080655707461982,33.52757458806186],[11.081152081840711,33.527536472731974],[11.081399912810571,33.52750254661114],[11.081470213008457,33.52747161375133],[11.081610810238635,33.52740974796804],[11.081681113291971,33.527378814943006],[11.082103621716309,33.52722295176582],[11.082595718560253,33.52700641826669],[11.082665305453347,33.52694574934754],[11.082733467309566,33.52682560957499],[11.082837844244473,33.52673460612881],[11.083044465839064,33.526463395199144],[11.08318150027966,33.52625285317951],[11.083422199742152,33.52592156916508],[11.08349178520399,33.52586089982688],[11.0835265778985,33.52583056514431],[11.083666461192115,33.52573896172065],[11.084508603805974,33.525308279652315],[11.084754287428153,33.525185140958165],[11.084928960237297,33.52506320117798],[11.085034048967945,33.52500193134913],[11.085103629541141,33.524941261218714],[11.085379823016469,33.52460937654714],[11.085518275624235,33.52445830042803],[11.085658867964602,33.52439643026522],[11.086258167112359,33.52420781875811],[11.086398758543858,33.52414595030865],[11.086434263185676,33.524145350218205],[11.086573426904671,33.524024008357614],[11.086747381007335,33.52387233082976],[11.087689572913172,33.52317220973178],[11.087899027503168,33.52301993026373],[11.088038187366587,33.522898586883755],[11.088142557009327,33.52280757925448],[11.0883512957001,33.52262556627378],[11.088523815226642,33.52241441580226],[11.088593394288885,33.52235374380896],[11.088626755056692,33.52226393716099],[11.088624612034742,33.522174733723425],[11.088621754606095,33.52205579244399],[11.088620325898066,33.521996321803336],[11.088618897194232,33.52193685116207],[11.08861818284389,33.52190711584119],[11.088652257798788,33.52184704450876],[11.088686332708306,33.52178697316824],[11.088685618338943,33.52175723784792],[11.088755911173193,33.52172630110159],[11.0887914147729,33.521725700373416],[11.088861707541227,33.521694763569286],[11.088897211125646,33.52169416281128],[11.089536269444796,33.5216833475305],[11.089571773009238,33.521682746579316],[11.089678283696259,33.52168094366479],[11.08974929081568,33.52167974167092],[11.089820297930894,33.521678539636405],[11.089891305041903,33.521677337561215],[11.089961597345717,33.52164640014873],[11.089997100885407,33.52164579907623],[11.090102896647698,33.52161426050361],[11.090137685309497,33.52158392409754],[11.09017247394703,33.52155358768249],[11.090207977444015,33.521552986550994],[11.090242766044094,33.52152265011747],[11.090346416770688,33.521401905472494],[11.090450067213435,33.52128116074966],[11.090553717372337,33.52116041594892],[11.090588505696504,33.521130079427145],[11.09090517504882,33.521005726738196],[11.091395783146783,33.52072969221445],[11.091884235703564,33.520364447638144],[11.091989313755917,33.52030317478875],[11.092094391596783,33.52024189933492],[11.092235687657311,33.52020975484622],[11.09230597795365,33.520178818693815],[11.09244727388182,33.520146676490576],[11.092517563925004,33.52011573518185],[11.09258856963648,33.52011453160955],[11.092764652518493,33.52005205451943],[11.092976237870195,33.519988972767244],[11.09318782289703,33.51992589066459],[11.093397975740174,33.51980333773134],[11.093992928104033,33.51943627910766],[11.094027708495148,33.51940594178647],[11.094657441490282,33.51900854525455],[11.095740813246607,33.518276224535825],[11.096055313933665,33.518062653704234],[11.096229956212884,33.51794069900922],[11.096472727933465,33.517698597692686],[11.09692708021923,33.51739340766558],[11.097137938641499,33.517300583958566],[11.097454584025055,33.517176215342545],[11.097982085097808,33.51695902086622],[11.098368295606626,33.51677397307642],[11.098403079527959,33.51674363955231],[11.098509583559125,33.51674182927741],[11.098753786872967,33.516559194027025],[11.099137834458029,33.516284938610305],[11.099487820417409,33.51607075598045],[11.099593605603415,33.51603920966459],[11.099876177729305,33.51597490915087],[11.100087747471541,33.51591181578673],[11.100228315013702,33.51584992993],[11.100333381438434,33.515788647873755],[11.100368164145355,33.51575830879406],[11.100473230357544,33.515697026626384],[11.100578296418897,33.515635744374684],[11.10068264402388,33.51554472691723],[11.101343501098535,33.514968281247505],[11.101621756623782,33.51472556626935],[11.101761602574838,33.51463394871139],[11.1017971029813,33.514633344367375],[11.101939823307085,33.514660661991826],[11.10222598289096,33.51474502679178],[11.10326700199911,33.51520325398442],[11.103301064221911,33.51514317905282],[11.104606182865156,33.51330635668513],[11.104605463279436,33.51327662162743],[11.104674304029084,33.513186206172236],[11.104746023156379,33.513214730905865],[11.106149230014701,33.51396423228207],[11.106616492707962,33.51419423893304],[11.106652713134674,33.514223368218836],[11.106869315814334,33.51436840867929],[11.107014198293049,33.51448492542885],[11.107122860406747,33.51457231286845],[11.107232243138366,33.514689430163095],[11.10730612594014,33.514807158323826],[11.10734162629058,33.51480655238817],[11.107342346854036,33.514836287386146],[11.107451730345328,33.51495340949835],[11.10807542023416,33.51577568594398],[11.108368798307964,33.51615739093547],[11.108442683972426,33.51627511828302],[11.108443404952656,33.51630485325284],[11.108517290730143,33.51642257550372],[11.108485388847482,33.516571861785586],[11.108419439526925,33.51678121399393],[11.108386101319729,33.51687102517478],[11.108316540886024,33.516931707638584],[11.108283923467777,33.517051253765366],[11.10818102429172,33.51720174731282],[11.108078845653631,33.51738197575683],[11.107974504045954,33.51747299920947],[11.10793972346154,33.5175033403424],[11.107975945752557,33.51753246915538],[11.108015772418808,33.517710272814554],[11.108056320159514,33.51791781141928],[11.108130206980025,33.51803553635996],[11.108204815018311,33.51818299873236],[11.108278702341968,33.518300726083396],[11.108315646081337,33.518359589738665],[11.108317809065618,33.51844879462491],[11.108354752899427,33.51850765826371],[11.108355473910551,33.518537393224484],[11.108285912184153,33.518598075708645],[11.108111286509933,33.51872004679769],[11.108077226422653,33.51878012294592],[11.10800766424695,33.518840802766256],[11.107867818870476,33.51893243237194],[11.1078721440231,33.519110842178],[11.10788223619409,33.51952713170352],[11.107927830946517,33.51994281249304],[11.107929993723543,33.520032019899105],[11.10789737477852,33.52015156341387],[11.107863314033347,33.52021163951788],[11.107864755813434,33.52027110944174],[11.10783069500288,33.52033118553838],[11.107762573245722,33.52045133770744],[11.107727791448598,33.52048167881652],[11.107728512299115,33.52051141377984],[11.107693730466654,33.520541754880476],[11.107658948548833,33.52057209345182],[11.107660390269846,33.52063156590039],[11.107624887547296,33.520632172019575],[11.107590105569871,33.5206625105735],[11.10755460283307,33.52066311667304],[11.107519820940379,33.520693460249184],[11.107484318189325,33.52069406632907],[11.107448815437207,33.52069467239879],[11.107378530605315,33.52072561695637],[11.107306804418137,33.52069709657601],[11.107235798902238,33.52069830860362],[11.107164793382099,33.52069952059057],[11.107128569908722,33.52067038907459],[11.107056843842255,33.520641868544125],[11.106914112297853,33.52061455729038],[11.106770660309508,33.520557510887116],[11.106598910419569,33.52079841745305],[11.106530066137537,33.52088883403187],[11.105908306526699,33.52161337663309],[11.10590902678552,33.5216431116258],[11.105874243857363,33.521673452252244],[11.105874964106167,33.521703187245315],[11.10584018114267,33.52173352786332],[11.105769894927288,33.52176447407777],[11.105735832106573,33.5218245496635],[11.105665545778818,33.52185549582257],[11.10563004251057,33.521856101389375],[11.105559756116854,33.52188704749068],[11.105524972907142,33.52191738550605],[11.105246706844165,33.52216010946879],[11.105038006277729,33.5223421520641],[11.104859049022663,33.522285708916556],[11.104443804041027,33.52273899508295],[11.104271323860832,33.522950166261786],[11.104272043595946,33.52297990127938],[11.103961864955245,33.523371902873386],[11.10399808853382,33.523401032781614],[11.103998808187724,33.52343076780226],[11.103999527842687,33.52346050282278],[11.104000247498705,33.52349023784312],[11.104037190811379,33.52354910275654],[11.104038630155083,33.523608572794785],[11.10383928456135,33.52417716619758],[11.103806652722664,33.52429671146186],[11.103808091888343,33.524356178981385],[11.10380881156426,33.52438591652144],[11.103810970354372,33.52447511905928],[11.103813848837309,33.524594059134664],[11.103782668111837,33.52477307422379],[11.103752200868772,33.524981824425765],[11.10372173350655,33.525190574619366],[11.103599143216973,33.52599583777375],[11.103850550915922,33.526110542355745],[11.103926598881547,33.52631747463783],[11.103932356582673,33.52655535469758],[11.103940273532169,33.52688243976336],[11.103942432722409,33.526971644778016],[11.103800417144178,33.526974065229275],[11.103693900933694,33.52697588053794],[11.103587384713673,33.52697769575507],[11.103409857659141,33.52698072091359],[11.102919256226105,33.52725680521692],[11.10253444932842,33.527501338408904],[11.102295978330421,33.527921859441406],[11.102296697524993,33.52795159447289],[11.102332922567992,33.52798072479594],[11.102333641776815,33.52801045982642],[11.102335080197625,33.528069929886925],[11.102515486697662,33.52818584628855],[11.102623443100073,33.528243501983845],[11.102659668313727,33.528272629680636],[11.102732118996753,33.52833089260021],[11.102769063651401,33.52838975528231],[11.102841514445462,33.52844801560981],[11.102877739878899,33.52847714575606],[11.10287989810853,33.52856635080864],[11.102880617520519,33.528596085825875],[11.102845111434164,33.52859669070085],[11.102846550237041,33.528656160736176],[11.102847269640064,33.52868589575361],[11.102741470633093,33.528717445342934],[11.10274219000182,33.52874718036206],[11.102706683850549,33.528747785199755],[11.102671897043729,33.528778125047616],[11.102600884711624,33.528779334673494],[11.102565378543984,33.528779939471185],[11.102529872375285,33.528780544258694],[11.10249436620553,33.52878114903606],[11.102422634602286,33.52875262353518],[11.102351622279638,33.52875383301734],[11.102316116116725,33.52875443774317],[11.1022458229876,33.52878538219276],[11.102174810630094,33.52878659157458],[11.10206901122615,33.52881814060271],[11.101963930846868,33.52887942457657],[11.101789275912427,33.52900138770366],[11.101683476092587,33.529032936416705],[11.101577682212543,33.52906448493961],[11.101401588503565,33.52912697746822],[11.1012957883739,33.529158525860595],[11.10122477566799,33.52915973470948],[11.10115376295785,33.52916094351769],[11.10108203143144,33.529132417236376],[11.100938568514742,33.52907536454314],[11.100687868183453,33.52899038943954],[11.100544405740518,33.52893333626892],[11.100365437221575,33.52887688709273],[11.100186468923155,33.52882043764817],[11.100007500845258,33.52876398793524],[11.09972345105103,33.52876882008234],[11.099474189174478,33.52874331259576],[11.09925972148048,33.52868746557402],[11.09901045992357,33.52866195713863],[11.09847427726345,33.528522337062824],[11.097830860195403,33.528354789812894],[11.097401916770737,33.5282430897318],[11.096578827847676,33.52798934919322],[11.095825315298788,33.527674927105515],[11.095214547740738,33.52738782228267],[11.095075391502352,33.527509173541155],[11.094904312290858,33.52777980310638],[11.09462886355736,33.528141443037526],[11.09452736102889,33.52835139424081],[11.094354845562547,33.52856255278468],[11.094287421407483,33.52871243343737],[11.094151843957384,33.528982459671994],[11.09401698209859,33.52928222096264],[11.093950267217057,33.52946183674465],[11.093848761708937,33.52967178999295],[11.093711032543734,33.52985260774095],[11.093608093485159,33.53000309044653],[11.093366707325549,33.53030465781653],[11.093263050929668,33.530425402557164],[11.093159394310533,33.53054614974026],[11.093021662440279,33.53072696932652],[11.09288393000841,33.53090778877671],[11.092675898329201,33.53111954729799],[11.092572240090169,33.531240294040145],[11.09253888052414,33.53133010160572],[11.092230051153095,33.531781544388814],[11.092093031282383,33.53199209826392],[11.091988661471927,33.53208310926344],[11.091679111013997,33.53250481562406],[11.091472503909669,33.532776042759274],[11.090988984746415,33.53334943192183],[11.090643201331496,33.53374200481587],[11.090333638736661,33.5341637107058],[11.08995734640529,33.534765027351675],[11.08968686140932,33.535334804197056],[11.089416379116512,33.53590458295748],[11.089146602287617,33.53650409403696],[11.088908757572845,33.53695432992031],[11.088570813197158,33.53767398289968],[11.088438064039321,33.538062944719506],[11.088338680061836,33.53836209729744],[11.087941138002806,33.539558714500814],[11.08783960721578,33.53976866351541],[11.087539298880825,33.54057691912555],[11.087405118433185,33.540906409410404],[11.08700683919594,33.542073286324175],[11.086735600114336,33.542613324977445],[11.08660283621751,33.543002282625444],[11.08629893597998,33.543661861933494],[11.086171881661468,33.54428870127178],[11.08611085330659,33.544706195563705],[11.086081053053471,33.54494467795543],[11.086083909419019,33.545063616467274],[11.086088908205024,33.545271763267635],[11.086100334134029,33.5457475248336],[11.086086244681917,33.5466401802203],[11.085872447568471,33.54661404939176],[11.085694881365379,33.54661705064543],[11.085554253914722,33.54667892202625],[11.085518740040218,33.54667952221727],[11.085483226164664,33.54668012239811],[11.08480632118696,33.546602318077554],[11.08444975836951,33.54654884675892],[11.084270762072855,33.54649237544797],[11.084056252188871,33.54643650363634],[11.083948997343608,33.54640856758688],[11.08384174256283,33.54638063144166],[11.083625806594256,33.546265288267136],[11.083446811364011,33.54620881571848],[11.083338843773305,33.54615114381687],[11.08315985195794,33.54609467078495],[11.082838802663241,33.54604059524605],[11.082696034982925,33.546013257476524],[11.08240978699248,33.545928846109376],[11.08198077235358,33.54581709544057],[11.081551049244931,33.545675610368626],[11.081407569973663,33.54561853572926],[11.08112132439757,33.54553412127758],[11.080977845620923,33.545477046118734],[11.080798853559674,33.545420569603365],[11.080690891624082,33.54536289522786],[11.08058435128213,33.54536469152405],[11.080440873111097,33.54530761571665],[11.080334332820023,33.54530941179514],[11.08029881938757,33.54531001046762],[11.080227792519521,33.54531120778204],[11.080191566986972,33.545282071055816],[11.080156053562476,33.54528266968692],[11.080084314650874,33.54525413154826],[11.08004880123538,33.545254730148166],[11.07997777440125,33.54525592731745],[11.07990674756293,33.54525712444603],[11.079835720720418,33.54525832153391],[11.079764693873718,33.545259518581084],[11.079729180448796,33.5452601170894],[11.079693670033972,33.5452607155368],[11.079621931278384,33.54523217712338],[11.079550904443407,33.5452333740471],[11.079479165753368,33.545204835548105],[11.079442940506679,33.54517569859085],[11.079335688509621,33.54514775841951],[11.07926466173077,33.545148955176415],[11.07897841960389,33.54506453814135],[11.078513188231357,33.544923637978115],[11.078334913141994,33.544896890620855],[11.078227661859273,33.54486895198123],[11.078121121956459,33.544870746134876],[11.077940710177218,33.54475479453545],[11.077832747847388,33.54469711760592],[11.077760298874399,33.544638842652404],[11.077652336804455,33.5445811655543],[11.077544374875032,33.54452348835597],[11.077471926237942,33.54446521321905],[11.077399477698016,33.544406938035465],[11.077327740345977,33.54437839823203],[11.077291519158958,33.544349260549524],[11.077184268789354,33.54432131844382],[11.07704008341402,33.544234503099425],[11.076824872251937,33.54414888290101],[11.076537213861096,33.544004986583744],[11.076070570496826,33.543804608462295],[11.075711181204598,33.54363216945327],[11.075027203220849,33.54325695563235],[11.073321860502846,33.54474323955812],[11.071165409748593,33.5466832820305],[11.069075645673468,33.54844368562021],[11.066986504492917,33.550233792267065],[11.066080782749774,33.55099264454049],[11.064864588744008,33.552143403278244],[11.063369171869132,33.55350705240768],[11.06288253025568,33.55396139878635],[11.061591686995703,33.55496463985253],[11.060267410570622,33.556057663580766],[11.059501527838611,33.5567248945045],[11.058874886682705,33.55727080244534]]]}}]}
