{"type":"FeatureCollection","features":[{"type":"Feature","id":"osm:relation:7142932","properties":{"sourceId":"isie-best-effort-imada-525558-20260928","officialCode":"525558","governorateCode":"52","delegationCode":"5255","nameAr":"حسي الجربي","officialSourceNameAr":"حسي الجربي","sourcePdfURL":"https://www.isie.tn/wp-content/uploads/2023/CartesCirconscriptionsElectoralesLocales2023/مدنين/جرجيس/حسي الجربي.pdf","sourcePdfSha256":"405bbe9a00e6a0e6a736b74b0a2f9c52c7ac7ffd9b9ff001f2dd2e4bf9821b02","sourceGeometrySha256":"4ce7e0b0e7e7a54cf7d8b8785e49e0a3d1be4d5fb9f577acf2c01a789372f906","geometryMethod":"Pinned native ISIE red-face linework; exact registered EPSG:32632 face WKB; transformed to EPSG:4326 with always-XY axis order."},"geometry":{"type":"Polygon","coordinates":[[[10.9459416515483,33.62792834158447],[10.9465859967634,33.6274802156532],[10.946843978423797,33.62731190826667],[10.947426595372344,33.62702898964252],[10.948074630791464,33.62674503722286],[10.948981870521258,33.62634749840055],[10.950149548619708,33.625891100679915],[10.951315975283789,33.62537995933692],[10.95228860508299,33.62498136433868],[10.953779622560383,33.62435557683312],[10.955205199447748,33.623730811567256],[10.956824529001892,33.62299346248817],[10.958185884242713,33.622424428163264],[10.962527771549777,33.62054889098281],[10.96550823077304,33.6192423336104],[10.966480721866375,33.61884363138568],[10.970044777609333,33.61730869452653],[10.971276376586868,33.61679633464263],[10.972832520273458,33.61616928335249],[10.976071797105982,33.614748854765665],[10.979960044366512,33.6130989596323],[10.981126111773591,33.6125875485693],[10.982551283832098,33.61196247632568],[10.983263236425023,33.61162257516896],[10.984430520682844,33.61116586168088],[10.98514371670647,33.61088067292347],[10.98592356797115,33.61064915694274],[10.986702161653398,33.61036291338728],[10.988066891952796,33.60995774045573],[10.988132293134898,33.60995668866576],[10.98956115536787,33.60949572051274],[10.990727111090388,33.60898422248104],[10.992538270011186,33.60807908354162],[10.993507979557158,33.607570727383475],[10.995319078452523,33.60666554965167],[10.995511497737528,33.60649820605392],[10.996350364460353,33.605991935432975],[10.997575306207526,33.60520568438744],[10.998798959241784,33.604364694928684],[10.999571117327433,33.60380473875515],[11.000538201619502,33.603186876470694],[11.00131159982167,33.60268163251254],[11.00208626260748,33.602231110826],[11.004020339501944,33.60099533292027],[11.004857832055237,33.600434285735965],[11.00530927348647,33.60015322747976],[11.006727701508566,33.599254259931065],[11.008533394337926,33.598129991970396],[11.009693993521692,33.597399417009875],[11.010271097521093,33.5968973137178],[11.010657106743727,33.596617300325356],[11.011426570219085,33.59594782150866],[11.01213316984272,33.59538885118096],[11.013729422636688,33.59651255423949],[11.013798644070345,33.59667566885434],[11.01386659032154,33.59678405221956],[11.013999932685104,33.59689137498538],[11.014133269833852,33.5969986976837],[11.014266612857462,33.59710602013389],[11.014464076518752,33.59715755044366],[11.01459614435797,33.59721014598005],[11.014662816271995,33.597263806956846],[11.014859004501355,33.597260610089634],[11.014925676611327,33.59731427091678],[11.015324434695255,33.59758150854887],[11.017923445205081,33.59961950995806],[11.018722281863308,33.60020868919796],[11.019918632406878,33.6010103535002],[11.020984206482622,33.60181414808878],[11.021315043638152,33.601972981249766],[11.021874183217934,33.60070465319763],[11.022269135173259,33.600807688186656],[11.022392246537963,33.60047719131951],[11.022453801999037,33.600311947485466],[11.022512795193252,33.60003724651217],[11.022573069049278,33.59981727175118],[11.022705145499014,33.599869858269585],[11.02303725370001,33.600083413341096],[11.02310393845726,33.6001370693747],[11.023170612206995,33.600190725550306],[11.023366806033456,33.60018751494773],[11.023763038780015,33.60034526675203],[11.024092592897135,33.60044936635008],[11.02428878719736,33.60044615426381],[11.024483699237106,33.600388215699006],[11.024678611001658,33.60033027683609],[11.024873522599727,33.60027234231364],[11.02506971640423,33.60026912900386],[11.02526462735481,33.600211184601875],[11.025526213294217,33.60020689939053],[11.025787804723318,33.60020261353573],[11.026376385236492,33.600192968341986],[11.02670337428942,33.6001876086922],[11.026768772089628,33.600186536658626],[11.026900851533993,33.600239123213996],[11.027562534601602,33.60055675200878],[11.028090851382224,33.600767075321414],[11.02848966432215,33.601034268242316],[11.02895387825197,33.60130038655412],[11.029085960526166,33.60135296601446],[11.029810487320795,33.601560061444566],[11.03000796921574,33.60161156616768],[11.030272130504088,33.6017167226911],[11.030668381914072,33.6018744562331],[11.030867151309133,33.60198068547477],[11.030927404808045,33.60176070744623],[11.031117168848379,33.60148385475297],[11.031240246785723,33.60115335033155],[11.03155308455823,33.60054599253307],[11.031615908955073,33.600435466076405],[11.031677446429645,33.6002702136675],[11.031738983684455,33.6001049612326],[11.031799234002694,33.59988498748657],[11.031860770787139,33.599719735000285],[11.031859483933896,33.59966500907668],[11.031922307351824,33.59955448248801],[11.031917159945392,33.59933558343151],[11.031913299345211,33.59917140565465],[11.031904291399627,33.59878832415683],[11.032092759284764,33.59845674427274],[11.033213509064081,33.59882154861274],[11.033608452784788,33.59892454740205],[11.034530446823334,33.59918310974198],[11.035056198326131,33.59928395591102],[11.035452446152863,33.59944166962768],[11.035584529107386,33.59949424211765],[11.035976910552048,33.599487781348984],[11.036239787722694,33.599538199255235],[11.036700145916877,33.59964011065735],[11.037028420902029,33.59968944954875],[11.03722590203939,33.59974093811589],[11.037423383615188,33.59979243563547],[11.03808379699878,33.60005528592469],[11.038478762370213,33.600158263885575],[11.038741642770454,33.60020867633552],[11.038873728729856,33.60026124518623],[11.039072503679268,33.600367461021605],[11.03986760825374,33.600792320966825],[11.040131783385068,33.600897455987095],[11.040198473354817,33.600951102464094],[11.040865377590816,33.60148756506077],[11.040994881288702,33.601430680318025],[11.041060279446008,33.60142960069531],[11.041124384811107,33.6013737954455],[11.041188490093694,33.60131799016506],[11.041382098386185,33.601205299725855],[11.041511601303121,33.601148414467914],[11.041641104044574,33.6010915290802],[11.041705208780376,33.60103572354975],[11.041897522492718,33.600868306774736],[11.042025731221727,33.600756695438314],[11.042155221934213,33.600699809726436],[11.04261817957263,33.6009111496807],[11.043345319101899,33.601227615772466],[11.04347611491448,33.60122545401914],[11.04354151281554,33.60122437309066],[11.043673602997975,33.601276936636886],[11.04380439885819,33.60127477453373],[11.04393519470445,33.601272612292405],[11.044000592622343,33.60127153111995],[11.044200670538578,33.60143246385899],[11.044267363342362,33.60148610802631],[11.04433276140784,33.601485026672236],[11.04439945433191,33.60153867076325],[11.044530250527933,33.60153650787797],[11.044793137991222,33.60158690715865],[11.044859831269168,33.601640550986765],[11.044925229427008,33.60163946931517],[11.045057321017358,33.60169203132409],[11.045324095586555,33.60190660578907],[11.045390789435155,33.6019602493065],[11.045720372728425,33.60206429001467],[11.045785771170946,33.60206320787623],[11.045852465418173,33.602116851127995],[11.045919159747925,33.602170494340236],[11.046053844600948,33.60233250606206],[11.046188529856723,33.60249451297565],[11.04638861459989,33.60265544188428],[11.046919573396707,33.602975133325245],[11.04778013767925,33.60339885241114],[11.048309819653259,33.60366381196379],[11.048640710287186,33.60382256979996],[11.049039597692477,33.60408969338617],[11.049569287573604,33.6043546472097],[11.04970138594987,33.60440720397214],[11.050015400732736,33.60385452944426],[11.050717909912562,33.603131170303094],[11.051799791633481,33.601854053307086],[11.051862590484847,33.60174351751887],[11.052495770251243,33.600857058948044],[11.052625264729521,33.600800162338665],[11.05281495564174,33.60052327898566],[11.052939248597195,33.600247481278544],[11.053003345138098,33.600191670179846],[11.053067441596498,33.60013585905055],[11.053382720952897,33.59963790683593],[11.053446816765293,33.599582095529954],[11.05350961186617,33.59947155437],[11.053886380109223,33.59880834393679],[11.054134953989704,33.598256746561695],[11.05463599608748,33.59731772603139],[11.054758977904699,33.59698720158831],[11.055134424976753,33.59626925343319],[11.05525999551365,33.5960481837043],[11.055957192116901,33.595105902033524],[11.056209649171533,33.5947184764908],[11.056463406163456,33.59438577562402],[11.05659028394342,33.594219425016654],[11.057156669218724,33.593279307951065],[11.057661560476735,33.59250445674692],[11.057787130459769,33.59228337995256],[11.05848296743132,33.591286360593756],[11.058862271234243,33.59073257784978],[11.059178788677265,33.590289333136134],[11.059684938135863,33.58956919527489],[11.059810498990593,33.589348116683965],[11.060066835526772,33.58912486401675],[11.060514116685598,33.58867943751604],[11.061154945828575,33.588121289990816],[11.061923930026822,33.58745151356575],[11.0623724985949,33.58706080591355],[11.06250066030087,33.586949174880814],[11.062947917833874,33.58650374032945],[11.064357650330178,33.58527579106132],[11.064613963038319,33.585052525092635],[11.064868967459201,33.584774533711894],[11.065125277378456,33.58455126677269],[11.065316201834554,33.58432909597426],[11.06550973989498,33.58421637008614],[11.06563658595372,33.58405001116356],[11.065764739024326,33.5839383770255],[11.065762124050133,33.58382892722432],[11.065760816568327,33.583774202322935],[11.065888969083035,33.58366256807305],[11.066201502527404,33.58305513256679],[11.066328345639414,33.582888773020436],[11.066517955462404,33.58261187104098],[11.066772946798897,33.58233387613614],[11.067428082002003,33.58237767240319],[11.068479430146686,33.582579078907756],[11.069530793807788,33.582780476094854],[11.072684911360886,33.58338461286171],[11.073604202522523,33.583533441805855],[11.074720970852484,33.583733697582176],[11.075706976768657,33.583936138041885],[11.076823754167906,33.58413637442906],[11.078270074583392,33.58444055598579],[11.078400842184736,33.584438358274866],[11.078531609771897,33.58443616042588],[11.078663692892011,33.584488682248335],[11.07866500855421,33.58454340669572],[11.078666324219958,33.584598131142585],[11.078603571571294,33.58470867905684],[11.07879972353309,33.58470538188699],[11.078997191345465,33.58475680884046],[11.07919597539005,33.58486295989526],[11.079396076059128,33.585023835027826],[11.079464092642937,33.58513218440723],[11.079532109402281,33.58524053374093],[11.079930997868619,33.58550755339621],[11.080129784749083,33.58561370282791],[11.080662080417857,33.58598797359241],[11.080928888551027,33.58620247021816],[11.082787342414365,33.58732085911194],[11.083318340969566,33.58764038860049],[11.08325295496002,33.587641490163435],[11.082811074159963,33.58830589140832],[11.081652575523021,33.58909184524615],[11.080569969602209,33.590314488249845],[11.079810328718281,33.591367446269466],[11.079300381021921,33.59192348745716],[11.079236308006342,33.59197931138171],[11.078786478459593,33.59231535362512],[11.078154948597417,33.5932566551267],[11.077267101743574,33.594421250617835],[11.07656490031606,33.59514474564144],[11.07533822184324,33.59582229931459],[11.074367841794587,33.59627655072066],[11.073853891024227,33.59666839796364],[11.072234817304981,33.59735250265667],[11.071208190202189,33.59819090310349],[11.07056342382606,33.598584923811536],[11.070368550546233,33.59864293372748],[11.069218961411783,33.59981185199002],[11.067106730416572,33.601763315452004],[11.064879290520574,33.604373618447255],[11.064817814831978,33.6045388849978],[11.064322078338751,33.60569683756534],[11.064485573574597,33.60706276739659],[11.06541427768362,33.60759472050599],[11.06600943792104,33.60785850831233],[11.066400540693758,33.60779722495758],[11.06653003537996,33.60774031379377],[11.066794261484292,33.60784538969228],[11.06595843278638,33.60846157277646],[11.065507158324499,33.60874284639244],[11.064855747591755,33.60886321715671],[11.062392662428154,33.60983502582134],[11.062263161725985,33.60989193285427],[11.060319324631825,33.61069079329106],[11.058782240607934,33.61208506298317],[11.057636231915623,33.61341806319544],[11.055981269893332,33.61536172789583],[11.055285224722136,33.616358737939834],[11.05376877481801,33.618628551045866],[11.052998159570642,33.61924356139578],[11.052682812693387,33.61974151856644],[11.052239239964338,33.62035109735068],[11.051795661018357,33.620960670083434],[11.051543124567914,33.62134808851927],[11.051225161753433,33.62173659229083],[11.050899396289061,33.62179674487598],[11.050382589303613,33.62207905257724],[11.050262159212444,33.622519023569645],[11.049618415541328,33.62296767375189],[11.048910549372811,33.62347212572153],[11.048788811425185,33.62385737041005],[11.048402815143893,33.62413750166118],[11.047753857279615,33.624367242218014],[11.046908660673934,33.62460022961816],[11.046522654690822,33.62488035067958],[11.045736369960906,33.624838625879455],[11.045143739486077,33.624684189051145],[11.044681942014199,33.62452758959278],[11.043890478119442,33.6242669517466],[11.043099018655893,33.624006304003444],[11.042836063157429,33.62395590381018],[11.041588010058959,33.623757538939536],[11.039488264124502,33.62351847152534],[11.038373637105646,33.62342736569033],[11.037257709396398,33.62328152436465],[11.03614565703923,33.623299849525786],[11.034060115678336,33.62366267067408],[11.03256459478695,33.624070502119224],[11.031331999417306,33.62452874157386],[11.02957735126733,33.62505028517993],[11.028217748490839,33.6256748204498],[11.026918408512698,33.62607936506813],[11.024397937277374,33.62743459786966],[11.024204248558647,33.62754726426598],[11.024075977987252,33.62765885899778],[11.02394771263215,33.62777045351601],[11.023883571510488,33.62782625086534],[11.023689881228632,33.62793891650618],[11.023561614957766,33.6280505106528],[11.023367923742834,33.62816317581936],[11.02317294926658,33.62822111473357],[11.023043393684937,33.62827798250049],[11.022848418709295,33.62833592091931],[11.022589306571426,33.62844965566926],[11.022395613142342,33.62856231938509],[11.022136499587257,33.628676048590314],[11.021941523044667,33.62873398563048],[11.021618270586975,33.62890351471784],[11.021295022381436,33.629073042911486],[11.021101325805109,33.62918570470214],[11.020778069941906,33.62935523170357],[11.020390673617928,33.6295805534645],[11.02013411612741,33.62980373540765],[11.01987627656645,33.62997219079802],[11.019618435989718,33.630140645683284],[11.019424740318756,33.630253304906454],[11.019232318947093,33.63042069001334],[11.019104037510958,33.63053227529249],[11.018910334729785,33.63064493385053],[11.018783332745794,33.63081124954956],[11.018653770242755,33.63086811294247],[11.0185267674462,33.6310344284026],[11.018529327342117,33.631143880597705],[11.018596028852176,33.63119753811681],[11.018597308850087,33.63125226421086],[11.018598588851452,33.63130699030436],[11.018534447175385,33.631362784981604],[11.018469025491056,33.63136385353128],[11.01833946195503,33.63142071662818],[11.018275320024143,33.631476511179244],[11.01814575618508,33.63153337408301],[11.018081614044146,33.63158916854031],[11.01788662798006,33.63164709950042],[11.017755784125757,33.631649235895644],[11.017626219663367,33.63170609827537],[11.017495381245894,33.6317082343078],[11.01743123299659,33.631764028536864],[11.017240083569023,33.63198613690158],[11.017047659656123,33.63215351877103],[11.016919372936258,33.63226510659081],[11.016789806867502,33.63232196350407],[11.016661519562245,33.632433551074826],[11.01659737578565,33.632489344814154],[11.016404943959998,33.63265672584785],[11.016275377059534,33.632713586891114],[11.01614708850771,33.632825173967184],[11.01608294410783,33.632880967459144],[11.016018799625304,33.6329367609204],[11.015889232039545,33.632993621581235],[11.015825087346954,33.63304941494869],[11.015696797713836,33.633161001591446],[11.015632652773306,33.633216794866755],[11.015568507750128,33.63327258811136],[11.015438939351652,33.633329448326656],[11.015376072184708,33.633439967660884],[11.015247786941702,33.63355155378321],[11.01511821235895,33.63360841377348],[11.015052794386191,33.633609480487934],[11.014988643147747,33.63366527354322],[11.01479621112528,33.63383265216301],[11.014669196536813,33.63399895937999],[11.014540904112387,33.6341105495523],[11.01447803514975,33.6342210638413],[11.014349742045365,33.634332649194064],[11.01422144861037,33.63444423442396],[11.014093154844764,33.63455581953098],[11.01402900783798,33.63461161203842],[11.013964860748544,33.63466740451514],[11.013900713576456,33.63472319696114],[11.013772418984312,33.634834781760986],[11.013644124061553,33.63494636643796],[11.013386256332204,33.63511480918808],[11.01319381244994,33.63528218559951],[11.013000096709867,33.63539483539835],[11.012551056512834,33.63578537398768],[11.012358609520609,33.63595274919597],[11.012231587319052,33.636119058780245],[11.012037862880375,33.636231707261956],[11.011844137928533,33.636344355456615],[11.011525939747406,33.63673276485392],[11.011271889437298,33.63706538235697],[11.011015286106598,33.637288542163255],[11.010568783298758,33.63778853128292],[11.010249299187398,33.63812221140353],[11.009929812633793,33.63845589077197],[11.009354985588745,33.63906745700693],[11.009036766397582,33.63945585597587],[11.008782698788062,33.63978846887076],[11.008332348670113,33.640124271602176],[11.008075728871743,33.640347430452195],[11.007883263154849,33.64051479926695],[11.007756225858529,33.640681104699006],[11.007629188083301,33.64084741001422],[11.007248071776202,33.64134632062021],[11.006734818095785,33.64179263371423],[11.006222831825935,33.64229367125383],[11.005772458729666,33.642629465372174],[11.005387507447,33.642964191495814],[11.004872962680565,33.64335577100839],[11.004747187370802,33.64357680009104],[11.004555979792624,33.64379889059537],[11.004173567279222,33.64424307071202],[11.004046517540754,33.644409372699045],[11.00398362808078,33.64451988224431],[11.00366536534339,33.64490827332003],[11.003411261555094,33.645240876241886],[11.003348370824236,33.64535139014047],[11.003220046977788,33.645462964883656],[11.003157155850568,33.64557347869608],[11.003028831432072,33.645685053258035],[11.002905589790467,33.646015533666116],[11.002778535008902,33.64618182985094],[11.002650209218743,33.6462934040604],[11.002521883097765,33.6464049781468],[11.002393556753663,33.64651655674881],[11.00233193419462,33.64668179205594],[11.002011121373098,33.64696072619896],[11.001819899509885,33.647182812887166],[11.001627406637503,33.64735017278595],[11.001111549207845,33.64768701142377],[11.000854888543511,33.64791015652716],[11.000596957132338,33.648078574588276],[11.000404459779308,33.64824592808004],[11.000081096701134,33.64841540446404],[10.999823156692297,33.64858382109694],[10.999565226763355,33.648752237044185],[10.99924439174907,33.64903116461327],[10.99885938700232,33.649365876680804],[10.998605251880257,33.649698466011486],[10.998411479046608,33.649811094662645],[10.998216437696865,33.649868996412536],[10.99795595952214,33.64992795607338],[10.997565875341941,33.65004375787544],[10.997304134245285,33.65004798946593],[10.996911514175393,33.6500543359481],[10.99658433068991,33.65005962373161],[10.99638802055765,33.65006279598646],[10.995929963462894,33.65007019670326],[10.995538614828291,33.650131265437224],[10.995211430777603,33.65013654959814],[10.995015120306247,33.65013971967941],[10.994753372963347,33.65014394596997],[10.99462249927143,33.65014605890763],[10.99442618870797,33.65014922805457],[10.994360751846664,33.65015028436767],[10.994229878113819,33.65015239689007],[10.994099004367333,33.650154509274046],[10.994033567488977,33.65015556541414],[10.993969395935066,33.65021134827291],[10.993708913374272,33.650270299118965],[10.993448430431442,33.65032924942818],[10.993058343230878,33.650445037186756],[10.992863296443266,33.650502930662405],[10.992731157498225,33.65045031482705],[10.992599018708415,33.65039769884406],[10.992465615690485,33.65029035591113],[10.992398914305612,33.65023668438545],[10.992397649970446,33.650181957579946],[10.992525995068629,33.650070393391545],[10.9926556043229,33.65001355587891],[10.992914822304444,33.6498998804629],[10.993109867713034,33.64984198695154],[10.993239476216461,33.64978514885088],[10.993238211370878,33.649730422069425],[10.993236946528706,33.64967569528744],[10.993106073424455,33.64967780659411],[10.99303937215254,33.64962413540651],[10.993038107548475,33.649569413255605],[10.99290596996408,33.64951679755152],[10.992640430811507,33.649356838895706],[10.992508293778917,33.64930422274383],[10.9925057650625,33.64919476912306],[10.992439064535105,33.64914109758014],[10.992436535921872,33.64903164395186],[10.992367307056687,33.64886851872827],[10.992364778560276,33.64875906509037],[10.992363514317184,33.648704338270626],[10.992362250077504,33.64864961145036],[10.992295550073711,33.648595939806874],[10.992228850152642,33.64854226812392],[10.992163414419668,33.64854332322985],[10.992097978683287,33.64854437830118],[10.992032542943502,33.648545433337915],[10.992031278920845,33.64849070650519],[10.992095450558667,33.64843492463957],[10.992225057722672,33.648378087643735],[10.992354664711028,33.64832125051767],[10.99261387826795,33.64820758051344],[10.992871826482077,33.64803917854092],[10.993065603137692,33.6479265584302],[10.993321014463005,33.64764870206578],[10.99345061960147,33.64759186384986],[10.993514789647307,33.647536081297154],[10.993578959610433,33.64748029871367],[10.993640599517501,33.64731506252106],[10.99370350421982,33.647204553090994],[10.993765143716331,33.64703931684519],[10.99389474764527,33.646982478202126],[10.993957651795917,33.646871968657784],[10.994085990102104,33.646760403045604],[10.994279762402492,33.64664778580973],[10.99453896809651,33.64653410273582],[10.994930306992591,33.64647303761549],[10.995062440945173,33.64652565130371],[10.995193303575146,33.646523538189285],[10.995390871870422,33.64657509486181],[10.995520473960585,33.6465182545737],[10.995780943909038,33.64645930033291],[10.995910545551546,33.64640245965032],[10.996041413475472,33.64640034555539],[10.996106847432317,33.646399288456045],[10.99623898192032,33.646451900864335],[10.996305682537601,33.64650557036712],[10.996372383237594,33.646559239830424],[10.996374916596029,33.646668693239654],[10.996442884197393,33.646777089359205],[10.99651085197443,33.6468854854333],[10.996513385539288,33.64699493882751],[10.996451751396865,33.64716017625232],[10.996454284913181,33.647269629645606],[10.996456818443164,33.6473790830368],[10.996395183955524,33.6475443204377],[10.996332282542593,33.647654831115815],[10.996336082666307,33.64781901120379],[10.996404051200354,33.64792740729439],[10.996405317963282,33.6479821339861],[10.99640785139202,33.648091582729286],[10.99640911827257,33.648146314058046],[10.996474553535743,33.648145256716],[10.996538721832225,33.64808946801493],[10.996601623370333,33.64797896187573],[10.99666705849919,33.6479779044364],[10.996733760597765,33.64803157364277],[10.996797928746659,33.647975789453945],[10.996796661735587,33.64792106277532],[10.99679412772369,33.64781160941646],[10.996790326731483,33.64764742937423],[10.996853227541523,33.6475369184844],[10.996917395259421,33.64748113424559],[10.997046997589411,33.64742429235085],[10.997109897916857,33.64731378134454],[10.997172798089139,33.647203270310236],[10.997236965355553,33.64714748591922],[10.997367834300864,33.6471453703793],[10.997433268768395,33.64714431255743],[10.997501232524092,33.64725270811424],[10.997566672615628,33.64725165012912],[10.997697536144088,33.64724953432417],[10.99782713757867,33.64719269164048],[10.997890036734525,33.647082180275746],[10.997954203432588,33.647026395531405],[10.99795166804127,33.64691694223412],[10.997947864979938,33.64675276228422],[10.997877360294064,33.646534913751694],[10.997809391140992,33.64642651847629],[10.997805588420105,33.64626233849909],[10.997869754701352,33.646206558450594],[10.997935188438534,33.646205500388966],[10.998001889755702,33.64625916430769],[10.99813275729569,33.6462570480071],[10.998264892789157,33.646309662851074],[10.998395760384525,33.64630754626932],[10.99859206175195,33.64630437113719],[10.998788363088622,33.64630119569366],[10.99891796224859,33.64624434729714],[10.99911299512357,33.64618644936327],[10.99924259399152,33.64612960527796],[10.999372192683806,33.646072761062456],[10.999503059832145,33.64607064332175],[10.999569762077678,33.64612431100181],[10.999700629288213,33.646122193049166],[10.999895655647073,33.64606428935908],[11.000090687278503,33.64600638528038],[11.000153582695194,33.64589587288094],[11.000219016105984,33.64589481361924],[11.000283180395671,33.64583902774253],[11.000414047117445,33.645836909050516],[11.000479480473201,33.645835849652606],[11.00054491382554,33.64583479022011],[11.000607808535833,33.645724277612395],[11.000670703090993,33.64561376497672],[11.000731058728073,33.645393799174855],[11.000858116373479,33.6452275003352],[11.001048067164177,33.644950688575065],[11.001436853671255,33.6447801501504],[11.001567718698514,33.64477803029579],[11.001762746321104,33.644720128352255],[11.001826908632134,33.644664337093715],[11.001891071075766,33.64460855508167],[11.001951422899795,33.64438858415103],[11.002013039243236,33.644223349099306],[11.002140092749839,33.64405704906524],[11.00245454846477,33.6435044821486],[11.00251616873162,33.64333924215362],[11.00251235751976,33.643175062567224],[11.002509816728987,33.64306560950697],[11.002443115201313,33.64301194336972],[11.002310982653404,33.64295933751528],[11.002308442138123,33.642849884437695],[11.002307171993287,33.64279516253676],[11.002304631498562,33.64268570945603],[11.002366251554339,33.64252046952616],[11.002427871389454,33.64235522957005],[11.002488220668493,33.64213526304835],[11.002612729570869,33.64185950954432],[11.002671807669572,33.64158481640764],[11.002670537247813,33.64153008986903],[11.00260002574957,33.64131224413907],[11.002597485026433,33.64120279105168],[11.002594944424674,33.64109334260083],[11.002721992494946,33.64092704209918],[11.002976087198608,33.640594440745176],[11.003037704671979,33.64042920052974],[11.003035163479712,33.640319747456054],[11.003032622301152,33.640210294380275],[11.002964652220896,33.64010190189158],[11.00289541182854,33.639938782812315],[11.002957029056644,33.639773542632135],[11.003019916613995,33.63966302896969],[11.00301737551769,33.63955357588123],[11.003014834542784,33.63944412742931],[11.002948135520949,33.63939045680544],[11.00294559464928,33.639281008345975],[11.002944324057056,33.6392262771575],[11.002943053683632,33.63917155524576],[11.003007211377245,33.639115768144976],[11.003072639545117,33.6391147075605],[11.003200954594796,33.63900313320189],[11.003263841324957,33.63889261943438],[11.0033279986052,33.63883683217986],[11.003458854489898,33.63883471065226],[11.003524282427108,33.63883364983657],[11.003655138291254,33.63883152810144],[11.003851422061791,33.63882834523932],[11.003916849978452,33.63882728421609],[11.004047705801499,33.63882516206587],[11.004177284820743,33.63876831335474],[11.004176013581631,33.63871358684168],[11.004045163485191,33.63871570903154],[11.003979730110505,33.63871677020953],[11.003911765690255,33.63860837812781],[11.003779639203406,33.63855577359442],[11.003648783766335,33.638557895446056],[11.003583356042665,33.63855895632],[11.0035820851893,33.63850422978515],[11.003580814339369,33.63844950324978],[11.003644971092523,33.6383937158465],[11.003711669617937,33.63844738147606],[11.003777097252087,33.63844632053731],[11.003907952510106,33.63844419855606],[11.003973374586446,33.63844313760352],[11.004038807754428,33.638442076436455],[11.004104235371448,33.638441015324766],[11.004236361858522,33.63849361951113],[11.004303055267137,33.63854728489427],[11.004368482953131,33.63854622363985],[11.00450060975035,33.63859882753098],[11.004564765990553,33.638543039669074],[11.004499338314838,33.63854410102725],[11.004498066882757,33.63848937452302],[11.004365940257745,33.63843677062209],[11.004233819335337,33.63838416648358],[11.004165843792187,33.63827577471819],[11.004099150683208,33.638222109247934],[11.004033723231535,33.638223170350884],[11.003967019148103,33.638169504984305],[11.003965748070721,33.63811477845889],[11.00403118099066,33.63811371730495],[11.00409533720303,33.638057929684784],[11.004094066049829,33.63800320316268],[11.004027367655064,33.63794953773207],[11.003959392735236,33.637841145823856],[11.003956850625043,33.637731692766145],[11.003891429086032,33.63773275369028],[11.003824731028823,33.637679088135776],[11.003758033162013,33.6376254271804],[11.003692606147908,33.63762648808637],[11.003695147805988,33.63773593652505],[11.003696418694032,33.637790663062894],[11.00363226240263,33.63784645048033],[11.003502678797508,33.63790329868017],[11.003435980833475,33.63784963291315],[11.003434710107348,33.63779490636707],[11.003369282952116,33.63779596710665],[11.003303855793458,33.63779702781164],[11.003237158032686,33.63774336192888],[11.003170460354589,33.63768969600664],[11.003039606178652,33.63769181716575],[11.002974179085546,33.63769287769342],[11.002842054652918,33.63764027671631],[11.002775357184145,33.63758660592937],[11.002643233027168,33.637534004728394],[11.002577806037529,33.63753506504198],[11.002512379044465,33.63753612532099],[11.002381525048067,33.637538245775225],[11.002316098044735,33.63753930595047],[11.002249401076458,33.63748563950255],[11.002181434277517,33.63737724642336],[11.002049310667667,33.63732463992192],[11.001982614030084,33.63727097331608],[11.001917192760363,33.637272033182995],[11.00178633911572,33.63727415299283],[11.001655485457395,33.637276272664316],[11.001590058623098,33.637277332448164],[11.00152590127852,33.63733311881213],[11.001461743851277,33.637388905145336],[11.001330889993396,33.637391024479676],[11.001201305307557,33.63744786566156],[11.001137147688295,33.6375036564747],[11.001072989878779,33.637559442618446],[11.001006293630867,33.63750577547189],[11.000940866597023,33.63750683491858],[11.000807474425056,33.63739950043346],[11.00067662049877,33.63740161907605],[11.000611193530498,33.637402678345445],[11.000547035331211,33.637458459588004],[11.000481608314768,33.63745951879041],[11.000350754271624,33.63746163709146],[11.000284058637845,33.63740797417364],[11.000153204656849,33.637410092262805],[11.000022350662178,33.63741221021362],[10.999956923659717,33.63741326913714],[10.999826075192018,33.63741538679064],[10.999760642631818,33.63741644570018],[10.999565629725582,33.637474343992395],[10.999501476534855,33.6375301339056],[10.999371890449241,33.63758697785798],[10.999241036124527,33.63758909499175],[10.999111449659505,33.63764593404134],[10.998916435970017,33.63770384061905],[10.998851008702777,33.63770489896549],[10.99878558143212,33.63770595727732],[10.998720154158047,33.63770701555456],[10.99858929959965,33.63770913200531],[10.998525139823538,33.637764912251505],[10.998459712494467,33.63776597039258],[10.998330125321141,33.63782281328834],[10.998331392819619,33.63787754000517],[10.998201805391446,33.6379343827746],[10.998072217787685,33.637991225413856],[10.998006790269358,33.63799228332152],[10.997942630008332,33.63804806792294],[10.997877202441838,33.63804912576362],[10.997813042053389,33.63810491030187],[10.997748881582268,33.63816069480936],[10.997683453922855,33.63816175255064],[10.99761802626003,33.6381628102573],[10.997553871164277,33.63821859457954],[10.997423010191334,33.63822070991399],[10.997424277135023,33.63827543665765],[10.997358854923409,33.638276494140655],[10.997294688477721,33.63833227851589],[10.997229266217944,33.638333335931904],[10.997163838407207,33.638334393403],[10.997098410593056,33.63833545083951],[10.996967554954509,33.63833756560874],[10.996903393749943,33.638393349701495],[10.996773804548807,33.63845019103141],[10.996708376631497,33.63845124826472],[10.996642948710777,33.63845230546346],[10.996577520786644,33.6384533626276],[10.996512092859097,33.63845441975716],[10.99644793126543,33.63851020362634],[10.99638250328972,33.63851126068889],[10.996317075310596,33.638512317716845],[10.99631834156863,33.63856704449489],[10.996252913544756,33.638568101490435],[10.996186219342116,33.638514431669],[10.996120791352755,33.63851548859319],[10.996055363359984,33.63851654548279],[10.995989935363802,33.6385176023378],[10.9958590793612,33.63851971594406],[10.995794917282106,33.638575499490756],[10.995729489230941,33.638576556209586],[10.995665327024424,33.638632339693125],[10.995534470822355,33.63863445296219],[10.995469042716204,33.63863550954482],[10.995403614606643,33.63863656609288],[10.995272763924863,33.638638678995655],[10.995207330257493,33.638639735529516],[10.99507647955525,33.63864184822475],[10.994945623291791,33.63864396087119],[10.994749338871026,33.63864712958145],[10.994621012957012,33.63875869554863],[10.994492686712299,33.63887026139276],[10.99442978854904,33.638980771106155],[10.994300196725167,33.639037609928195],[10.994234768264855,33.63903866586886],[10.994170604725714,33.63909444862007],[10.994171869653702,33.63914917546466],[10.994106441103895,33.639150231340494],[10.994105176217243,33.63909550449372],[10.994039747705365,33.63909656033279],[10.99397431919008,33.63909761613727],[10.993910155434017,33.639153398760456],[10.99391142020006,33.63920812561322],[10.993847256323392,33.63926390820728],[10.99378309236405,33.63931969077058],[10.99371766366977,33.639320746445385],[10.993653499475814,33.63937652430685],[10.993589335413557,33.63943231141485],[10.993523906626374,33.63943336699023],[10.99352517105425,33.639488089214765],[10.993459742222322,33.639489144757725],[10.993395577842778,33.63954492713311],[10.993331413487725,33.6396007141164],[10.993265984562893,33.63960176955993],[10.993136390893088,33.639658602579246],[10.993070961916697,33.6396596579212],[10.99294263231037,33.639771222262084],[10.992878472930851,33.63982700429689],[10.992814307920995,33.6398827863904],[10.992748873214538,33.63988384165754],[10.992618020434405,33.639885951819686],[10.992551327326574,33.6398322800015],[10.992485898195499,33.63983333503865],[10.99242046906102,33.639834390041194],[10.992289610781842,33.63983649994254],[10.992290874555298,33.63989122684333],[10.992225445369261,33.63989228174428],[10.992160016179817,33.63989333661065],[10.992094586986967,33.63989439144242],[10.99196372859105,33.63989650100219],[10.991832870181517,33.63989861042358],[10.991768704417776,33.63995439200006],[10.99163784590513,33.639956501218236],[10.991572416643699,33.639957555775446],[10.99144282135346,33.640014391714075],[10.991377392040475,33.64001544616968],[10.991115674754496,33.64001966364617],[10.990919386754273,33.64002282639032],[10.990853957414057,33.64002388056919],[10.990787265241023,33.63997020776376],[10.990655143882936,33.63991758898961],[10.990523028227678,33.63986496997852],[10.990455068221825,33.63975657010787],[10.99038838204782,33.639702896979],[10.9903871195939,33.639648174651775],[10.99025499885254,33.63959555078162],[10.99018956980903,33.6395966045972],[10.990124140762118,33.63959765837819],[10.990057449364384,33.63954398514677],[10.989858637880474,33.639437692201696],[10.989659826982633,33.63933140355581],[10.989461016456898,33.639225109931765],[10.989262206410256,33.63911881596826],[10.989063396842706,33.6390125216653],[10.988867110882545,33.63901568106871],[10.988734997623224,33.63896306004841],[10.98866830201153,33.638909386101936],[10.98853618902799,33.63885676485787],[10.98846570971721,33.63863890968077],[10.988332330512167,33.63853156124336],[10.988264385421482,33.638423159828754],[10.988197696070404,33.63836948550874],[10.988132267872299,33.63837053820209],[10.988064317616283,33.6382621367503],[10.987993845591209,33.638044281134036],[10.987856685385488,33.637772755562594],[10.987715743677727,33.63733704393313],[10.987576064147968,33.6369560591461],[10.987573542849027,33.636846604977805],[10.98757102156369,33.63673715080737],[10.987503073386048,33.63662874894752],[10.987500552210584,33.63651929476856],[10.987496770472891,33.63635511349615],[10.987495509900459,33.63630038640428],[10.987558415341029,33.636189879923656],[10.987555894244148,33.63608043037928],[10.987680443855934,33.635804690248314],[10.987804992712476,33.635528950009196],[10.98793080161094,33.635307936748625],[10.988056609888908,33.635086923375965],[10.988246576568303,33.63481013027669],[10.9884390753275,33.63464279089137],[10.988630306594633,33.6344207242476],[10.988759890253643,33.63436389617705],[10.988824053972081,33.63430811155761],[10.98895364287553,33.63425128320443],[10.989083231389628,33.63419444544371],[10.989276983302588,33.63408183662903],[10.989406571445194,33.634025003183424],[10.989536159412284,33.633968169607634],[10.98966700903529,33.63396606294242],[10.989796596730603,33.63390922910245],[10.989927446243746,33.63390712216491],[10.99005703366728,33.633850288060756],[10.990187883070556,33.6338481808509],[10.99018914522922,33.633902907874806],[10.990319989154257,33.6339008006116],[10.990450844160268,33.63389869303136],[10.990515000971936,33.63384291231032],[10.990644587883033,33.63378607760702],[10.990710012514425,33.63378502371028],[10.990775437142418,33.633783969778975],[10.99084086176701,33.63378291581308],[10.99097171100598,33.633780807777526],[10.991035872931239,33.633725026711126],[10.991101297500888,33.63372397260906],[10.991232146629981,33.633721864301194],[10.99129630833839,33.633666083106796],[10.991361732853099,33.633665028868556],[10.991492581872308,33.63366292028835],[10.991558006376808,33.63366186594637],[10.991623430877903,33.633660811569825],[10.991753016732956,33.63360397573902],[10.991818441182511,33.63360292126088],[10.991882602412483,33.63354713977807],[10.991883865628662,33.633601866748165],[10.991755543010221,33.63371342968634],[10.991691381577017,33.63376921110927],[10.991692644682841,33.63382393808379],[10.991759332451675,33.63387761060336],[10.99182602030317,33.63393128308346],[10.991827283501872,33.63398601005205],[10.991893971480764,33.63403968249],[10.991959396254144,33.634038627925314],[10.992026084353624,33.634092300287065],[10.992091509161524,33.63409124565103],[10.99215693396602,33.634090190980416],[10.992289046955934,33.634142803848576],[10.992354471791542,33.634141749072036],[10.992418633149954,33.634085971952125],[10.992484057937425,33.63408491710859],[10.992549482721492,33.634083862230476],[10.99248532145254,33.634139639415196],[10.992419896623744,33.634140694260914],[10.992356998880888,33.634251202969686],[10.992292837578173,33.63430698933945],[10.992294100982942,33.63436171165047],[10.992295364498215,33.63441643859962],[10.992297891538984,33.63452589249636],[10.992301682125701,33.63469007333752],[10.992304209200553,33.63479952722897],[10.99230547274309,33.63485425417393],[10.992242574379423,33.63496476283677],[10.992243837890856,33.63501948978231],[10.992246364923945,33.63512894367179],[10.992247628445602,33.63518367061574],[10.992248891970666,33.63523839755917],[10.992251419031021,33.63534785144443],[10.992256473192631,33.63556675920864],[10.992324426290171,33.6356751582848],[10.992325689887243,33.63572988522131],[10.992392379563272,33.63578355731554],[10.99245780563541,33.63578250243923],[10.992459069321967,33.63583722937033],[10.992525759163332,33.635890901385665],[10.992657869618757,33.63594351382573],[10.992659133546656,33.635998245387384],[10.992725829076322,33.63605191255622],[10.992728356817597,33.63616136639526],[10.992793783162037,33.636160311330784],[10.99285920395565,33.6361592563212],[10.992925899840456,33.636212928010295],[10.992927163843618,33.636267654921966],[10.99299384876098,33.63632132674783],[10.993060539308445,33.63637499844477],[10.993127229938581,33.636428670102255],[10.993258082996523,33.636426559501956],[10.99325934721999,33.63648128640065],[10.993324773785183,33.63648023104644],[10.993390200346973,33.63647917565765],[10.993456891256233,33.63653284712591],[10.993522317852541,33.636531791665774],[10.99358774444544,33.63653073617104],[10.993653171034934,33.636529680641736],[10.993718597621019,33.63652862507782],[10.99371986214065,33.63658335196025],[10.993850715385264,33.636581240724325],[10.993917406649507,33.63663491192987],[10.993984097996417,33.636688583095925],[10.994049524689467,33.636687527352564],[10.99404825995634,33.63663280048207],[10.99411368660465,33.636631744706285],[10.994180378065339,33.63668541576207],[10.994245804748164,33.63668435991494],[10.994312496329453,33.636738030894485],[10.994377923046795,33.63673697497601],[10.994442084776184,33.63668119216602],[10.994507511445374,33.63668013618054],[10.994506246422906,33.63662540932529],[10.994504981403853,33.63657068246948],[10.994502451375983,33.63646122875632],[10.994501186367165,33.636406501898946],[10.994566612826274,33.63640544588976],[10.994632039281973,33.63640438984597],[10.994697465734262,33.63640333376761],[10.994762892183145,33.636402277654675],[10.994828318628615,33.636401221507136],[10.99489247981727,33.636345438480156],[10.994957900667156,33.63634438235518],[10.995087493624997,33.63628754289395],[10.995086228254413,33.63623281605457],[10.995151649011413,33.63623175983018],[10.995150383602912,33.63617703299247],[10.995214549963585,33.63612124972047],[10.995279970631103,33.636120193431275],[10.995345396842627,33.63611913701793],[10.995344131316955,33.63606441018567],[10.995277439665836,33.63601073976189],[10.995276174295585,33.63595601756508],[10.995341600383114,33.635954961158255],[10.995274908714224,33.635901286090416],[10.995209488212023,33.6359023423709],[10.995208222889923,33.635847620170836],[10.99520569204145,33.63573816649184],[10.995204426622331,33.63568343965153],[10.995203161206629,33.635628712810714],[10.995201895794338,33.63557398596938],[10.995136464441936,33.63557504238135],[10.995135199074396,33.6355203155373],[10.995199364979996,33.635464532285084],[10.99526478515157,33.635463476022025],[10.995262254268223,33.63535402233997],[10.995260988831673,33.63529929549818],[10.995259723398533,33.635244568655835],[10.995258457968808,33.63518984181297],[10.995322618010041,33.635134058595405],[10.995385512466468,33.635023548506986],[10.995384246967733,33.634968821666384],[10.995382981472414,33.63491409482522],[10.995380450492014,33.63480464114136],[10.995445875704752,33.634803584711065],[10.99551003534634,33.63474780140782],[10.995572929303027,33.63463729123656],[10.995571663704196,33.6345825643988],[10.995569132516778,33.63447311072164],[10.995632026214881,33.63436260052577],[10.995629495079388,33.63425315148742],[10.995628229355852,33.63419842000947],[10.995626963850276,33.6341436978083],[10.995689857255302,33.63403318758893],[10.995687325970845,33.63392373390995],[10.995686060333735,33.63386900706968],[10.995619370244873,33.633815336758325],[10.995618104655923,33.6337606099148],[10.995616839070385,33.633705883070775],[10.995680997819441,33.63365009970329],[10.99567846658278,33.63354064601691],[10.995677200969567,33.633485919172955],[10.99567593535977,33.63343119232845],[10.995674669753388,33.63337646548343],[10.995672138550862,33.63326701179181],[10.995670872954722,33.6332122849452],[10.995732500059948,33.63304704786867],[10.995796658264563,33.632991264456166],[10.995795392602838,33.63293653761127],[10.995794126944526,33.632881810765866],[10.99579286128963,33.63282708391992],[10.995857019297858,33.63277130048162],[10.995854487922479,33.63266184679144],[10.99585322234719,33.63260712458423],[10.995851956560756,33.632552393099175],[10.99578526753921,33.63249872747184],[10.995784001908211,33.63244400062222],[10.99578273617335,33.632389269133405],[10.995781470656452,33.63233454692136],[10.99578020492842,33.632279815431495],[10.995713516168482,33.63222614975389],[10.995712250595878,33.63217142289944],[10.995776408193903,33.63211563951335],[10.9957751425868,33.632060912660016],[10.995772611382836,33.63195145895179],[10.995705922784058,33.63189778861931],[10.995704657231936,33.63184306176169],[10.995703391683227,33.631788334903554],[10.99570086059605,33.63167888118571],[10.995765017852879,33.631623097814455],[10.99582917502706,33.63156731441243],[10.995762486703535,33.63151364409778],[10.995761221133986,33.63145891723866],[10.995695798462663,33.631459973743674],[10.99569453293785,33.63140524688184],[10.995627844824366,33.63135157648557],[10.995626579347705,33.631296849620504],[10.995559891361607,33.631243179182064],[10.995558625933096,33.63118845231378],[10.995557360507998,33.63113372544496],[10.995616455657297,33.630859034681066],[10.995612659436976,33.63069485870873],[10.995611394001275,33.63064013183734],[10.995543441164457,33.63053173449184],[10.995542175673066,33.63047700297805],[10.995538379648385,33.63031282698811],[10.995469161857352,33.63014970270382],[10.99546789653843,33.63009497582279],[10.99546663122292,33.630040248941256],[10.995465365910823,33.6299855220592],[10.995464100602137,33.62993079517661],[10.995461569995008,33.62982134140985],[10.995459039401531,33.62971188764099],[10.995456508821706,33.62960243386999],[10.995455243536913,33.62954770698372],[10.995387291821505,33.62943930949574],[10.995386026588271,33.629384582605695],[10.99545018243187,33.62932879943332],[10.995447651899829,33.62921934565496],[10.995446386638926,33.62916461876499],[10.995443856127363,33.62905516498348],[10.995442590983941,33.62900044273058],[10.995440060492855,33.62889098894589],[10.995373374550876,33.62883731831498],[10.995372109355182,33.62878259141914],[10.995434999551636,33.6286720813702],[10.995432469101502,33.628562627579186],[10.995431203881557,33.628507900682884],[10.995364518252694,33.62845423003304],[10.995361987912501,33.62834477623346],[10.995295302455737,33.628291105538764],[10.995292772218653,33.628181651731666],[10.99529150710523,33.62812692482733],[10.995290241995221,33.628072197922464],[10.995288976888624,33.628017471017074],[10.99528771178544,33.62796274411115],[10.995286446685666,33.6279080172047],[10.995349336416293,33.62779750720393],[10.995346806158002,33.62768805339171],[10.995344275913366,33.62757859957736],[10.995343010796164,33.627523872669386],[10.995276326117567,33.6274702065728],[10.99520964130715,33.62741653115944],[10.995142956793815,33.62736286498394],[10.995077537194181,33.627363921049096],[10.995012123137991,33.62736497699014],[10.994946697984682,33.62736603307569],[10.994880019000123,33.62731235738363],[10.99487875418919,33.6272576304578],[10.994813334658554,33.6272586863803],[10.99474790957766,33.627259742357765],[10.99474664495997,33.62720502006572],[10.994681231010674,33.62720607582738],[10.994614546765085,33.62715240006974],[10.994546598225797,33.62704400661116],[10.994481178843378,33.62704506235209],[10.994414494952878,33.62699139111475],[10.994349075604958,33.62699244678435],[10.99428365625363,33.62699350241939],[10.994218236898893,33.626994558019845],[10.994152817540751,33.626995613585734],[10.994086133884514,33.62694194216194],[10.994084869593237,33.62688721520632],[10.994147760217208,33.62677670577088],[10.994145231575901,33.62666725186031],[10.994143967260365,33.62661252490422],[10.99414143863952,33.626503070990466],[10.994140174334213,33.62644834403281],[10.994138910032316,33.62639361707462],[10.99407222686805,33.62633994562111],[10.994005543786415,33.62628627412814],[10.993874706120447,33.62628838496135],[10.993809287282353,33.626289440326076],[10.993742604397069,33.62623576868343],[10.993675921594413,33.62618209700132],[10.993609238874386,33.62612842527975],[10.993543820146607,33.62612948049968],[10.99354255623699,33.62607475351875],[10.993475873682224,33.62602108171829],[10.993474609820739,33.625966354734146],[10.993473345962663,33.62591162774947],[10.99353750063262,33.62585584558978],[10.993601655219953,33.625800063399346],[10.993600391289482,33.62574533641744],[10.993599127469547,33.62569061407367],[10.993597863438763,33.62563588245203],[10.993531181310992,33.62558221530538],[10.993465762992928,33.62558327046898],[10.993464499051594,33.62552853884195],[10.993463235327916,33.62547381649173],[10.993396553302988,33.625420144624805],[10.993329871253573,33.625366468079775],[10.993263189501015,33.625312800772626],[10.993197771375888,33.62531385578708],[10.993066935115415,33.62531596571224],[10.993001516980073,33.62531702062295],[10.992937362224312,33.6253727978683],[10.992874471055705,33.62548331136922],[10.992810316096808,33.62553908855472],[10.992747424545566,33.62564959735987],[10.99268327514445,33.6257053836734],[10.992552438251133,33.62570749307583],[10.992487019799368,33.62570854772519],[10.992422858873814,33.62576432481228],[10.992358709066231,33.625820106328455],[10.992229135039949,33.62587694242085],[10.99216371644723,33.62587799690386],[10.99203414219737,33.625934832799175],[10.991968723553125,33.62593588718064],[10.991904567772048,33.62599166856436],[10.99183788625443,33.62593799583983],[10.991772467599978,33.625939050117566],[10.991708311684752,33.625994831404086],[10.991644155686902,33.626050612659846],[10.991513318188924,33.62605272098199],[10.99144789943483,33.6260537750912],[10.991382480677334,33.62605482916584],[10.991315799418278,33.62600115615004],[10.99124911824185,33.6259474830948],[10.991182437148055,33.62589381000011],[10.991181174742739,33.62583908293833],[10.991115756136884,33.625840136865975],[10.991050337527628,33.625841190759054],[10.990984918914974,33.625842244617566],[10.990919500298913,33.6258432984415],[10.990852819484108,33.625789625157694],[10.990851557399148,33.62573490272266],[10.990846508665427,33.62551599442261],[10.990779828156832,33.62546232108588],[10.990778565919651,33.625407589368166],[10.990776041776439,33.625298139847196],[10.990708104956076,33.62518973929026],[10.990706842884206,33.62513501220643],[10.990705580815739,33.62508028512207],[10.990769731210545,33.62502450443888],[10.990768469107577,33.62496977735563],[10.990767207008018,33.62491505027186],[10.990831362791113,33.624859269471855],[10.99083010065705,33.62480454238921],[10.990828838526392,33.624749815306025],[10.990826314275289,33.62464036113808],[10.990825052154843,33.62458563405331],[10.990823790037805,33.624530906968026],[10.990822527924168,33.624476179882215],[10.990755848265168,33.624422506494206],[10.990691698287295,33.62447828715931],[10.990626275143729,33.62447934088001],[10.990562119491841,33.624535121571306],[10.99049670184685,33.62453617513569],[10.990497963757338,33.62459090223182],[10.990432546067636,33.624591955763826],[10.990367133921222,33.62459300917191],[10.990301710678024,33.62459406272408],[10.990237560273469,33.62464984316733],[10.990173404239599,33.62470562366916],[10.990107980903572,33.624706677121935],[10.990042568657547,33.62470773036152],[10.98997841245164,33.624763510767785],[10.989912994610801,33.624764564029704],[10.989847576766566,33.62476561725706],[10.989848838277565,33.62482034437279],[10.989783420388619,33.62482139756774],[10.989719263928054,33.62487717784769],[10.989720525363236,33.62493190496671],[10.98965510738487,33.62493295809685],[10.989590950759066,33.624988738315274],[10.989526794050644,33.625044518502925],[10.98939595790487,33.62504662452989],[10.989267644061323,33.625158184683315],[10.989202225893917,33.62515923758012],[10.989138068803506,33.62521501757829],[10.989072650587989,33.62521607040813],[10.988941814146765,33.62521817596409],[10.988876395921052,33.625219228690206],[10.98881223856918,33.62527500852799],[10.988746820295361,33.62527606118713],[10.988680141223533,33.62522238666112],[10.98861472298423,33.625223439248956],[10.988548044032944,33.625169764646756],[10.988546783327758,33.625115037490794],[10.988480104503807,33.62506136284647],[10.988413431309212,33.62500768807348],[10.988217177036086,33.62501084529236],[10.988085080431206,33.62495822275935],[10.988019656821166,33.6249592751144],[10.987954244301173,33.62496032725643],[10.987888826231062,33.624961379453126],[10.98782214792039,33.624907704433305],[10.987690051694669,33.624855081462684],[10.987623373587162,33.624801406327265],[10.987555435503962,33.6246930039597],[10.987488757606416,33.624639328742695],[10.9874874975962,33.62458460154677],[10.98748497758597,33.624475147153326],[10.987483717585953,33.62442041995582],[10.987482457589334,33.624365692757785],[10.98741577999796,33.62431201748788],[10.987479937606293,33.62425623836013],[10.987478677619869,33.62420151116051],[10.987476157657223,33.62409205675969],[10.987474897680997,33.624037329558504],[10.987473637814963,33.623982606995455],[10.987406960429754,33.623928927068015],[10.987340283340748,33.623875256378504],[10.987274866066276,33.6238763082207],[10.98733776358412,33.62376580196269],[10.987336503710903,33.623711074754006],[10.987335243841088,33.62365634754479],[10.98726982673185,33.623657399378295],[10.98720440961922,33.62365845117725],[10.987138992503196,33.62365950294162],[10.98707231568259,33.623605827453005],[10.987006898601084,33.62360687914606],[10.986941481516181,33.62360793080456],[10.986877324005142,33.62366370965339],[10.98681316641149,33.62371948847147],[10.986749008735226,33.62377526725879],[10.986684850869588,33.623831041376626],[10.986619433602485,33.62383209287094],[10.986491117747475,33.62394365022693],[10.986426959802786,33.62399943349746],[10.986362801562002,33.62405520745985],[10.98629738411269,33.62405625878996],[10.986298643345345,33.62411098603016],[10.986166549203887,33.624058361346464],[10.986099878292459,33.62400468987519],[10.986034455324209,33.62400574115399],[10.985970302361904,33.62406151483282],[10.98590614387703,33.624117293208705],[10.985840720815977,33.6241183443881],[10.98570989132373,33.62412044637583],[10.985643214979618,33.62406677010053],[10.985577797492985,33.62406782105036],[10.985511121376105,33.62401414933757],[10.985444445128467,33.623960468307985],[10.985312351800548,33.623907847321405],[10.985311093094436,33.62385311540791],[10.985243158756704,33.62374471625941],[10.98517774149757,33.62374576698882],[10.985176482990944,33.623691039708106],[10.98504313170729,33.623583686487216],[10.984911039081931,33.62353106040009],[10.9849085224297,33.623421605816624],[10.984904747476813,33.62325742393746],[10.984838072302969,33.62320374717825],[10.984835555774087,33.623094292584135],[10.984767622557616,33.62298588847957],[10.984700947683114,33.62293221163344],[10.984699689516564,33.622877484329685],[10.984698431353404,33.62282275702539],[10.984761331535285,33.622712251968956],[10.984760073341002,33.62265752466526],[10.98475881515011,33.62260279736103],[10.984692140588518,33.62254912049605],[10.984625466109543,33.62249544359167],[10.984560049769971,33.62249649396014],[10.984494633427012,33.622497544294056],[10.984429217080658,33.6224985945934],[10.98429964227274,33.6225554224088],[10.984234228648203,33.622556472562074],[10.984170070062723,33.622612250049535],[10.984104650843515,33.62261330022487],[10.984037979434381,33.62255962294804],[10.983972563022995,33.62256067300756],[10.983908404258727,33.622616450365406],[10.983842987799255,33.62261750035794],[10.983776313768498,33.622563822978705],[10.98370963982036,33.62251014556002],[10.983708382300554,33.62245541821959],[10.983577549605728,33.622457517949705],[10.983447974251924,33.622514344890625],[10.983449231609894,33.622569072239195],[10.983450488971252,33.62262379958722],[10.983319656001477,33.62262589905376],[10.983252982274067,33.62257222138064],[10.983251725040018,33.622517494025594],[10.983250467809363,33.62246276667002],[10.983182539844684,33.622354361548815],[10.983115863643313,33.62230068383329],[10.982983776963305,33.62224806015604],[10.98298251980828,33.62219332815049],[10.982914589627654,33.62208492290212],[10.982849173530424,33.622085972354476],[10.982783754656525,33.622087021816775],[10.98265543889212,33.6221985752611],[10.982592536303395,33.622309079338656],[10.982529633559619,33.62241958338819],[10.982398800825445,33.62242168186946],[10.982332127807696,33.62236800367133],[10.982264198381575,33.622259602682384],[10.982192499396438,33.621987014826246],[10.982125826850012,33.62193333649642],[10.982061670062572,33.621989112882765],[10.981996251230644,33.62199016192588],[10.98186542187646,33.621992259774984],[10.981798746746355,33.62193858130598],[10.981732077245418,33.62188490270862],[10.981666661252449,33.621885951530096],[10.981470413253232,33.62188909778711],[10.98133958123683,33.62189119511893],[10.981208749206889,33.62189329231248],[10.981077919936684,33.621895389323306],[10.981011245351016,33.62184171040814],[10.980880416143117,33.62184380720724],[10.980749584148406,33.6218459039125],[10.9805545916274,33.621903776161645],[10.98049043103203,33.62195955181301],[10.980425014933452,33.62196059997983],[10.980359598831493,33.621961648112084],[10.980291672060337,33.621853241291994],[10.980226256034223,33.62185428935078],[10.980160840004727,33.621855337375],[10.980095423971846,33.62185638536466],[10.980031263101573,33.621912160787545],[10.979968357280146,33.62202266364855],[10.979969612414987,33.62207739111691],[10.979972122694827,33.622186846052074],[10.979975888033591,33.62235102381217],[10.979912981849893,33.62246152665177],[10.979784661697652,33.622573077263795],[10.979717987334112,33.62251939764625],[10.97965257355518,33.62252044537541],[10.979588411917039,33.62257622059101],[10.979457578713053,33.62257831596963],[10.979392162105988,33.622579363607095],[10.979261328881712,33.622581458778306],[10.979194657594874,33.62252777882251],[10.979126731769105,33.622419371334544],[10.979125477150937,33.622364643841266],[10.979122967924756,33.622255188853124],[10.979055042418597,33.62214678131022],[10.978989626121699,33.622147828722994],[10.97892420982142,33.622148876101186],[10.97885879351776,33.622149923444816],[10.97879337998401,33.62215097070948],[10.97866380178159,33.6222077973731],[10.97859963959435,33.62226356745402],[10.97853547476383,33.622319346825996],[10.978536728900542,33.6223740697005],[10.978537983146945,33.62242879721321],[10.978540491649902,33.622538252237035],[10.97847633202536,33.62259402685723],[10.978410915367585,33.62259507397616],[10.978280082041891,33.62259716811025],[10.978214665373974,33.622598215125436],[10.978150502714772,33.62265398962961],[10.978085085998789,33.62265503657781],[10.977954252556685,33.62265713037053],[10.977822168068814,33.62260449644625],[10.977624661532412,33.6225529091652],[10.977559244872012,33.62255395583253],[10.977493830981535,33.62255500242093],[10.977428411541077,33.62255604906349],[10.97736425115687,33.6226118231327],[10.977234671156841,33.62266864371429],[10.977169254393559,33.622669690178505],[10.9769755106307,33.622782284486924],[10.976912600249454,33.62289278594254],[10.976783019516807,33.622949606074165],[10.9766521855265,33.62295169850562],[10.97658676852628,33.62295274466949],[10.976585515488669,33.622898017096816],[10.976584262454436,33.62284328952362],[10.976517595317224,33.62278960802838],[10.976452175660864,33.622790654160994],[10.976320091795708,33.62273801860659],[10.976254672170528,33.62273906463333],[10.976188005312348,33.62268538294911],[10.976121335763473,33.62263170126982],[10.976055918984093,33.62263274714419],[10.9759250854152,33.62263483878924],[10.975860921192016,33.6226906121589],[10.975796756886222,33.62274638549778],[10.975733844991662,33.622856886407604],[10.975669680482712,33.62291265968655],[10.975605515891147,33.6229684329347],[10.975540101610232,33.62296947850111],[10.975474681779302,33.622970524121605],[10.975409267491635,33.62297156961888],[10.97527467396202,33.62280947779379],[10.975206755471518,33.622701067941364],[10.975138834383067,33.62259265808795],[10.975137582277881,33.6225379304642],[10.97513633017607,33.62248320283991],[10.975067157308745,33.62232006530679],[10.974933820208918,33.622212700622626],[10.974867151889043,33.62215902286015],[10.974736318942185,33.62216111322188],[10.974605485981835,33.62216320344533],[10.974474653007992,33.6221652935305],[10.974345071500432,33.62222210649196],[10.9742796549604,33.622223151415696],[10.97414882187022,33.62222524115947],[10.974019243028616,33.62228206302292],[10.973826746914423,33.622449375546424],[10.973763832647505,33.62255987554176],[10.973568833296508,33.62261773699009],[10.973503416426858,33.62261878151405],[10.973371331687565,33.622566142776364],[10.97330591484911,33.62256718719448],[10.973239249876704,33.62251350384702],[10.973236748185075,33.62240405311071],[10.973170077732012,33.622350365168295],[10.973103413120219,33.62229668637541],[10.973037996474812,33.622297730644476],[10.972971328998238,33.62224404254228],[10.972840495773195,33.62224613090324],[10.972773828667126,33.62219245196566],[10.972642995504469,33.622194540114904],[10.972446745735208,33.62219767207951],[10.972187579777847,33.62231130299641],[10.971992579689571,33.62236915733891],[10.971928415892453,33.62242493334823],[10.971798832194153,33.62248174371225],[10.971735915261677,33.622592242769294],[10.971738415179404,33.62270169824012],[10.971675498022684,33.62281219727129],[10.971676747952042,33.62286692500701],[10.97167924782087,33.62297638047689],[10.97161383060564,33.62297742401121],[10.971482996165074,33.62297951097614],[10.97135091198148,33.62292687005736],[10.971286744478965,33.62298264116424],[10.971221327243526,33.62298368449113],[10.971094241475727,33.62314995430012],[10.971095491053532,33.623204682052034],[10.971031323182618,33.62326045303736],[10.9709659085005,33.623261496192484],[10.97090048826834,33.623262539401495],[10.970836322998796,33.62331831024695],[10.97077090549193,33.62331935334475],[10.970705487981695,33.62332039640796],[10.970638821172717,33.6232667116707],[10.970573403697058,33.623267754662635],[10.970509235430795,33.6233235253902],[10.970380898650417,33.623435066752926],[10.97031797923861,33.623545565162644],[10.970190890916447,33.62371183412111],[10.970127971073824,33.623822332445485],[10.970129220072415,33.623877060223336],[10.970130469074379,33.623931788000654],[10.970198385165975,33.624040200773685],[10.970200883276107,33.624149656320355],[10.970203381399715,33.624259111864895],[10.970204630360701,33.62431383499766],[10.970207128504523,33.62442329053904],[10.97020837758149,33.624478018308956],[10.970144208212455,33.624533788877685],[10.969949201762605,33.62459164484573],[10.96988378603184,33.62459268746473],[10.96981711591512,33.62453900235581],[10.969815867082657,33.62448427457354],[10.96974670507454,33.62432113376268],[10.969680038136337,33.624267453161465],[10.969678789297497,33.62421272073353],[10.969546704296118,33.6241600825634],[10.969480037394115,33.62410639256655],[10.969413370786404,33.62405271180778],[10.969412122232125,33.623997984007886],[10.969410873681214,33.62394325620747],[10.969280037607192,33.623945340894565],[10.969149201519715,33.62394742544338],[10.968951699104895,33.623895824191315],[10.968822111242138,33.62395263621038],[10.968627105090407,33.624010490081915],[10.968497519602314,33.62406730172936],[10.968172924292285,33.624181966469024],[10.967914996734546,33.62435031197039],[10.967721236522983,33.62446289231334],[10.967657062720821,33.62451866169242],[10.967594141814011,33.62462915880713],[10.96752997058204,33.624684928082054],[10.967465799267446,33.62474069732618],[10.967400380552862,33.62474173867987],[10.967336206337578,33.6247975079049],[10.967272037586454,33.624853277010835],[10.967210360389723,33.62501850185851],[10.967211607599975,33.62507322972192],[10.967212854813587,33.625127957584816],[10.967148682972029,33.62518372667975],[10.967084511047847,33.625239495743884],[10.967020339041039,33.62529526477719],[10.966890747755686,33.6253520748804],[10.966826575538954,33.625407843819666],[10.966762403239596,33.62546361272812],[10.966764897138884,33.625573068476044],[10.966701971597738,33.62568356523173],[10.966637801792698,33.62573933403929],[10.966573626252503,33.62579509826555],[10.966442789929372,33.62579718000768],[10.966378614428555,33.62585295341575],[10.966249024643618,33.62590976284244],[10.966120678474997,33.62602130007392],[10.965991085381038,33.626078104649245],[10.965928158496709,33.62618860105132],[10.965862738627306,33.626189641630994],[10.965731898878426,33.626191722686606],[10.965602305364113,33.62624853150992],[10.965471468279173,33.62625061224911],[10.965341874493461,33.62630742080814],[10.965211034525582,33.62630950131912],[10.965212280532413,33.62636422923692],[10.96508144046847,33.62636630961387],[10.965017266317702,33.626422077674206],[10.964886426150983,33.626424157848],[10.964822251828238,33.62647992581263],[10.964758077422864,33.62653569374646],[10.964630974019366,33.62670195745559],[10.964566799328141,33.62675772529858],[10.96450137897506,33.626758765173584],[10.96450013339919,33.62670403723589],[10.964434713084067,33.62670507707417],[10.964368050049172,33.626651388891304],[10.964366804562655,33.626596660948266],[10.964300136108163,33.62654297281149],[10.964296399802807,33.62637878897125],[10.964228491728152,33.62627037274846],[10.964161826391088,33.62621668447816],[10.964029741320116,33.62616404041663],[10.963897656193248,33.62611138693021],[10.963768061598174,33.6261681985085],[10.963637221717072,33.626170277346965],[10.963571801771486,33.62617131671434],[10.963506381822548,33.62617235604715],[10.963505136797858,33.62611762343278],[10.96343722714125,33.62600920677178],[10.963370565362036,33.625955522642236],[10.96330514279486,33.62595656190679],[10.963174305970755,33.62595864020002],[10.963044710874186,33.62601544175242],[10.962915115813285,33.62607225245207],[10.962852184922097,33.626182747429404],[10.962788009298828,33.62623850974174],[10.962723833698414,33.62629427666202],[10.96265841362324,33.62629531554961],[10.962527573462832,33.62629739322106],[10.96239673606246,33.62629947071018],[10.962330069014882,33.626245781455836],[10.962263404928839,33.62619209675681],[10.962131320736482,33.62613944134547],[10.961997992842598,33.6260320623996],[10.961932575710563,33.62603310085214],[10.961801733116122,33.62603517778554],[10.961672139916178,33.626091987167946],[10.961475880015465,33.62609510204166],[10.961346283511874,33.62615190185927],[10.961217930414833,33.626263434235355],[10.96108833497347,33.62632023841292],[10.960764963736983,33.62648961237326],[10.960702031152767,33.62660010633639],[10.960639095639888,33.62671060031542],[10.96064033877467,33.626765328379925],[10.960574919648439,33.62676636615619],[10.96050949913212,33.62676740391988],[10.960444078612454,33.62676844164897],[10.960379901062305,33.62682420741604],[10.960314481881358,33.62682524505614],[10.960249059923589,33.62682628270564],[10.96011822015821,33.626828357834945],[10.960052798190391,33.62682939538071],[10.95960106923808,33.62711029751812],[10.959344353921074,33.62733335877526],[10.959088882248817,33.627611147603055],[10.958961766171692,33.627777405902854],[10.958963008190594,33.627832129374184],[10.95896425031813,33.62788685748377],[10.959030915405439,33.62794055323089],[10.95903215747571,33.62799527669852],[10.958966734583255,33.62799631370134],[10.958901314460963,33.62799735062562],[10.958900072473325,33.62794262715372],[10.958834651002244,33.627943664063274],[10.958769229527817,33.627944700938244],[10.958703808050046,33.627945737778624],[10.958574206865514,33.62800253483825],[10.958444607102942,33.62805934102313],[10.958381667575246,33.62816982933098],[10.958253310408729,33.6282813587947],[10.958189128927994,33.628337123524254],[10.958126190375248,33.6284476163331],[10.958127432002463,33.62850234446466],[10.958129915266946,33.62861180072619],[10.958132398544823,33.62872125698564],[10.958133640188786,33.62877598511458],[10.958002795923338,33.628778058133285],[10.95793737517236,33.628779094568785],[10.957870711552594,33.628725402854215],[10.957670722575946,33.62856432745225],[10.957605299199999,33.62856536375026],[10.95753987720747,33.62856639999173],[10.957409033212379,33.62856847237091],[10.957279431687406,33.62862527274808],[10.957149828600352,33.62868207301691],[10.956953563681331,33.62868518090224],[10.95682395888816,33.62874198086164],[10.956758538118303,33.62874301667261],[10.956627693795019,33.62874508823468],[10.956495608850794,33.62869243147561],[10.956232681250482,33.628641845685785],[10.956035174616616,33.628590223935504],[10.955904330467721,33.628592294724044],[10.955840148575913,33.628648058271644],[10.955710544432675,33.62870485706593],[10.955579701471835,33.62870692749524],[10.955450097057279,33.628763726025156],[10.955321732337865,33.62887525264493],[10.95525879107679,33.62898574410788],[10.95512918463893,33.629042542343285],[10.955063763575565,33.62904357726585],[10.954997102834978,33.628989883924554],[10.954995863164445,33.62893515569476],[10.95492919977763,33.62888146235533],[10.954862537860238,33.62882776895458],[10.954926720535928,33.62877200588884],[10.954861298282381,33.62877304071894],[10.95479463787907,33.62871934725423],[10.954663793437918,33.62872141673726],[10.954532948983404,33.62872348608197],[10.954468766077715,33.628779248951396],[10.954404581702617,33.62883501181192],[10.954274977652162,33.62889180912088],[10.954078711920138,33.628894912460886],[10.953949106163606,33.62895170946037],[10.953819500231768,33.62900850632953],[10.953623232794918,33.629011608978075],[10.9534923892071,33.6290136772156],[10.953425726649234,33.62895998303443],[10.95336030558169,33.628961017053655],[10.953229460663039,33.62896308503221],[10.953164038198707,33.62896411896963],[10.953033193260032,33.62896618674069],[10.952967772172462,33.628967220552425],[10.952772742994961,33.62902505014821],[10.952643136119844,33.629081845814554],[10.95251229234926,33.629083913018945],[10.9524468683788,33.62908494660215],[10.952381447178555,33.629085980106936],[10.952316024588198,33.629087013599055],[10.952186417297803,33.62914380879992],[10.952055572011085,33.629145875546364],[10.951990150749504,33.62914690884581],[10.951859304055995,33.62914897540666],[10.951728458735928,33.62915104180729],[10.951663037457667,33.629152074933835],[10.951598852321052,33.6292078363867],[10.95153342960802,33.62920886946811],[10.951403822969858,33.62926566385016],[10.951272977437805,33.62926772977518],[10.951142130505636,33.62926979558375],[10.951075471910212,33.629216100047834],[10.950944626427466,33.62921816562279],[10.950816256399923,33.62932968776503],[10.950621224804769,33.629387514042726],[10.950491615870012,33.6294443075194],[10.950362006759962,33.62950110086571],[10.95029782050227,33.629556861679134],[10.950166974443636,33.629558926449675],[10.950101552796104,33.629559958761185],[10.95003489319845,33.62950626267308],[10.949969470198795,33.629507294935195],[10.949836152714209,33.629399902545615],[10.949705306163478,33.62940196683018],[10.949639883923203,33.6294029989042],[10.949378192155217,33.62940712689817],[10.949314005997053,33.62946288721064],[10.949249817676066,33.629518647525074],[10.949184395329823,33.62951967936126],[10.949054785180696,33.6295764713706],[10.948990598685286,33.629632231525584],[10.9459416515483,33.62792834158447]]]}}]}
