{"type":"FeatureCollection","features":[{"type":"Feature","id":"osm:relation:7142911","properties":{"sourceId":"isie-best-effort-imada-525552-20260928","officialCode":"525552","governorateCode":"52","delegationCode":"5255","nameAr":"2مارس","officialSourceNameAr":"2 مارس","sourcePdfURL":"https://www.isie.tn/wp-content/uploads/2023/CartesCirconscriptionsElectoralesLocales2023/مدنين/جرجيس/2مارس - (جرجيس).pdf","sourcePdfSha256":"eebfe6016818ecfdedba11a8e50c936046609e8e931414699a392bea99272982","sourceGeometrySha256":"e8c39058238210c8e8044ff391ec16d9f019ea388b333413d94ff5619bcbd437","geometryMethod":"Pinned native ISIE red-face linework; exact registered EPSG:32632 face WKB; transformed to EPSG:4326 with always-XY axis order."},"geometry":{"type":"Polygon","coordinates":[[[11.104691191787946,33.51318483824194],[11.10461229989732,33.51328846314471],[11.104592782364177,33.51332288912185],[11.1032935211614,33.51513493458634],[11.103254897604897,33.515220827825644],[11.102226418769142,33.514760905969595],[11.101938791640576,33.51464644061832],[11.101816755356786,33.51464850662024],[11.101735397396316,33.51464988389543],[11.101615001425364,33.514720113320344],[11.101356332483455,33.51496316203283],[11.10069907292512,33.515553913108015],[11.100579085059247,33.51564118223447],[11.10047902683984,33.51571106649438],[11.100378559576235,33.51576391001716],[11.100318359649489,33.51579902468159],[11.100217480718545,33.51583482637766],[11.100077153156125,33.515922440187694],[11.099854644503093,33.515977347586315],[11.099612206705077,33.516049639204084],[11.099490986986517,33.516085784309524],[11.099149718502268,33.516279082604086],[11.098769817266119,33.516558270988355],[11.098489155148656,33.51673349321541],[11.098387864568974,33.51675225499532],[11.098218997709841,33.51649938872151],[11.098133950069696,33.51634739556984],[11.098020777727927,33.51587196693408],[11.097751853304135,33.51568898432492],[11.097363348402984,33.51561030897118],[11.097033816762114,33.5154453961695],[11.09678687227768,33.515330231590866],[11.096378440357551,33.515268937215836],[11.09590980746132,33.51524275296341],[11.093876649115765,33.51531115495186],[11.093362123004011,33.51591650848746],[11.093203900386396,33.51610670311465],[11.093063563565499,33.51619430819759],[11.092841457825564,33.51626624498736],[11.092355749800591,33.51637671934271],[11.091828541979257,33.51645379364074],[11.091200041525662,33.51654962166584],[11.09063092634033,33.516576253907616],[11.089287253273781,33.51654772981861],[11.088736845794429,33.51650584586125],[11.08889344808578,33.51624749240135],[11.08899147632641,33.51609241224169],[11.08942467549499,33.51548844489583],[11.08970208845605,33.51517691224404],[11.089840386775888,33.51500410602428],[11.089917663852777,33.51483232574548],[11.089994533785463,33.5146435035641],[11.09003358052831,33.51457465468152],[11.090072627211569,33.5145058057883],[11.090192624044967,33.514418546496216],[11.090352892198807,33.51431356037392],[11.090775124564345,33.51410187613933],[11.091216877197025,33.51385576430819],[11.091377142417873,33.51375077803324],[11.091515843563839,33.513595009779884],[11.091773311941635,33.513300857370865],[11.092050709010913,33.51298932104207],[11.092289877113881,33.512780716233316],[11.092511157440583,33.51267469925419],[11.092671418877577,33.512569710345566],[11.092832089885716,33.512481763036],[11.092992350568661,33.512376773737536],[11.093709023165411,33.51171686934303],[11.093826968918489,33.51154440098604],[11.093105297559616,33.511147418340606],[11.093202904792975,33.510975294496596],[11.093596191275315,33.510406081390265],[11.094051305522344,33.50986992071859],[11.094065102711788,33.50959692176308],[11.094080125089093,33.50937504499887],[11.09415657215426,33.50916917989854],[11.094214317088444,33.50903182284045],[11.094333074957273,33.50889343666728],[11.094651126943948,33.50858120909058],[11.095071275135298,33.5082843057452],[11.095714321224293,33.50794954284957],[11.095850550632225,33.507691524906946],[11.095927810552801,33.507519741387014],[11.096046154471697,33.50736431301373],[11.096184837388764,33.507208540097054],[11.09622346749397,33.50712264769995],[11.096301134191805,33.50696790579492],[11.096532500688642,33.50643551366159],[11.096631733399027,33.506331551372035],[11.096631324079711,33.50631450958148],[11.097109601145133,33.50589728260934],[11.097169386448359,33.50584513005046],[11.097529729316749,33.50560037268941],[11.098272794512821,33.50519571482916],[11.098433444953601,33.505107762004585],[11.098119373830706,33.504738014040655],[11.097890340933315,33.50452026034651],[11.097725185358984,33.504420763693076],[11.097704439678449,33.5044040654523],[11.097722318969057,33.504301476623496],[11.097716586239956,33.5040629024768],[11.097708806200968,33.50373912264231],[11.097704711497782,33.50356871236677],[11.09770143577051,33.50343238457613],[11.09777991708361,33.50331172327103],[11.097980010455355,33.503171958634184],[11.098018227691625,33.503069026146086],[11.098030374389095,33.50272786202056],[11.098097387877843,33.50213005222058],[11.098171362676021,33.501821939733155],[11.098304298291936,33.50142759065951],[11.098324225508767,33.50141020632115],[11.098344152717637,33.50139282197983],[11.098364079892503,33.50137543655184],[11.09838400579259,33.50135805222648],[11.098424679288861,33.50135736492518],[11.098464941915632,33.501339636931895],[11.098525952143435,33.50133860593559],[11.098586141851989,33.501303492448876],[11.098863888004699,33.50100898340602],[11.099301044549987,33.50057539698008],[11.099719500823333,33.50021031574657],[11.099758123350876,33.50012442243391],[11.100539916934958,33.50048625493574],[11.100992234550276,33.500683178820935],[11.101218393455342,33.50078164012264],[11.10144414397146,33.500863059214886],[11.101628811484817,33.500928125570084],[11.101853742264728,33.50097546255344],[11.102037589727882,33.50100644586684],[11.102241362353878,33.50102004507154],[11.102445546642366,33.50105068349051],[11.102995448539149,33.50107546839204],[11.103424154555887,33.50113639898127],[11.103567329521455,33.50116806892592],[11.10371050460898,33.50119973978451],[11.104837631322457,33.50153864614567],[11.10612992447211,33.50197702850912],[11.106686411660862,33.50227445084041],[11.106686822861707,33.50229149144838],[11.106707159719848,33.50229114642818],[11.107060695483622,33.502609058630355],[11.10764081802353,33.50304245822112],[11.10821765411814,33.50333952796711],[11.108997862940743,33.503633142051804],[11.109182541462738,33.503698195577435],[11.109324898950726,33.50369577745295],[11.109488828940506,33.503744137563096],[11.109631189061387,33.50374171903983],[11.10965111180368,33.503724331911904],[11.109711299607891,33.50368921311709],[11.109712946925228,33.503757377567865],[11.109738637892537,33.50397856378478],[11.109423381943916,33.505245461287586],[11.10942379375374,33.5052625029411],[11.109386001210225,33.50538248008156],[11.109274684429513,33.50582761533476],[11.10914097012714,33.50618789202732],[11.109043810513619,33.506377069886774],[11.108984855767725,33.50646331013998],[11.108906800829828,33.506601019630594],[11.108809228544485,33.50677315459258],[11.108770202143468,33.506842009815365],[11.108399017117494,33.50747908390361],[11.107890400453282,33.508323065221084],[11.107695662039998,33.50868437639751],[11.107559465853615,33.50894240605256],[11.107500099141522,33.50901160615],[11.107440729724203,33.50908080518209],[11.107421214189966,33.50911523154663],[11.106555948561544,33.510357362110234],[11.10580857872164,33.51142700853016],[11.10518363761267,33.51251162245223],[11.10502626958966,33.512735912238604],[11.104770080908299,33.51308121333842],[11.104691191787946,33.51318483824194]]]}}]}
