{"type":"FeatureCollection","features":[{"type":"Feature","id":"osm:relation:7142929","properties":{"sourceId":"isie-best-effort-imada-525556-20260928","officialCode":"525556","governorateCode":"52","delegationCode":"5255","nameAr":"السويحل","officialSourceNameAr":"السويحل","sourcePdfURL":"https://www.isie.tn/wp-content/uploads/2023/CartesCirconscriptionsElectoralesLocales2023/مدنين/جرجيس/السويحل.pdf","sourcePdfSha256":"4a66ad5d87e01a1b24ab691817f5d560a80382e6bde0eeeab6cb5d41ecbd34d8","sourceGeometrySha256":"cc6879861b3a496bdd93a02a8a3574e15e6ae685567fd03a349107bf44d372bd","geometryMethod":"Pinned native ISIE red-face linework; exact registered EPSG:32632 face WKB; transformed to EPSG:4326 with always-XY axis order."},"geometry":{"type":"Polygon","coordinates":[[[11.108052315842333,33.51879491320848],[11.108245148372355,33.51894999527671],[11.108277931966807,33.51900222378271],[11.108342207908137,33.51905391774243],[11.108374988931605,33.51910614626341],[11.108407769995774,33.51915837477377],[11.108439267678945,33.51915784012134],[11.10850354650268,33.5192095339425],[11.108567183651683,33.51923484615326],[11.108630179066155,33.519233776757176],[11.108724672181621,33.519232172603054],[11.108787667587766,33.51923110312695],[11.108819165289589,33.519230568376905],[11.108850662990578,33.51923003361884],[11.108882160690737,33.519229498852795],[11.108914300246228,33.51925534564649],[11.108945797954268,33.51925481086391],[11.109009435253496,33.519280122840755],[11.109072430682842,33.51927905321849],[11.109199705419922,33.51932967700325],[11.109358478044745,33.519379765761656],[11.10954874860211,33.51942931937048],[11.109707521588838,33.51947940766538],[11.10986565259724,33.51950311419867],[11.110086773906804,33.519525750472134],[11.110213407288484,33.519549991630406],[11.110340040734052,33.51957423265623],[11.11040367863922,33.519599543889946],[11.110530312200138,33.51962378471602],[11.110657588220487,33.51967440694594],[11.110754651396707,33.51977832736415],[11.11085107234845,33.51985586616345],[11.111011774316676,33.51998509731173],[11.111043272246633,33.51998456198554],[11.111233544857322,33.52003410843811],[11.11139231982129,33.52008419448586],[11.111582593040753,33.52013374932915],[11.111677729562997,33.52015851992945],[11.11183650498304,33.520208605387516],[11.11192714220542,33.52004870967057],[11.111956706511224,33.51996903413579],[11.111986924145096,33.51991573545388],[11.112015202624638,33.51978329240992],[11.112013917004841,33.51973052938441],[11.112077560808572,33.51975583964244],[11.112555166562357,33.51995885700867],[11.113063634520957,33.520134950539415],[11.113253908555256,33.52018449829885],[11.11379387723751,33.52036005728702],[11.113857516639538,33.52038536667987],[11.114079927759244,33.52046075863865],[11.11414357265329,33.520486067786976],[11.114207212241663,33.52051137699192],[11.114809531883745,33.5206594777071],[11.115000451670944,33.52073540415212],[11.115064091671394,33.52076071289858],[11.115286510039237,33.520836102515126],[11.1155719251225,33.52091041874235],[11.1156677075326,33.52096157211274],[11.115670283332117,33.521067097892896],[11.11567221519055,33.52114624222671],[11.11564458061584,33.52130506741388],[11.115586091518582,33.52149081054955],[11.115532753493866,33.52188760074306],[11.115509625999088,33.52223109600154],[11.11548456660315,33.52249544692003],[11.115458863170792,33.522733416387645],[11.115251248631754,33.523264798273935],[11.115163190062631,33.523530222012916],[11.115136841687434,33.52374180774451],[11.115110493266762,33.52395339570487],[11.115057796125283,33.52437657160357],[11.115061015366491,33.524508478807704],[11.115034022784355,33.52469368530367],[11.114977461934595,33.524958570280674],[11.114951756752811,33.52519653963741],[11.114801339689121,33.52548941514471],[11.114749928098476,33.52596535378857],[11.114755722254372,33.52620278674013],[11.114760872672113,33.52641383824424],[11.114796879582663,33.52659797192999],[11.114802673950841,33.52683540261397],[11.1148695377232,33.52699261843402],[11.114999402591156,33.527148759110425],[11.11516205638776,33.52735712824191],[11.11554714731449,33.527640885503516],[11.115833873613482,33.52776796299775],[11.115927087186634,33.527713590163614],[11.115830008642481,33.52760967451499],[11.115890433126683,33.527503075535876],[11.115984290589271,33.52747508408163],[11.115949569088135,33.52734371370509],[11.116263285454343,33.527285583673596],[11.116395080911062,33.52752086930767],[11.11646065941296,33.5276253213113],[11.11630831625234,33.52783905644172],[11.116374539247143,33.52796988988441],[11.116347548763924,33.52815509426678],[11.116229277181505,33.52847381823231],[11.1163276458247,33.52863049406451],[11.116334733563608,33.52892068947149],[11.116276886068936,33.52913281426316],[11.116247962225824,33.52923887665046],[11.116122601792563,33.529267405125104],[11.115899516551147,33.529165636573154],[11.11577093519394,33.52906225765207],[11.115644286551776,33.52903802281809],[11.11548806913221,33.529093468684444],[11.115334427692805,33.529254440024324],[11.115183361720687,33.529520936861005],[11.11506766015096,33.52994518555765],[11.114977019467268,33.53010508127793],[11.11492109978557,33.530396347575255],[11.11477389420921,33.53082113250181],[11.114448620738516,33.53169761746557],[11.11427699578836,33.5324131315513],[11.114252575214186,33.532703863495385],[11.114192145408108,33.532810461810975],[11.114303392426221,33.53349476743934],[11.114475071879813,33.53407247439986],[11.114892333459682,33.534382077422045],[11.115305738315469,33.53453339045602],[11.115501199255466,33.534793982258925],[11.115235062656382,33.53551110957892],[11.114929689045242,33.53591219401715],[11.114718824000734,33.536311668339124],[11.114511182401019,33.53684305148658],[11.114649429504173,33.53734215220132],[11.114999195775265,33.537468155005264],[11.115222301938315,33.5375699242612],[11.115008858074306,33.53786387578598],[11.114066308575351,33.53798549540729],[11.113856078788196,33.53841134988635],[11.11370628136592,33.53873060815562],[11.113083943134436,33.54035112965315],[11.112760552647522,33.541306755198946],[11.112529104804329,33.54215524628523],[11.112288639157027,33.542634397362185],[11.112138186021363,33.54292727262752],[11.111804483689262,33.54346079348191],[11.111592301062226,33.54380750270011],[11.111693896971813,33.54409608857937],[11.111423201518324,33.544628539128134],[11.111364690327385,33.54481428058072],[11.111216160135216,33.54518629691302],[11.111187225778608,33.54529235831037],[11.111099136005839,33.54555777963181],[11.111079848734686,33.54605956003166],[11.111057345608875,33.546429435560306],[11.111158943318504,33.54671802171458],[11.111225174695136,33.54684885728233],[11.111231607022,33.5471126713828],[11.111145445446194,33.54745723472243],[11.111037423263504,33.54819805710382],[11.110864453150452,33.54886080432048],[11.110713342347381,33.54912729677686],[11.1106863356377,33.54931250006117],[11.110630392698322,33.54960376685566],[11.11042719979216,33.550319811924055],[11.110339103410869,33.55058523279233],[11.11007352525003,33.55132873002459],[11.110049088737288,33.55161946106605],[11.110214995319458,33.55195973940913],[11.11000278727894,33.552306446513086],[11.109941053869742,33.55236028035513],[11.10969283361039,33.55252285037969],[11.109539784790615,33.55271019740334],[11.109544927686931,33.55292124871434],[11.109451683635484,33.552975617743996],[11.10921760178004,33.55371857804763],[11.109127573153328,33.55390485390291],[11.109065838093596,33.55395868736053],[11.10900345750407,33.553986137181184],[11.108942367690117,33.55406635195489],[11.108944938536965,33.55417187762891],[11.108853620845686,33.5543053905212],[11.108674197852064,33.554704323232784],[11.108341075001848,33.55526422004642],[11.108284478739868,33.5555291000785],[11.108133349348744,33.55579558987507],[11.107982864202594,33.556088460893505],[11.107866456371104,33.55648632248],[11.107481861136272,33.55752214860348],[11.107236190925931,33.55779024228427],[11.105135888508292,33.5569813251228],[11.104849719090804,33.556880608015014],[11.104563552979844,33.556779890172514],[11.104562911535474,33.55675350869082],[11.10453140013504,33.55675404288458],[11.104275460769479,33.55660002722457],[11.103416322526197,33.55627148603226],[11.102397712494428,33.555866462316665],[11.101633759085015,33.55556269327291],[11.101409982269757,33.555434519377165],[11.101249225316572,33.55530527844158],[11.101151490635196,33.55517497067728],[11.101084626759302,33.555017747989005],[11.100956022173396,33.55491435487518],[11.100795907122915,33.55481149482995],[11.100572133462567,33.554683319280834],[11.100444167444165,33.55460630719216],[11.100689210716787,33.55431184485108],[11.100904662726386,33.55409706220996],[11.101119473295531,33.55385589543933],[11.101210802776338,33.5537223878046],[11.101176731047177,33.553617394893266],[11.100793485264097,33.55341274134441],[11.10041024130541,33.55320808876784],[11.100434713064733,33.55291735838492],[11.09976532229169,33.55261197261759],[11.09957562254299,33.55258879063773],[11.099512602563687,33.55258985636193],[11.099418075260203,33.55259145484298],[11.099292032609979,33.55259358614427],[11.099008445281429,33.55259838095669],[11.098692705589173,33.55257732397992],[11.098503006112754,33.552554140340916],[11.098376966114472,33.55255627066341],[11.097712701539344,33.552461926244256],[11.097238134400728,33.552390766383105],[11.097205988005959,33.55236491698125],[11.096984779263684,33.552342261003325],[11.096542362061454,33.55229694784703],[11.096038205521086,33.552305460281474],[11.095784209833432,33.55223057080308],[11.095625382911562,33.5521804668986],[11.095593872990811,33.552180998753656],[11.095498704645642,33.552156212615834],[11.095308368107581,33.55210664011392],[11.095244709807128,33.55208132199305],[11.095181051542447,33.5520560038379],[11.095053964802545,33.550712138518776],[11.0950829178676,33.550606080193056],[11.09511379147566,33.550579166776735],[11.095174253741197,33.55047257672302],[11.095203209265385,33.550366518328985],[11.095232803176728,33.55028684159677],[11.095262397037336,33.55020716485863],[11.095324777035032,33.550179721934086],[11.095354370778795,33.55010004517732],[11.095415473612471,33.550019836643116],[11.09544570573343,33.54996654153336],[11.095475937818629,33.549913246417226],[11.095474022272857,33.54983410142176],[11.095472745246495,33.54978133809087],[11.095471468223455,33.54972857475944],[11.095468275680389,33.54959666642876],[11.095056743655144,33.54952443391061],[11.095082509824024,33.5492864671206],[11.095168096179378,33.54891553089425],[11.095196412891518,33.54878309082209],[11.095163627407576,33.54873085917024],[11.094503862250773,33.548821167979334],[11.094313533621683,33.54877159361711],[11.094186860680578,33.548747337771985],[11.09406019047514,33.548723081749266],[11.093965026352398,33.54869829425511],[11.09390200897118,33.54869935701498],[11.093775974198808,33.548701482438595],[11.093681448110837,33.54870307642221],[11.093396594092113,33.548655094529686],[11.092858398283724,33.54855859983002],[11.092478381570652,33.5484858273413],[11.092194166214986,33.54846422211422],[11.092003839559164,33.54841464635058],[11.09181415041891,33.54839144978261],[11.091688118596949,33.54839357301882],[11.091593592718112,33.548395165395604],[11.090960234468861,33.54827387065869],[11.090674748688828,33.54819950058612],[11.089057628613059,33.547804439350045],[11.089022937684977,33.5476730627929],[11.088925866545491,33.54756912596364],[11.088763869697281,33.547387103792374],[11.088003219201557,33.547215149932015],[11.086830421220938,33.54694454880872],[11.08610192163072,33.54679843746812],[11.086038269739094,33.546773114335664],[11.086066599987731,33.54664067580063],[11.086108005076067,33.545742636826894],[11.086096565017641,33.545267765907845],[11.086092116157415,33.54508309300339],[11.086088302880889,33.5449248019376],[11.086114727295998,33.54471321782306],[11.086167571870181,33.54429005187506],[11.086309853979396,33.54365424302197],[11.086609031091868,33.54298940288078],[11.086726158573478,33.54261794150554],[11.0869970030031,33.54208553922456],[11.087410114896732,33.54091732877389],[11.087527869746852,33.540572246411585],[11.087855355249284,33.53977496710727],[11.08794478411197,33.5395623232578],[11.088325729119411,33.53836825817536],[11.088412611204891,33.538050086702654],[11.088561230109747,33.5376780918055],[11.08856059404325,33.537651712207655],[11.088890605110308,33.53695995569913],[11.089131824756029,33.5365072271325],[11.089432229634198,33.535895147144956],[11.089670898128048,33.53533689037289],[11.08997257110899,33.53477757063535],[11.090335974224915,33.53416442611705],[11.090640819830613,33.53373701634238],[11.090977805095665,33.53333545726239],[11.091468481015962,33.53277295172222],[11.091682629571459,33.532505419828546],[11.091987465654872,33.532078007064925],[11.09208006264076,33.531997271909894],[11.092200976604111,33.53178409476649],[11.092536672923156,33.53132976606683],[11.09256626111697,33.53125008994475],[11.092689721783577,33.53114243955798],[11.092873000404209,33.530901818396146],[11.09299518559879,33.53074140415439],[11.09314823514168,33.53055407709506],[11.093271056788723,33.53042004663324],[11.093362375985404,33.53028654480718],[11.093607379985297,33.52999209937486],[11.093698695565935,33.52985859737441],[11.093820240301072,33.52967180062854],[11.093941146971108,33.52945862200015],[11.09403182659852,33.52929873796188],[11.094150819434997,33.52900641382584],[11.094301313005094,33.52871356063885],[11.09436112754136,33.52858058936084],[11.09451289513444,33.52834049950199],[11.094633795720616,33.528127320336495],[11.094877513919398,33.52778010691833],[11.095059504009658,33.527486719367765],[11.095182956350724,33.527379066758705],[11.095820629097359,33.52768501825173],[11.096584949044814,33.528015221013035],[11.097410364012319,33.52826520964777],[11.097822431799344,33.528363820155796],[11.098456289695253,33.52851146484698],[11.09902714433095,33.528660173293595],[11.09924829268668,33.52868282801723],[11.099470080354488,33.52873186402885],[11.099722730304238,33.52875398537884],[11.100006879024148,33.52877557361026],[11.100197165877267,33.52882513869947],[11.100355951618532,33.52887523846433],[11.100546878467627,33.52895118690445],[11.100705664620575,33.52900128620283],[11.100928090789374,33.52907670124314],[11.101087517088466,33.52915318169249],[11.101150519997205,33.5291521158226],[11.101214162661174,33.52917743157699],[11.101308027254525,33.529149451007804],[11.101401891783919,33.52912147036966],[11.101558119237149,33.529066041935856],[11.101683484988328,33.52903752804138],[11.10177670933636,33.52898316547989],[11.101963157676066,33.52887444015846],[11.10205638172199,33.528820079634635],[11.102181104216733,33.52876518365811],[11.102244106799859,33.528764117242794],[11.10230710937966,33.52876305079546],[11.102370111956139,33.5287619843161],[11.102433114529296,33.52876091780474],[11.10249611709913,33.528759851261334],[11.102527618382803,33.528759317977645],[11.102559119665642,33.528758784685934],[11.102590620947652,33.528758251386236],[11.102622122228832,33.528757718078516],[11.10265362350918,33.528757184762796],[11.102685124788698,33.52875665143905],[11.102715985862762,33.528729736474745],[11.102747487131063,33.52872920313555],[11.102840710447813,33.52867483980861],[11.102840070207476,33.528648458177784],[11.102870931194737,33.52862154317774],[11.102870290946509,33.52859516154721],[11.102901151905947,33.5285682465405],[11.102867729961932,33.52848963502379],[11.102834948314747,33.52843740512671],[11.10277066556582,33.52838570856728],[11.1027378840726,33.52833348087601],[11.102673601459092,33.528281784260095],[11.102609959082162,33.52825646924398],[11.102513535388704,33.52817892419801],[11.102321968653547,33.52807659714238],[11.10232004845103,33.527997452215466],[11.10231940838519,33.527971070572896],[11.102318768320185,33.527944688930226],[11.10228662727305,33.52791884050606],[11.102528393129974,33.527492468290816],[11.102932781864997,33.52727448202492],[11.10339888646535,33.52700266657841],[11.103555749181217,33.52697361742907],[11.103681751634449,33.52697148326831],[11.103776253465645,33.52696988256371],[11.103965257105601,33.526966680938386],[11.103963335486663,33.52688753608094],[11.103955649140183,33.52657095887619],[11.10391774353208,33.52630767627282],[11.10385025937857,33.52612407210211],[11.10359505490865,33.525996432398],[11.103701202656712,33.52517646998398],[11.103759719595256,33.524990733719],[11.103786095991795,33.52477914712002],[11.103813112724838,33.52459394214539],[11.103842050690842,33.524487882059596],[11.103807989253418,33.52438288908813],[11.10380734882324,33.524356507455416],[11.103806067965381,33.52430374418963],[11.103834365429076,33.52417130247122],[11.104041409622223,33.523613555422024],[11.104039488177442,33.52353441052557],[11.104006707878796,33.52348218085459],[11.104006067410085,33.52345579922141],[11.10400542694221,33.52342941758812],[11.103973289834153,33.52340356949379],[11.103972649377493,33.52337718785971],[11.104246532412084,33.5229766631446],[11.104277391024763,33.522949747866036],[11.104461261119978,33.522735492789444],[11.104859856827627,33.52228006649142],[11.105050772407417,33.52235600846822],[11.105235277493053,33.522168134009576],[11.10551299897616,33.5219258942075],[11.105575355666469,33.52189844914824],[11.105637712098792,33.521870995114504],[11.105668569995562,33.52184408398881],[11.10573092635771,33.52181662991057],[11.105761784205908,33.52178971876326],[11.105823499627698,33.52173588750306],[11.105885855969369,33.52170843782344],[11.1058852149731,33.52168205621462],[11.105916072617154,33.52165514055982],[11.105915431613,33.52162875895128],[11.106527448240882,33.52087939161903],[11.106588521362537,33.52079917841263],[11.106771740065017,33.52055853863307],[11.106899015508938,33.520609164753445],[11.107057789351042,33.520659256414525],[11.107121427205847,33.52068456933824],[11.107153566825215,33.52071041658299],[11.107216563366666,33.520709347864404],[11.107311055501896,33.520707744771784],[11.107374052035023,33.520706675973166],[11.107437048564819,33.52070560714254],[11.107499403629303,33.52067815669424],[11.10753090188174,33.52067762225146],[11.107593898384115,33.52067655334188],[11.107624755134706,33.52064963729144],[11.107655611866202,33.520622721233956],[11.107686468578601,33.52059580516941],[11.107716683747245,33.52054250751526],[11.107716042223421,33.52051612593261],[11.107746898880198,33.520489209854766],[11.107745615817626,33.52043644668991],[11.107806045944937,33.52032985135097],[11.10786711760063,33.52024964204015],[11.107866475929484,33.52022325598658],[11.107896049298786,33.52014357671368],[11.107924339575774,33.520011138744664],[11.107922414856349,33.51993199400013],[11.107880651991467,33.51951042320056],[11.107870387314462,33.519088317837515],[11.10786653811566,33.51893002831822],[11.107989962287602,33.5188223638837],[11.108052315842333,33.51879491320848]]]}}]}
