{
  "type": "FeatureCollection",
  "sourceId": "isie-local-sectors-2023-baghdadi-review",
  "status": "REVIEWED_SOURCE_GEOMETRIES_PENDING_CLUSTER_ACCEPTANCE",
  "reviewedDate": "2026-09-07",
  "sourceSnapshotSha256": "346a79dca9013b427cf7ce4e11fb31ca03fa575ee7a68c865701c463c504a1ce",
  "features": [
    {
      "type": "Feature",
      "id": "osm:relation:7111930",
      "properties": {
        "officialCode": "325953",
        "nameAr": "البغدادي",
        "nameFr": "Baghdadi",
        "governorateCode": "32",
        "governorateAr": "المنستير",
        "governorateFr": "Monastir",
        "delegationCode": "3259",
        "parentAr": "البقالطة",
        "parentFr": "Bekalta",
        "sourceId": "isie-local-sectors-2023-baghdadi-review",
        "sourcePdfURL": "https://www.isie.tn/wp-content/uploads/2023/CartesCirconscriptionsElectoralesLocales2023/%D8%A7%D9%84%D9%85%D9%86%D8%B3%D8%AA%D9%8A%D8%B1/%D8%A7%D9%84%D8%A8%D9%82%D8%A7%D9%84%D8%B7%D8%A9/%D8%A7%D9%84%D8%A8%D8%BA%D8%AF%D8%A7%D8%AF%D9%8A.pdf",
        "sourcePdfSha256": "bdd8450b17438aead31405b4f0807c78b4c2296a8837dc1cb6c3d0e09112fcf0",
        "sourcePdfFile": "work/isie-sector-maps-baghdadi/baghdadi.pdf",
        "sourcePdfCreated": "D:20231017051322+01",
        "reviewedDate": "2026-09-07",
        "sourceMapTitleAr": "البغدادي",
        "targetIsPageTitle": true,
        "sourceDrawingIndices": [
          125
        ],
        "sourceVectorLayer": "circonscription_isie2023",
        "sourceCrsEpsg": 32632,
        "sourceCrsWkt": "PROJCS[\"WGS_1984_UTM_Zone_32N\",GEOGCS[\"GCS_WGS_1984\",DATUM[\"D_WGS_1984\",SPHEROID[\"WGS_1984\",6378137.0,298.257223563]],PRIMEM[\"Greenwich\",0.0],UNIT[\"Degree\",0.0174532925199433]],PROJECTION[\"Transverse_Mercator\"],PARAMETER[\"False_Easting\",500000.0],PARAMETER[\"False_Northing\",0.0],PARAMETER[\"Central_Meridian\",9.0],PARAMETER[\"Scale_Factor\",0.9996],PARAMETER[\"Latitude_Of_Origin\",0.0],UNIT[\"Meter\",1.0]]",
        "sourceControlPointMaxResidualMeters": 0.10089567618761663,
        "sourceControlPointsLatLon": [
          [
            35.55104,
            10.9793
          ],
          [
            35.58551,
            10.98015
          ],
          [
            35.5845,
            11.04055
          ],
          [
            35.55003,
            11.03967
          ]
        ],
        "sourceLocalControlPoints": [
          [
            0.0,
            1.0
          ],
          [
            0.0,
            0.0
          ],
          [
            1.0,
            0.0
          ],
          [
            1.0,
            1.0
          ]
        ],
        "sourceViewportBBox": [
          4.31908,
          590.46173,
          841.50095,
          5.38791
        ],
        "sourcePageTransformationMatrix": [
          1.0,
          0.0,
          0.0,
          -1.0,
          0.0,
          595.5023803710938
        ],
        "sourceAffineMetersFromPagePoints": [
          [
            6.540136129552835,
            -0.00037913132488254995
          ],
          [
            -0.0005903754354221746,
            -6.538182972884897
          ],
          [
            679378.8911455421,
            3939814.499675831
          ]
        ],
        "sourceGeometry": "One original complete valid explicitly closed red vector ring; no repair, joining, rounding, snapping, buffering, clipping or simplification applied to export.",
        "sourcePagePaths": [
          {
            "drawingIndex": 125,
            "vertices": [
              [
                495.61456298828125,
                91.09152221679688
              ],
              [
                515.770263671875,
                173.181884765625
              ],
              [
                522.2489013671875,
                171.38165283203125
              ],
              [
                539.5252075195312,
                164.90081787109375
              ],
              [
                548.1633911132812,
                163.1005859375
              ],
              [
                554.6419677734375,
                156.61978149414062
              ],
              [
                558.6011352539062,
                153.73941040039062
              ],
              [
                565.7996215820312,
                150.85903930664062
              ],
              [
                574.7977294921875,
                147.61865234375
              ],
              [
                579.4766845703125,
                145.4583740234375
              ],
              [
                589.5545654296875,
                139.33758544921875
              ],
              [
                593.5137329101562,
                137.53738403320312
              ],
              [
                605.7510986328125,
                136.09719848632812
              ],
              [
                612.9495849609375,
                129.61636352539062
              ],
              [
                615.4690551757812,
                129.97640991210938
              ],
              [
                619.0682983398438,
                138.61752319335938
              ],
              [
                641.7434692382812,
                140.05767822265625
              ],
              [
                642.1033935546875,
                142.93804931640625
              ],
              [
                704.0101928710938,
                149.7789306640625
              ],
              [
                713.00830078125,
                231.8692626953125
              ],
              [
                713.00830078125,
                235.82977294921875
              ],
              [
                712.6483764648438,
                241.95053100585938
              ],
              [
                712.6483764648438,
                243.39071655273438
              ],
              [
                712.2884521484375,
                244.47085571289062
              ],
              [
                711.9285278320312,
                254.91217041015625
              ],
              [
                711.9285278320312,
                263.55328369140625
              ],
              [
                711.9285278320312,
                263.913330078125
              ],
              [
                712.2884521484375,
                264.6334228515625
              ],
              [
                712.6483764648438,
                265.353515625
              ],
              [
                712.6483764648438,
                266.0735778808594
              ],
              [
                712.6483764648438,
                266.7936706542969
              ],
              [
                712.2884521484375,
                267.1537170410156
              ],
              [
                711.568603515625,
                267.8738098144531
              ],
              [
                711.568603515625,
                268.9539489746094
              ],
              [
                711.568603515625,
                270.0340881347656
              ],
              [
                711.2086791992188,
                272.1943664550781
              ],
              [
                710.4888305664062,
                275.7948303222656
              ],
              [
                710.4888305664062,
                277.955078125
              ],
              [
                710.4888305664062,
                279.03521728515625
              ],
              [
                709.7689819335938,
                281.91558837890625
              ],
              [
                709.4090576171875,
                284.79595947265625
              ],
              [
                709.4090576171875,
                287.3162841796875
              ],
              [
                709.0491333007812,
                288.39642333984375
              ],
              [
                709.0491333007812,
                289.4765319824219
              ],
              [
                708.3292846679688,
                296.6774597167969
              ],
              [
                708.3292846679688,
                298.1176452636719
              ],
              [
                707.9693603515625,
                299.1977844238281
              ],
              [
                707.9693603515625,
                299.55780029296875
              ],
              [
                707.9693603515625,
                300.27789306640625
              ],
              [
                707.9693603515625,
                300.99798583984375
              ],
              [
                707.9693603515625,
                301.71807861328125
              ],
              [
                707.6094360351562,
                303.87835693359375
              ],
              [
                707.6094360351562,
                306.398681640625
              ],
              [
                707.6094360351562,
                309.279052734375
              ],
              [
                707.6094360351562,
                312.1593933105469
              ],
              [
                707.24951171875,
                313.9596252441406
              ],
              [
                706.8895874023438,
                319.0002746582031
              ],
              [
                706.5296630859375,
                322.9607849121094
              ],
              [
                706.5296630859375,
                325.12103271484375
              ],
              [
                706.5296630859375,
                325.84112548828125
              ],
              [
                706.5296630859375,
                332.6819763183594
              ],
              [
                706.1697387695312,
                334.84228515625
              ],
              [
                705.809814453125,
                337.7226257324219
              ],
              [
                706.1697387695312,
                344.20343017578125
              ],
              [
                706.1697387695312,
                347.80389404296875
              ],
              [
                706.1697387695312,
                355.72491455078125
              ],
              [
                706.1697387695312,
                359.6853942871094
              ],
              [
                706.1697387695312,
                366.88629150390625
              ],
              [
                706.1697387695312,
                371.20684814453125
              ],
              [
                706.5296630859375,
                380.5680236816406
              ],
              [
                706.5296630859375,
                382.00823974609375
              ],
              [
                706.1697387695312,
                383.8084411621094
              ],
              [
                706.1697387695312,
                391.72943115234375
              ],
              [
                706.1697387695312,
                394.9698486328125
              ],
              [
                706.5296630859375,
                402.890869140625
              ],
              [
                706.5296630859375,
                405.4111633300781
              ],
              [
                706.5296630859375,
                406.8513488769531
              ],
              [
                706.8895874023438,
                412.612060546875
              ],
              [
                706.8895874023438,
                416.2125244140625
              ],
              [
                706.8895874023438,
                418.73284912109375
              ],
              [
                707.24951171875,
                424.49359130859375
              ],
              [
                707.24951171875,
                428.4541015625
              ],
              [
                707.24951171875,
                430.2543029785156
              ],
              [
                707.24951171875,
                435.65496826171875
              ],
              [
                707.24951171875,
                436.735107421875
              ],
              [
                707.6094360351562,
                437.4552001953125
              ],
              [
                707.6094360351562,
                438.53533935546875
              ],
              [
                707.6094360351562,
                439.25543212890625
              ],
              [
                707.6094360351562,
                439.97552490234375
              ],
              [
                707.6094360351562,
                440.69561767578125
              ],
              [
                707.6094360351562,
                441.41571044921875
              ],
              [
                707.6094360351562,
                442.13580322265625
              ],
              [
                708.3292846679688,
                481.3807373046875
              ],
              [
                707.9693603515625,
                497.2227478027344
              ],
              [
                693.5724487304688,
                499.7430725097656
              ],
              [
                643.1831665039062,
                508.3841552734375
              ],
              [
                630.5858154296875,
                513.7848510742188
              ],
              [
                632.0255126953125,
                517.745361328125
              ],
              [
                628.42626953125,
                519.5455932617188
              ],
              [
                624.4671020507812,
                520.9857177734375
              ],
              [
                618.7083740234375,
                522.7860107421875
              ],
              [
                616.1889038085938,
                523.506103515625
              ],
              [
                606.470947265625,
                526.3864135742188
              ],
              [
                603.591552734375,
                527.8265991210938
              ],
              [
                602.8717041015625,
                528.1866455078125
              ],
              [
                600.3522338867188,
                528.90673828125
              ],
              [
                599.2724609375,
                528.5466918945312
              ],
              [
                598.5526123046875,
                528.1866455078125
              ],
              [
                594.593505859375,
                529.9868774414062
              ],
              [
                593.5137329101562,
                526.7464599609375
              ],
              [
                584.515625,
                529.6268310546875
              ],
              [
                584.8755493164062,
                530.7069702148438
              ],
              [
                576.2373657226562,
                533.5873413085938
              ],
              [
                576.9572143554688,
                535.0275268554688
              ],
              [
                569.7587890625,
                537.1878051757812
              ],
              [
                565.7996215820312,
                528.90673828125
              ],
              [
                558.9610595703125,
                530.7069702148438
              ],
              [
                561.4805297851562,
                538.988037109375
              ],
              [
                553.5621948242188,
                541.1483154296875
              ],
              [
                555.0018920898438,
                546.1889038085938
              ],
              [
                547.803466796875,
                549.0692749023438
              ],
              [
                547.4435424804688,
                549.0692749023438
              ],
              [
                546.0038452148438,
                545.4688720703125
              ],
              [
                546.0038452148438,
                545.1088256835938
              ],
              [
                534.84619140625,
                547.9891357421875
              ],
              [
                534.1263427734375,
                520.625732421875
              ],
              [
                533.7664184570312,
                516.6652221679688
              ],
              [
                524.408447265625,
                520.9857177734375
              ],
              [
                523.6885986328125,
                522.4259033203125
              ],
              [
                524.0485229492188,
                523.8660888671875
              ],
              [
                525.4882202148438,
                528.90673828125
              ],
              [
                525.4882202148438,
                530.7069702148438
              ],
              [
                516.8500366210938,
                535.0275268554688
              ],
              [
                516.4901123046875,
                535.0275268554688
              ],
              [
                507.4920349121094,
                539.3480834960938
              ],
              [
                505.3324890136719,
                540.0681762695312
              ],
              [
                503.8927917480469,
                540.7882690429688
              ],
              [
                498.1340026855469,
                543.30859375
              ],
              [
                490.2156982421875,
                547.26904296875
              ],
              [
                486.97637939453125,
                548.709228515625
              ],
              [
                486.616455078125,
                549.0692749023438
              ],
              [
                478.6981506347656,
                553.3898315429688
              ],
              [
                478.3382263183594,
                553.7498779296875
              ],
              [
                467.54052734375,
                558.0704345703125
              ],
              [
                443.78558349609375,
                490.741943359375
              ],
              [
                433.7077331542969,
                494.70245361328125
              ],
              [
                427.5890197753906,
                497.2227478027344
              ],
              [
                420.39056396484375,
                500.1031188964844
              ],
              [
                414.63177490234375,
                502.2633972167969
              ],
              [
                411.03253173828125,
                503.70355224609375
              ],
              [
                409.2329406738281,
                504.78369140625
              ],
              [
                407.0733947753906,
                506.9439697265625
              ],
              [
                404.5539245605469,
                508.02410888671875
              ],
              [
                402.0344543457031,
                508.74420166015625
              ],
              [
                394.47607421875,
                512.3446655273438
              ],
              [
                387.9974365234375,
                515.5850830078125
              ],
              [
                380.0791320800781,
                519.185546875
              ],
              [
                375.4001159667969,
                521.705810546875
              ],
              [
                368.9215087890625,
                523.8660888671875
              ],
              [
                366.40203857421875,
                526.0263671875
              ],
              [
                363.52264404296875,
                527.8265991210938
              ],
              [
                359.2035827636719,
                529.6268310546875
              ],
              [
                357.7638854980469,
                530.7069702148438
              ],
              [
                355.6043395996094,
                532.8672485351562
              ],
              [
                353.4447937011719,
                534.66748046875
              ],
              [
                351.2852478027344,
                536.4677124023438
              ],
              [
                348.04595947265625,
                538.2679443359375
              ],
              [
                343.00701904296875,
                540.0681762695312
              ],
              [
                337.96807861328125,
                542.2284545898438
              ],
              [
                335.4486389160156,
                543.6685791015625
              ],
              [
                333.2890930175781,
                546.1889038085938
              ],
              [
                332.2093200683594,
                548.709228515625
              ],
              [
                331.8493957519531,
                549.4293212890625
              ],
              [
                331.4894714355469,
                550.1494140625
              ],
              [
                329.6898498535156,
                555.1900634765625
              ],
              [
                328.6100769042969,
                558.4304809570312
              ],
              [
                327.8902282714844,
                558.79052734375
              ],
              [
                325.7306823730469,
                559.1505737304688
              ],
              [
                322.1314697265625,
                559.8706665039062
              ],
              [
                317.45245361328125,
                560.5907592773438
              ],
              [
                317.092529296875,
                560.5907592773438
              ],
              [
                315.29290771484375,
                560.9508056640625
              ],
              [
                312.7734375,
                562.0309448242188
              ],
              [
                311.6936950683594,
                562.0309448242188
              ],
              [
                310.6139221191406,
                562.3909912109375
              ],
              [
                308.0944519042969,
                563.111083984375
              ],
              [
                307.0146789550781,
                563.111083984375
              ],
              [
                305.9349060058594,
                563.111083984375
              ],
              [
                304.4952087402344,
                563.4711303710938
              ],
              [
                303.4154357910156,
                563.8311767578125
              ],
              [
                301.6158142089844,
                563.111083984375
              ],
              [
                294.4173583984375,
                560.5907592773438
              ],
              [
                269.22271728515625,
                514.1448974609375
              ],
              [
                261.6643371582031,
                467.69903564453125
              ],
              [
                250.1467742919922,
                451.136962890625
              ],
              [
                236.82960510253906,
                425.21368408203125
              ],
              [
                227.83151245117188,
                414.41229248046875
              ],
              [
                220.99298095703125,
                407.2113952636719
              ],
              [
                213.43458557128906,
                398.93035888671875
              ],
              [
                210.55520629882812,
                383.8084411621094
              ],
              [
                197.238037109375,
                362.5657653808594
              ],
              [
                180.6815643310547,
                339.8829040527344
              ],
              [
                171.6834716796875,
                330.16168212890625
              ],
              [
                163.04530334472656,
                312.5194396972656
              ],
              [
                156.20675659179688,
                282.63568115234375
              ],
              [
                146.8487548828125,
                266.7936706542969
              ],
              [
                133.1716766357422,
                243.39071655273438
              ],
              [
                132.81173706054688,
                235.82977294921875
              ],
              [
                140.37013244628906,
                186.5035400390625
              ],
              [
                138.93043518066406,
                167.78118896484375
              ],
              [
                144.689208984375,
                165.62091064453125
              ],
              [
                147.92852783203125,
                165.62091064453125
              ],
              [
                148.64837646484375,
                167.421142578125
              ],
              [
                159.08615112304688,
                168.1412353515625
              ],
              [
                161.24569702148438,
                166.7010498046875
              ],
              [
                164.1250762939453,
                164.90081787109375
              ],
              [
                168.8040771484375,
                164.540771484375
              ],
              [
                178.5220184326172,
                166.7010498046875
              ],
              [
                179.60179138183594,
                166.7010498046875
              ],
              [
                182.48117065429688,
                163.46063232421875
              ],
              [
                190.3994903564453,
                158.05996704101562
              ],
              [
                194.358642578125,
                155.53964233398438
              ],
              [
                205.87620544433594,
                151.57913208007812
              ],
              [
                210.9151153564453,
                148.69879150390625
              ],
              [
                214.15443420410156,
                147.97869873046875
              ],
              [
                218.11358642578125,
                146.8985595703125
              ],
              [
                221.3529052734375,
                144.73828125
              ],
              [
                223.15252685546875,
                143.298095703125
              ],
              [
                236.10975646972656,
                137.89743041992188
              ],
              [
                239.3490753173828,
                150.13894653320312
              ],
              [
                245.8276824951172,
                149.41888427734375
              ],
              [
                255.18569946289062,
                146.53851318359375
              ],
              [
                258.0650939941406,
                146.8985595703125
              ],
              [
                261.3044128417969,
                146.178466796875
              ],
              [
                272.82196044921875,
                142.93804931640625
              ],
              [
                276.0612487792969,
                142.93804931640625
              ],
              [
                290.818115234375,
                138.9775390625
              ],
              [
                310.6139221191406,
                134.29696655273438
              ],
              [
                327.8902282714844,
                129.97640991210938
              ],
              [
                328.2501525878906,
                131.05654907226562
              ],
              [
                346.246337890625,
                200.54531860351562
              ],
              [
                386.91766357421875,
                190.10400390625
              ],
              [
                387.63751220703125,
                189.74395751953125
              ],
              [
                414.63177490234375,
                182.903076171875
              ],
              [
                442.705810546875,
                175.34213256835938
              ],
              [
                422.5500793457031,
                96.4921875
              ],
              [
                417.87109375,
                78.48992919921875
              ],
              [
                418.23101806640625,
                77.4097900390625
              ],
              [
                420.0306396484375,
                76.32965087890625
              ],
              [
                424.7096252441406,
                75.24951171875
              ],
              [
                438.74664306640625,
                71.6490478515625
              ],
              [
                447.3847961425781,
                69.48876953125
              ],
              [
                450.9840393066406,
                68.048583984375
              ],
              [
                447.3847961425781,
                53.64678955078125
              ],
              [
                445.22528076171875,
                43.56549072265625
              ],
              [
                444.8653564453125,
                41.76531982421875
              ],
              [
                445.94512939453125,
                40.6851806640625
              ],
              [
                448.8244934082031,
                39.60498046875
              ],
              [
                477.6183776855469,
                31.323974609375
              ],
              [
                495.61456298828125,
                91.09152221679688
              ]
            ],
            "explicitlyClosed": true,
            "originalValid": true,
            "originalAreaPagePoints2": 198572.13092571264
          }
        ],
        "geometryHash": "70b9eb83856d3bf95a434bc1b0b389ae3838609597a942286ce6268980fa4e49",
        "joiningReview": {
          "joined": false
        },
        "repair": null,
        "clipReview": {
          "activeClipCount": 2,
          "outsideActiveClipsAreaPoints2": [
            0.0,
            0.0
          ],
          "outsideViewportAreaPoints2": 0.0,
          "distanceFromViewportPoints": 26.283264160156254
        },
        "manualIdentityQualification": "The page title and interior Baghdadi label uniquely identify the complete target ring. Its northern stepped red divider separately labels Bekalta South and East. Its western edge follows the blue Moknine lagoon boundary, its eastern edge follows the black coast boundary, and its full southern black governorate boundary separates Monastir/Bekalta from Mahdia/Hiboun. The ring includes the complete southern boundary inside both clips; no neighboring target or clipped continuation is joined.",
        "labelCenterContainmentPassed": true,
        "insideTargetLabels": [
          {
            "text": "يدادﻐﺑﻟا",
            "normalizedForward": "يدادغبلا",
            "normalizedReverse": "البغدادي",
            "colors": [
              15073280
            ],
            "bounds": [
              407.0733947753906,
              293.7523193359375,
              502.47613525390625,
              347.036865234375
            ],
            "point": [
              454.77476501464844,
              320.39459228515625
            ]
          }
        ],
        "visualReview": {
          "file": "work/isie-sector-maps-baghdadi/baghdadi.png",
          "completeTargetReviewed": true
        },
        "sourceAssertion": {
          "id": "osm:relation:7111930",
          "expectedKind": "sector",
          "expectedTags": {
            "admin_level": "6",
            "boundary": "administrative",
            "name": "البغدادي",
            "name:ar": "البغدادي",
            "name:fr": "El Baghdadi",
            "ref:tn:codegeo": "325953"
          }
        },
        "currentOfficialIdentity": {
          "governorateCode": "32",
          "governorateFr": "Monastir",
          "governorateAr": "المنستير",
          "delegationCode": "3259",
          "delegationFr": "Bekalta",
          "delegationAr": "البقالطة",
          "sectorCode": "325953",
          "sectorFr": "Baghdadi",
          "sectorAr": "البغدادي",
          "sourceRows": {
            "Population_Secteur_Age_Sexe_Dynamique.xlsx": 37977,
            "Nombre_de_Logements_par_Secteurs.xlsx": 1805,
            "Nombre_de_menages_par_Secteurs.xlsx": 1802
          }
        },
        "officialRegistrySha256": "23b3ee87c07971eb48b456799833f1996ade5d0bdc10d7bf6b0e3bf6798c9eec",
        "scopeReview": {
          "classification": "WHOLE_CIRCLE_EQUALS_WHOLE_IMADA",
          "wholeCircleEqualsWholeImada": true,
          "decreeAnnex": 1,
          "decreeTable": "A",
          "decreePDFPage": 15,
          "decreeJORTPage": 5112,
          "sourceDecreeSha256": "bfb3fe752b9900eaf873198b009968243f1b0bd2c119836cfd4fbbfc07e1e10f",
          "sourceDecreeURL": "https://www.isie.tn/wp-content/uploads/2023/09/Decret2023_590Arabe.pdf",
          "imadaNameAr": "البغدادي",
          "circleNameAr": "البغدادي"
        },
        "validation": {
          "valid": true,
          "countryFullyContains": true,
          "countryOutsideAreaMeters2": 0.0,
          "sourceUnchanged": true,
          "quantizedValid": true,
          "quantizedCountryFullyContains": true,
          "quantizedSymmetricDifferenceMeters2": 264.7688924220441,
          "quantizedHausdorffMeters": 0.06251231444316419,
          "quantizationGridDegrees": 1e-06
        },
        "osmComparison": {
          "oldAreaMeters2": 10669831.14783736,
          "officialAreaMeters2": 8491064.833084552,
          "iou": 0.7188030240972261,
          "officialCoveredByOsm": 0.9437075786308369,
          "osmCoveredByOfficial": 0.7510036590646352,
          "hausdorffMeters": 1476.6990876633981
        }
      },
      "geometry": {
        "type": "Polygon",
        "coordinates": [
          [
            [
              11.015467939357821,
              35.579851184414885
            ],
            [
              11.016800133429014,
              35.574990406203
            ],
            [
              11.017270142134544,
              35.57508862247392
            ],
            [
              11.018525994877491,
              35.57544951384762
            ],
            [
              11.019151787879306,
              35.57554510556004
            ],
            [
              11.019628753162413,
              35.57591906949351
            ],
            [
              11.019918631517676,
              35.57608396642488
            ],
            [
              11.02044218260938,
              35.576244933633824
            ],
            [
              11.021096088815755,
              35.57642492535247
            ],
            [
              11.021436823642883,
              35.57654652069877
            ],
            [
              11.022172910973003,
              35.5768948952214
            ],
            [
              11.0224611904242,
              35.5769961474043
            ],
            [
              11.023346096120349,
              35.57706613416039
            ],
            [
              11.023875021588896,
              35.57743920753023
            ],
            [
              11.024056232194148,
              35.577414933929596
            ],
            [
              11.02430299951445,
              35.576901468429874
            ],
            [
              11.025936557444583,
              35.57678905342756
            ],
            [
              11.025958227327378,
              35.57661891864247
            ],
            [
              11.030413714406535,
              35.57614051034482
            ],
            [
              11.030940137104912,
              35.57129320267132
            ],
            [
              11.030934220022818,
              35.57105986978306
            ],
            [
              11.030899114073494,
              35.57069970496364
            ],
            [
              11.030896962489576,
              35.57061485663125
            ],
            [
              11.030869387307833,
              35.570551659147995
            ],
            [
              11.030827827583298,
              35.56993694923138
            ],
            [
              11.030814919026959,
              35.56942785913033
            ],
            [
              11.030814381177455,
              35.56940664704176
            ],
            [
              11.030839266597663,
              35.56936378412216
            ],
            [
              11.030864151992217,
              35.569320921198006
            ],
            [
              11.03086307631763,
              35.56927849881928
            ],
            [
              11.030862000599695,
              35.56923607464228
            ],
            [
              11.030835501672433,
              35.569215301299074
            ],
            [
              11.030782503858914,
              35.56917375459363
            ],
            [
              11.030780890352771,
              35.56911011832371
            ],
            [
              11.030779276851677,
              35.569046482053054
            ],
            [
              11.030750088889484,
              35.56891964823344
            ],
            [
              11.030692788875648,
              35.56870840474183
            ],
            [
              11.030689562111023,
              35.568581133982256
            ],
            [
              11.030687948713489,
              35.568517497702395
            ],
            [
              11.030631724759557,
              35.5683486783428
            ],
            [
              11.030601461797268,
              35.56817942026625
            ],
            [
              11.030597697428949,
              35.56803093559405
            ],
            [
              11.03057012346567,
              35.56796773797977
            ],
            [
              11.0305685102445,
              35.567904103486654
            ],
            [
              11.03050583423248,
              35.56748073884502
            ],
            [
              11.030503683317514,
              35.5673958904465
            ],
            [
              11.030476109669523,
              35.56733269279482
            ],
            [
              11.030475571996275,
              35.56731148249234
            ],
            [
              11.03047449656031,
              35.56726905829127
            ],
            [
              11.030473421126585,
              35.56722663408984
            ],
            [
              11.030472345695104,
              35.5671842098881
            ],
            [
              11.030443159034732,
              35.56705737591897
            ],
            [
              11.030439395113584,
              35.56690889120449
            ],
            [
              11.030435093523051,
              35.56673919438302
            ],
            [
              11.030430792013972,
              35.566569499354244
            ],
            [
              11.030402143371923,
              35.566463877457814
            ],
            [
              11.030368655779005,
              35.56616734660054
            ],
            [
              11.030336781448524,
              35.565934452033886
            ],
            [
              11.03033355557555,
              35.565807181187495
            ],
            [
              11.030332480273852,
              35.56576475697206
            ],
            [
              11.030322265065124,
              35.565361728707046
            ],
            [
              11.030293079397834,
              35.565234892837914
            ],
            [
              11.030262818685923,
              35.56506563632985
            ],
            [
              11.030279101312939,
              35.56468338154129
            ],
            [
              11.030273725192279,
              35.56447126041406
            ],
            [
              11.030261897924133,
              35.56400459390534
            ],
            [
              11.030255984437353,
              35.563771262434045
            ],
            [
              11.03024523277968,
              35.563347021898956
            ],
            [
              11.03023878186535,
              35.5630924764834
            ],
            [
              11.030250764133019,
              35.56254052463075
            ],
            [
              11.030248613831574,
              35.56245567435119
            ],
            [
              11.030219967205099,
              35.56235005408534
            ],
            [
              11.030208141215555,
              35.561883389194485
            ],
            [
              11.030203303370282,
              35.561692480083096
            ],
            [
              11.030217436220116,
              35.561225374816445
            ],
            [
              11.030213673567001,
              35.56107689173516
            ],
            [
              11.030211523465802,
              35.56099204323096
            ],
            [
              11.030228881513953,
              35.56065221248056
            ],
            [
              11.030223506321539,
              35.56044009120462
            ],
            [
              11.030219743720192,
              35.56029160630659
            ],
            [
              11.030237101683396,
              35.559951773726134
            ],
            [
              11.030231189103109,
              35.55971844029618
            ],
            [
              11.03022850163459,
              35.55961238144088
            ],
            [
              11.030220439221972,
              35.55929420126678
            ],
            [
              11.030218826745468,
              35.55923056487018
            ],
            [
              11.030243709609199,
              35.55918770209928
            ],
            [
              11.030242097120608,
              35.55912406570245
            ],
            [
              11.030241022131017,
              35.5590816414375
            ],
            [
              11.030239947143667,
              35.55903921717221
            ],
            [
              11.030238872158558,
              35.5589967929066
            ],
            [
              11.03023779717569,
              35.55895436864066
            ],
            [
              11.030236722195065,
              35.558911944374394
            ],
            [
              11.030230053345365,
              35.55659895161371
            ],
            [
              11.030180449760273,
              35.5556660575691
            ],
            [
              11.02913842533906,
              35.55553510622953
            ],
            [
              11.025491624676727,
              35.5550873126757
            ],
            [
              11.024575104535202,
              35.554784436415005
            ],
            [
              11.02467303524604,
              35.55454935296752
            ],
            [
              11.024410791483643,
              35.554447664166155
            ],
            [
              11.024123127859914,
              35.55436762773878
            ],
            [
              11.02370515147184,
              35.55426855642058
            ],
            [
              11.023522385649485,
              35.554229191152
            ],
            [
              11.022817280427272,
              35.55407129398644
            ],
            [
              11.022607488353415,
              35.55398993965234
            ],
            [
              11.022555040399059,
              35.55396960100937
            ],
            [
              11.022372275739658,
              35.553930233953295
            ],
            [
              11.022294942206493,
              35.55395275645941
            ],
            [
              11.022243564921329,
              35.55397484218859
            ],
            [
              11.021955374013782,
              35.55387358452402
            ],
            [
              11.021882321932763,
              35.55406580484899
            ],
            [
              11.02122913338903,
              35.553907021318125
            ],
            [
              11.021253484604086,
              35.55384294799563
            ],
            [
              11.02062625518978,
              35.55368372457207
            ],
            [
              11.020676028169506,
              35.553598002690414
            ],
            [
              11.020153700154353,
              35.55347945559207
            ],
            [
              11.01988047941017,
              35.55397213691191
            ],
            [
              11.01938463637093,
              35.55387436266857
            ],
            [
              11.019554035326033,
              35.55338342700631
            ],
            [
              11.018979793498554,
              35.553265747067265
            ],
            [
              11.019076135943303,
              35.552967034328624
            ],
            [
              11.018552745501669,
              35.552806055453594
            ],
            [
              11.018526789525763,
              35.552806491375414
            ],
            [
              11.018428308126827,
              35.553020354506906
            ],
            [
              11.018428842389973,
              35.553041566816056
            ],
            [
              11.017619932157789,
              35.55288538208289
            ],
            [
              11.017608608106288,
              35.5544983824841
            ],
            [
              11.017588526363587,
              35.55473215368121
            ],
            [
              11.016907252025245,
              35.55448893660567
            ],
            [
              11.016853203430362,
              35.55440495847164
            ],
            [
              11.016877024425064,
              35.55431967359415
            ],
            [
              11.016973375738376,
              35.554020958692035
            ],
            [
              11.016970706249191,
              35.55391489706739
            ],
            [
              11.016341348737013,
              35.5536708017522
            ],
            [
              11.016315392446943,
              35.553671237207084
            ],
            [
              11.015660084675599,
              35.55342757360582
            ],
            [
              11.015503280331597,
              35.55338776066392
            ],
            [
              11.015398388535898,
              35.55334707702117
            ],
            [
              11.01497935573677,
              35.553205553853296
            ],
            [
              11.014402457086348,
              35.55298179359499
            ],
            [
              11.014166719619112,
              35.552900859205444
            ],
            [
              11.014140230411597,
              35.55288008181834
            ],
            [
              11.013562803211196,
              35.55263510140736
            ],
            [
              11.013536314243973,
              35.55261432387862
            ],
            [
              11.012751243274112,
              35.55237281798854
            ],
            [
              11.011137705451487,
              35.5563682021441
            ],
            [
              11.010405050294693,
              35.556147025733075
            ],
            [
              11.009960053502592,
              35.556005921358945
            ],
            [
              11.00943665708805,
              35.55584490304399
            ],
            [
              11.009018152369997,
              35.55572457170109
            ],
            [
              11.008756454628715,
              35.555644062542946
            ],
            [
              11.008625076393063,
              35.55558259437984
            ],
            [
              11.008466144079506,
              35.55545792259591
            ],
            [
              11.008282850211078,
              35.55539732162733
            ],
            [
              11.0081000881949,
              35.55535793280628
            ],
            [
              11.007549679585281,
              35.55515491483153
            ],
            [
              11.007077673318722,
              35.55497180632702
            ],
            [
              11.006501312948897,
              35.554769216852094
            ],
            [
              11.006160157127674,
              35.554626366294066
            ],
            [
              11.005689751923851,
              35.55450688950062
            ],
            [
              11.005504869483875,
              35.554382646740585
            ],
            [
              11.005294561782355,
              35.554280049240646
            ],
            [
              11.004980430270637,
              35.55417918343191
            ],
            [
              11.004875011581461,
              35.5541172780101
            ],
            [
              11.00471608784259,
              35.55399260096615
            ],
            [
              11.004557695221143,
              35.5538891361814
            ],
            [
              11.004399303003387,
              35.553785671173415
            ],
            [
              11.004163043927747,
              35.55368350443937
            ],
            [
              11.003797000932467,
              35.55358350110925
            ],
            [
              11.00343042847785,
              35.553462284132316
            ],
            [
              11.003246614667402,
              35.553380466264386
            ],
            [
              11.003087164631946,
              35.553234574419534
            ],
            [
              11.003005584123503,
              35.553087384624064
            ],
            [
              11.00297856742049,
              35.55304539218065
            ],
            [
              11.002951550746452,
              35.55300339972999
            ],
            [
              11.00281434723159,
              35.55270858731202
            ],
            [
              11.0027317075559,
              35.552518972254454
            ],
            [
              11.002679265179081,
              35.55249862475857
            ],
            [
              11.002522998326514,
              35.552480007166004
            ],
            [
              11.002262379247782,
              35.55244190651189
            ],
            [
              11.001923889855387,
              35.55240510237006
            ],
            [
              11.001897933743274,
              35.55240553470812
            ],
            [
              11.00176762331243,
              35.55238648378587
            ],
            [
              11.001584341101395,
              35.55232587220418
            ],
            [
              11.001506475024609,
              35.55232716894321
            ],
            [
              11.001428076971056,
              35.55230725313512
            ],
            [
              11.001245324895518,
              35.55226785355805
            ],
            [
              11.00116745665788,
              35.552269150112984
            ],
            [
              11.001089588415278,
              35.552270446617655
            ],
            [
              11.000985234430821,
              35.55225096267293
            ],
            [
              11.000906836564893,
              35.5522310465188
            ],
            [
              11.000778115395216,
              35.55227563213394
            ],
            [
              11.000262701969222,
              35.5524327606778
            ],
            [
              10.998514018603164,
              35.555199399659564
            ],
            [
              10.998037156840327,
              35.55794487618209
            ],
            [
              10.99723082679935,
              35.5589344577554
            ],
            [
              10.996308428140598,
              35.56047771739274
            ],
            [
              10.995675311527156,
              35.5611248733861
            ],
            [
              10.995192658204925,
              35.56155731284392
            ],
            [
              10.994659664505635,
              35.56205425005165
            ],
            [
              10.994474172457902,
              35.56294862377355
            ],
            [
              10.993544814522672,
              35.56421610083737
            ],
            [
              10.992383895285636,
              35.565572295862744
            ],
            [
              10.991749125465308,
              35.56615579341398
            ],
            [
              10.991151908998997,
              35.56720553523343
            ],
            [
              10.9907024111777,
              35.56897434938569
            ],
            [
              10.990050603207814,
              35.569918883511576
            ],
            [
              10.98909829873644,
              35.571314035456695
            ],
            [
              10.989083399856373,
              35.57175992859214
            ],
            [
              10.98970082161754,
              35.574657022741356
            ],
            [
              10.98962437684741,
              35.57576179437419
            ],
            [
              10.990042960468102,
              35.57588219029179
            ],
            [
              10.990276635292505,
              35.575878319819445
            ],
            [
              10.990325926516242,
              35.57577139668034
            ],
            [
              10.991077820204584,
              35.575716496670054
            ],
            [
              10.991235713165654,
              35.575798765410596
            ],
            [
              10.991446060640314,
              35.57590138588308
            ],
            [
              10.9917841173067,
              35.57591700371792
            ],
            [
              10.992481972881585,
              35.575778105426465
            ],
            [
              10.99255986427816,
              35.57577681374658
            ],
            [
              10.992772325064132,
              35.57596428210438
            ],
            [
              10.993351450154549,
              35.576272993735984
            ],
            [
              10.993640749717043,
              35.57641674308125
            ],
            [
              10.99447740842799,
              35.57663629231133
            ],
            [
              10.994845130835392,
              35.57679995640179
            ],
            [
              10.995079864789146,
              35.57683850159368
            ],
            [
              10.995367054714801,
              35.576897396506965
            ],
            [
              10.995603904016502,
              35.577020790752535
            ],
            [
              10.995735839771868,
              35.57710348457874
            ],
            [
              10.996678481441679,
              35.57740614124099
            ],
            [
              10.996894171824673,
              35.576681036184866
            ],
            [
              10.997362580216702,
              35.57671569131542
            ],
            [
              10.998041878408737,
              35.57687416744852
            ],
            [
              10.998249061502705,
              35.57684950069716
            ],
            [
              10.998483796911325,
              35.57688803919726
            ],
            [
              10.999319411682734,
              35.57706512925192
            ],
            [
              10.999553086418468,
              35.57706124072304
            ],
            [
              11.000623442378203,
              35.57727685747689
            ],
            [
              11.00205836329457,
              35.5775288313022
            ],
            [
              11.003311009578775,
              35.57776260761746
            ],
            [
              11.003335381540646,
              35.5776985374525
            ],
            [
              11.004531097409712,
              35.57358290063172
            ],
            [
              11.007480314450968,
              35.57414907931312
            ],
            [
              11.00753277232674,
              35.57416942414927
            ],
            [
              11.00949010862568,
              35.57453990994736
            ],
            [
              11.011526416842099,
              35.574951482266165
            ],
            [
              11.010189105805647,
              35.57962130172585
            ],
            [
              11.009878192886523,
              35.58068756117176
            ],
            [
              11.009905755671129,
              35.58075076378809
            ],
            [
              11.010037179086893,
              35.580812228898736
            ],
            [
              11.010376321784051,
              35.58087021840113
            ],
            [
              11.011394289904565,
              35.58106539330791
            ],
            [
              11.01202065121785,
              35.581182233167354
            ],
            [
              11.01228243630283,
              35.58126273388232
            ],
            [
              11.01204410921178,
              35.58211557041797
            ],
            [
              11.011903245482884,
              35.582712123418936
            ],
            [
              11.011879945261411,
              35.582818616077844
            ],
            [
              11.011959441976467,
              35.5828809485082
            ],
            [
              11.012168765702578,
              35.58294111024891
            ],
            [
              11.014258299627068,
              35.58339418140559
            ],
            [
              11.015467939357821,
              35.579851184414885
            ]
          ]
        ]
      }
    }
  ]
}
