{
  "type": "FeatureCollection",
  "sourceId": "isie-local-sectors-2023-bekalta-neighbors-review",
  "status": "REVIEWED_SOURCE_GEOMETRIES_PENDING_CLUSTER_ACCEPTANCE",
  "reviewedDate": "2026-09-07",
  "sourceSnapshotSha256": "346a79dca9013b427cf7ce4e11fb31ca03fa575ee7a68c865701c463c504a1ce",
  "features": [
    {
      "type": "Feature",
      "id": "osm:relation:7111785",
      "properties": {
        "officialCode": "326052",
        "nameAr": "الفضلين",
        "nameFr": "El fadhline",
        "governorateCode": "32",
        "governorateAr": "المنستير",
        "governorateFr": "Monastir",
        "delegationCode": "3260",
        "parentAr": "طبلبة",
        "parentFr": "Teboulba",
        "sourceId": "isie-local-sectors-2023-bekalta-neighbors-review",
        "sourcePdfURL": "https://www.isie.tn/wp-content/uploads/2023/CartesCirconscriptionsElectoralesLocales2023/%D8%A7%D9%84%D9%85%D9%86%D8%B3%D8%AA%D9%8A%D8%B1/%D8%B7%D8%A8%D9%84%D8%A8%D8%A9/%D8%A7%D9%84%D9%81%D8%B6%D9%84%D9%8A%D9%86.pdf",
        "sourcePdfSha256": "1507a3879adc693e0ea3a84bb6ee53cd560533b369908899e46e4937c0b1a4e2",
        "sourcePdfFile": "work/isie-sector-maps-fadhalin/fadhalin.pdf",
        "sourcePdfCreated": "D:20231017051433+01",
        "reviewedDate": "2026-09-07",
        "sourceMapTitleAr": "الفضلين",
        "targetIsPageTitle": true,
        "sourceDrawingIndices": [
          225
        ],
        "sourceVectorLayer": "circonscription_isie2023",
        "sourceCrsEpsg": 32632,
        "sourceCrsWkt": "PROJCS[\"WGS_1984_UTM_Zone_32N\",GEOGCS[\"GCS_WGS_1984\",DATUM[\"D_WGS_1984\",SPHEROID[\"WGS_1984\",6378137.0,298.257223563]],PRIMEM[\"Greenwich\",0.0],UNIT[\"Degree\",0.0174532925199433]],PROJECTION[\"Transverse_Mercator\"],PARAMETER[\"False_Easting\",500000.0],PARAMETER[\"False_Northing\",0.0],PARAMETER[\"Central_Meridian\",9.0],PARAMETER[\"Scale_Factor\",0.9996],PARAMETER[\"Latitude_Of_Origin\",0.0],UNIT[\"Meter\",1.0]]",
        "sourceControlPointMaxResidualMeters": 0.32292455722153535,
        "sourceControlPointsLatLon": [
          [
            35.6257,
            10.96502
          ],
          [
            35.64881,
            10.96558
          ],
          [
            35.64814,
            11.0061
          ],
          [
            35.62504,
            11.00552
          ]
        ],
        "sourceLocalControlPoints": [
          [
            0.0,
            1.0
          ],
          [
            0.0,
            0.0
          ],
          [
            1.0,
            0.0
          ],
          [
            1.0,
            1.0
          ]
        ],
        "sourceViewportBBox": [
          4.31908,
          590.46173,
          841.50095,
          5.38791
        ],
        "sourcePageTransformationMatrix": [
          1.0,
          0.0,
          0.0,
          -1.0,
          0.0,
          595.5023803710938
        ],
        "sourceAffineMetersFromPagePoints": [
          [
            4.383677231212013,
            0.00039726326344794485
          ],
          [
            0.0002639459007696132,
            -4.382469825361113
          ],
          [
            677927.7093070076,
            3946798.6580253826
          ]
        ],
        "sourceGeometry": "One original complete valid explicitly closed red vector ring; no repair, joining, rounding, snapping, buffering, clipping or simplification applied to export.",
        "sourcePagePaths": [
          {
            "drawingIndex": 225,
            "vertices": [
              [
                492.73516845703125,
                92.53167724609375
              ],
              [
                498.8538513183594,
                100.45269775390625
              ],
              [
                505.6924133300781,
                105.85336303710938
              ],
              [
                513.9706420898438,
                108.37368774414062
              ],
              [
                515.4103393554688,
                109.09378051757812
              ],
              [
                524.0485229492188,
                111.97415161132812
              ],
              [
                533.0465698242188,
                115.93466186523438
              ],
              [
                540.60498046875,
                121.3353271484375
              ],
              [
                542.044677734375,
                121.69537353515625
              ],
              [
                547.803466796875,
                123.13555908203125
              ],
              [
                553.922119140625,
                123.13555908203125
              ],
              [
                560.4007568359375,
                121.69537353515625
              ],
              [
                566.87939453125,
                123.49560546875
              ],
              [
                572.9981079101562,
                130.69650268554688
              ],
              [
                577.317138671875,
                134.65701293945312
              ],
              [
                583.4358520507812,
                139.33758544921875
              ],
              [
                597.1129760742188,
                147.97869873046875
              ],
              [
                609.350341796875,
                154.09945678710938
              ],
              [
                614.0293579101562,
                154.09945678710938
              ],
              [
                621.5877685546875,
                155.17959594726562
              ],
              [
                632.0255126953125,
                155.53964233398438
              ],
              [
                643.5430908203125,
                159.14010620117188
              ],
              [
                660.0995483398438,
                171.38165283203125
              ],
              [
                661.899169921875,
                172.4617919921875
              ],
              [
                672.6968994140625,
                180.02273559570312
              ],
              [
                686.0140380859375,
                185.06338500976562
              ],
              [
                698.611328125,
                189.3839111328125
              ],
              [
                702.5704956054688,
                192.2642822265625
              ],
              [
                709.7689819335938,
                209.54644775390625
              ],
              [
                711.2086791992188,
                219.62771606445312
              ],
              [
                704.0101928710938,
                230.4290771484375
              ],
              [
                689.2533569335938,
                252.03182983398438
              ],
              [
                687.4537353515625,
                256.35235595703125
              ],
              [
                679.1754760742188,
                268.9539489746094
              ],
              [
                675.21630859375,
                276.15484619140625
              ],
              [
                690.6930541992188,
                288.0363464355469
              ],
              [
                680.97509765625,
                305.31854248046875
              ],
              [
                672.3369750976562,
                312.5194396972656
              ],
              [
                662.6190185546875,
                317.5600891113281
              ],
              [
                640.6636962890625,
                323.32080078125
              ],
              [
                626.6266479492188,
                325.12103271484375
              ],
              [
                606.1110229492188,
                325.12103271484375
              ],
              [
                601.4320068359375,
                326.9212646484375
              ],
              [
                596.3931274414062,
                325.4810791015625
              ],
              [
                582.3560791015625,
                319.0002746582031
              ],
              [
                564.3599243164062,
                307.1187744140625
              ],
              [
                548.1633911132812,
                299.55780029296875
              ],
              [
                542.7645263671875,
                298.1176452636719
              ],
              [
                534.1263427734375,
                303.87835693359375
              ],
              [
                528.7274780273438,
                304.95849609375
              ],
              [
                521.8889770507812,
                307.8388671875
              ],
              [
                511.09124755859375,
                311.07928466796875
              ],
              [
                476.8985290527344,
                302.078125
              ],
              [
                456.0229797363281,
                295.9573669433594
              ],
              [
                438.02679443359375,
                292.3569030761719
              ],
              [
                431.1882629394531,
                311.7993469238281
              ],
              [
                382.2386779785156,
                411.53192138671875
              ],
              [
                359.9234313964844,
                389.56915283203125
              ],
              [
                299.81622314453125,
                447.89654541015625
              ],
              [
                332.5692443847656,
                478.1403503417969
              ],
              [
                348.4058837890625,
                495.7825622558594
              ],
              [
                361.7230529785156,
                507.6640625
              ],
              [
                345.5264892578125,
                523.8660888671875
              ],
              [
                340.84747314453125,
                520.2656860351562
              ],
              [
                335.0887145996094,
                524.2261352539062
              ],
              [
                333.2890930175781,
                528.90673828125
              ],
              [
                323.93109130859375,
                540.42822265625
              ],
              [
                322.851318359375,
                543.6685791015625
              ],
              [
                319.2520751953125,
                546.5489501953125
              ],
              [
                315.29290771484375,
                545.4688720703125
              ],
              [
                308.0944519042969,
                551.2295532226562
              ],
              [
                303.4154357910156,
                551.9496459960938
              ],
              [
                286.4990539550781,
                562.3909912109375
              ],
              [
                285.0593566894531,
                563.4711303710938
              ],
              [
                272.82196044921875,
                521.705810546875
              ],
              [
                265.62347412109375,
                510.54443359375
              ],
              [
                257.3452453613281,
                496.8627014160156
              ],
              [
                255.90554809570312,
                494.70245361328125
              ],
              [
                250.1467742919922,
                483.541015625
              ],
              [
                240.4288330078125,
                470.2193603515625
              ],
              [
                228.1914520263672,
                456.8976745605469
              ],
              [
                203.71665954589844,
                428.8141174316406
              ],
              [
                193.99871826171875,
                417.6527099609375
              ],
              [
                186.44032287597656,
                409.3716735839844
              ],
              [
                174.9227752685547,
                395.68994140625
              ],
              [
                167.0044708251953,
                386.3287658691406
              ],
              [
                166.2846221923828,
                385.2486267089844
              ],
              [
                165.92469787597656,
                384.5285339355469
              ],
              [
                134.61135864257812,
                338.0826721191406
              ],
              [
                167.72430419921875,
                309.63909912109375
              ],
              [
                200.11741638183594,
                277.59503173828125
              ],
              [
                192.9189453125,
                266.0735778808594
              ],
              [
                228.91128540039062,
                224.30831909179688
              ],
              [
                221.3529052734375,
                217.8275146484375
              ],
              [
                241.14869689941406,
                192.984375
              ],
              [
                248.34715270996094,
                197.66494750976562
              ],
              [
                269.94256591796875,
                174.62203979492188
              ],
              [
                300.1761169433594,
                146.53851318359375
              ],
              [
                274.62158203125,
                117.37481689453125
              ],
              [
                260.9444885253906,
                113.77438354492188
              ],
              [
                252.66624450683594,
                100.45269775390625
              ],
              [
                274.9814758300781,
                83.1705322265625
              ],
              [
                278.2207946777344,
                81.01025390625
              ],
              [
                280.3803405761719,
                79.570068359375
              ],
              [
                287.938720703125,
                74.16937255859375
              ],
              [
                288.6585693359375,
                73.809326171875
              ],
              [
                289.73834228515625,
                72.72918701171875
              ],
              [
                296.21697998046875,
                66.96844482421875
              ],
              [
                302.3356628417969,
                61.56781005859375
              ],
              [
                313.85321044921875,
                52.566650390625
              ],
              [
                323.21124267578125,
                45.36572265625
              ],
              [
                326.0906066894531,
                42.4853515625
              ],
              [
                328.9700012207031,
                53.2867431640625
              ],
              [
                332.9291687011719,
                62.64794921875
              ],
              [
                337.96807861328125,
                68.7686767578125
              ],
              [
                348.4058837890625,
                80.2901611328125
              ],
              [
                367.4818115234375,
                93.97186279296875
              ],
              [
                376.8398132324219,
                84.25064086914062
              ],
              [
                404.9138488769531,
                51.8465576171875
              ],
              [
                396.99554443359375,
                41.04522705078125
              ],
              [
                408.87298583984375,
                33.12420654296875
              ],
              [
                411.03253173828125,
                31.68402099609375
              ],
              [
                415.35162353515625,
                45.00567626953125
              ],
              [
                417.87109375,
                50.04632568359375
              ],
              [
                422.9100341796875,
                60.12762451171875
              ],
              [
                425.4294738769531,
                63.72808837890625
              ],
              [
                426.5092468261719,
                65.5283203125
              ],
              [
                430.4684143066406,
                68.7686767578125
              ],
              [
                435.5073547363281,
                73.44927978515625
              ],
              [
                441.62603759765625,
                74.88946533203125
              ],
              [
                452.4237365722656,
                78.1298828125
              ],
              [
                465.02105712890625,
                82.09039306640625
              ],
              [
                472.2195129394531,
                83.53054809570312
              ],
              [
                475.8187561035156,
                84.25064086914062
              ],
              [
                481.9374694824219,
                84.97073364257812
              ],
              [
                487.3363037109375,
                86.41091918945312
              ],
              [
                492.73516845703125,
                92.53167724609375
              ]
            ],
            "explicitlyClosed": true,
            "originalValid": true,
            "originalAreaPagePoints2": 131064.4743264562
          }
        ],
        "geometryHash": "94a0d10eeda90f6b26e7004bf6e6f78630a2964531179f192b7f2593cfb17599",
        "joiningReview": {
          "joined": false
        },
        "repair": null,
        "clipReview": {
          "activeClipCount": 2,
          "outsideActiveClipsAreaPoints2": [
            0.0,
            0.0
          ],
          "outsideViewportAreaPoints2": 0.0,
          "distanceFromViewportPoints": 26.643310546875004
        },
        "manualIdentityQualification": "The page title and interior Fadhalin label identify the complete coastal ring. Its west boundary follows the red Houmet Souk divider; east/south follow the blue Bekalta delegation boundary. The Houmet Souk neighboring label on this page is displaced east of its actual divider. Its own independent official map (ring222, sha1d2c8c9b2ba0154f6b582e9c86f3a9f5a940c08cbf1f6fad72e612a19936428d) confirms a distinct northwest polygon, preventing an accidental combined-sector interpretation.",
        "labelCenterContainmentPassed": true,
        "insideTargetLabels": [
          {
            "text": "نﯾﻠﺿﻔﻟا",
            "normalizedForward": "نيلضفلا",
            "normalizedReverse": "الفضلين",
            "colors": [
              15073280
            ],
            "bounds": [
              509.8315124511719,
              247.66648864746094,
              604.154541015625,
              300.9510498046875
            ],
            "point": [
              556.9930267333984,
              274.3087692260742
            ]
          }
        ],
        "visualReview": {
          "file": "work/isie-sector-maps-fadhalin/fadhalin.png",
          "completeTargetReviewed": true
        },
        "sourceAssertion": {
          "id": "osm:relation:7111785",
          "expectedKind": "sector",
          "expectedTags": {
            "admin_level": "6",
            "boundary": "administrative",
            "name": "الفضلين",
            "name:ar": "الفضلين",
            "name:fr": "El Fadhline",
            "ref:tn:codegeo": "326052"
          }
        },
        "currentOfficialIdentity": {
          "governorateCode": "32",
          "governorateFr": "Monastir",
          "governorateAr": "المنستير",
          "delegationCode": "3260",
          "delegationFr": "Teboulba",
          "delegationAr": "طبلبة",
          "sectorCode": "326052",
          "sectorFr": "El fadhline",
          "sectorAr": "الفضلين",
          "sourceRows": {
            "Population_Secteur_Age_Sexe_Dynamique.xlsx": 38079,
            "Nombre_de_Logements_par_Secteurs.xlsx": 1809,
            "Nombre_de_menages_par_Secteurs.xlsx": 1806
          }
        },
        "officialRegistrySha256": "23b3ee87c07971eb48b456799833f1996ade5d0bdc10d7bf6b0e3bf6798c9eec",
        "scopeReview": {
          "classification": "WHOLE_CIRCLE_EQUALS_WHOLE_IMADA",
          "wholeCircleEqualsWholeImada": true,
          "decreeAnnex": 1,
          "decreeTable": "A",
          "decreePDFPage": 18,
          "decreeJORTPage": 5115,
          "sourceDecreeSha256": "bfb3fe752b9900eaf873198b009968243f1b0bd2c119836cfd4fbbfc07e1e10f",
          "sourceDecreeURL": "https://www.isie.tn/wp-content/uploads/2023/09/Decret2023_590Arabe.pdf",
          "imadaNameAr": "الفضلين",
          "circleNameAr": "الفضلين"
        },
        "validation": {
          "valid": true,
          "countryFullyContains": true,
          "countryOutsideAreaMeters2": 0.0,
          "sourceUnchanged": true,
          "quantizedValid": true,
          "quantizedCountryFullyContains": true,
          "quantizedSymmetricDifferenceMeters2": 185.85341160238562,
          "quantizedHausdorffMeters": 0.06529689236307715,
          "quantizationGridDegrees": 1e-06
        },
        "osmComparison": {
          "oldAreaMeters2": 5546419.693036206,
          "officialAreaMeters2": 2517923.299388902,
          "iou": 0.4519083534879137,
          "officialCoveredByOsm": 0.9968680104630044,
          "osmCoveredByOfficial": 0.45255089388776865,
          "hausdorffMeters": 1353.5278427450064
        }
      },
      "geometry": {
        "type": "Polygon",
        "coordinates": [
          [
            [
              10.989133960045415,
              35.64496609439711
            ],
            [
              10.989422328790356,
              35.64464841813699
            ],
            [
              10.989747993596609,
              35.64442969844965
            ],
            [
              10.990146139501213,
              35.644323577872356
            ],
            [
              10.990215107173405,
              35.644293994506675
            ],
            [
              10.990630319162834,
              35.64417336727637
            ],
            [
              10.991061889069035,
              35.64400979664512
            ],
            [
              10.99142238195081,
              35.64379049914168
            ],
            [
              10.991491700579125,
              35.64377513350614
            ],
            [
              10.991768974808819,
              35.643713670572986
            ],
            [
              10.992065071276496,
              35.64370879389383
            ],
            [
              10.99237999650558,
              35.643760503212484
            ],
            [
              10.992691752986842,
              35.64368424588091
            ],
            [
              10.992980808707834,
              35.64339499966113
            ],
            [
              10.993185941868695,
              35.64323515268888
            ],
            [
              10.993477459979646,
              35.643045434302195
            ],
            [
              10.99413086614774,
              35.6426932812483
            ],
            [
              10.994717061665925,
              35.642441803997755
            ],
            [
              10.994943486647252,
              35.642438069374094
            ],
            [
              10.995308192280659,
              35.64238938040967
            ],
            [
              10.995812937980645,
              35.64236682792293
            ],
            [
              10.996366763252503,
              35.64221544523143
            ],
            [
              10.997155954823596,
              35.64171879362152
            ],
            [
              10.997241981736334,
              35.64167470037283
            ],
            [
              10.997757082246785,
              35.64136748569647
            ],
            [
              10.998396566262148,
              35.641157782006296
            ],
            [
              10.999001919359,
              35.64097708872401
            ],
            [
              10.999190679826484,
              35.64086017499059
            ],
            [
              10.999522060110323,
              35.64017193707618
            ],
            [
              10.999581834906683,
              35.639772672057056
            ],
            [
              10.999222904530171,
              35.6393518803956
            ],
            [
              10.998487641750518,
              35.63851057993995
            ],
            [
              10.998396322918365,
              35.638341399372955
            ],
            [
              10.997983391558805,
              35.637850374836255
            ],
            [
              10.997784753567116,
              35.63756917274268
            ],
            [
              10.998521999302856,
              35.63708759491578
            ],
            [
              10.998034821313201,
              35.63641288222997
            ],
            [
              10.997609783109631,
              35.63613541948849
            ],
            [
              10.997134614127496,
              35.63594412711312
            ],
            [
              10.996066606526915,
              35.63573417054099
            ],
            [
              10.995385626168098,
              35.635674285548596
            ],
            [
              10.994392926274333,
              35.63569065818731
            ],
            [
              10.994164758850957,
              35.635623299014235
            ],
            [
              10.993922349046175,
              35.635684192337074
            ],
            [
              10.993249468819126,
              35.63595131800845
            ],
            [
              10.99239029072983,
              35.63643487251267
            ],
            [
              10.991613960747738,
              35.63674636714794
            ],
            [
              10.991354126300898,
              35.63680754107657
            ],
            [
              10.990930511825082,
              35.636586927953786
            ],
            [
              10.99066821561724,
              35.63654857240767
            ],
            [
              10.990334500259365,
              35.6364402702977
            ],
            [
              10.98980885492684,
              35.6363209005786
            ],
            [
              10.98816311590794,
              35.6367035696052
            ],
            [
              10.98715895066326,
              35.636961882349354
            ],
            [
              10.986291650920826,
              35.63711837069745
            ],
            [
              10.985941798519585,
              35.63635600784935
            ],
            [
              10.98347616049357,
              35.63245635332603
            ],
            [
              10.982417776637247,
              35.63334138204633
            ],
            [
              10.979452757498423,
              35.63108560944898
            ],
            [
              10.981008127294713,
              35.62986531117829
            ],
            [
              10.981757223307493,
              35.629156053662236
            ],
            [
              10.982390006944208,
              35.628676285137644
            ],
            [
              10.98159060970567,
              35.62804929227086
            ],
            [
              10.981367722564507,
              35.628195183669725
            ],
            [
              10.981085245809176,
              35.628043345299865
            ],
            [
              10.980993626143626,
              35.627859929921506
            ],
            [
              10.980529663620377,
              35.627412349517584
            ],
            [
              10.980474273355481,
              35.6272852401271
            ],
            [
              10.980297333919403,
              35.627174342423686
            ],
            [
              10.980106827256773,
              35.627220131361966
            ],
            [
              10.979752951663755,
              35.62699833693931
            ],
            [
              10.979525868988105,
              35.626973604464396
            ],
            [
              10.978697275000108,
              35.626574655747916
            ],
            [
              10.978626570627288,
              35.62653313931563
            ],
            [
              10.97807501605086,
              35.62819217576551
            ],
            [
              10.977737555648739,
              35.62863864425195
            ],
            [
              10.977350293812043,
              35.629185497182014
            ],
            [
              10.977282730558484,
              35.62927194613907
            ],
            [
              10.977014921124738,
              35.62971727657582
            ],
            [
              10.976557640109604,
              35.630251045855694
            ],
            [
              10.975978449770288,
              35.63078680609708
            ],
            [
              10.974821439742643,
              35.6319151932744
            ],
            [
              10.974362039555023,
              35.632363644462146
            ],
            [
              10.974004337517584,
              35.632696639983365
            ],
            [
              10.97346029157716,
              35.63324603922632
            ],
            [
              10.97308621259411,
              35.63362197217918
            ],
            [
              10.973052426891872,
              35.633665196171265
            ],
            [
              10.973035708283362,
              35.633693917472385
            ],
            [
              10.971565475902649,
              35.635552819792196
            ],
            [
              10.973195284533766,
              35.63664995999116
            ],
            [
              10.97479379394137,
              35.63788983231985
            ],
            [
              10.974456626225779,
              35.63835051260819
            ],
            [
              10.976238784766165,
              35.63997141970011
            ],
            [
              10.975879313614568,
              35.64023332834383
            ],
            [
              10.976861347645482,
              35.64119875453552
            ],
            [
              10.977205149179031,
              35.64100822050153
            ],
            [
              10.978272547758053,
              35.64190111780573
            ],
            [
              10.979762886435871,
              35.64298622139281
            ],
            [
              10.978554560495907,
              35.64415815716162
            ],
            [
              10.977896178512085,
              35.64431116722683
            ],
            [
              10.9775084970627,
              35.64484380317813
            ],
            [
              10.978605192464597,
              35.645508628978305
            ],
            [
              10.978764053822289,
              35.645591375528824
            ],
            [
              10.978869961572904,
              35.645646539772905
            ],
            [
              10.979240988117496,
              35.64585383241153
            ],
            [
              10.97927617431479,
              35.64586748084452
            ],
            [
              10.979329478308543,
              35.6459092812746
            ],
            [
              10.979648603748494,
              35.646131646255235
            ],
            [
              10.97994996119844,
              35.64634007456708
            ],
            [
              10.980516095548996,
              35.64668641142737
            ],
            [
              10.980975975065485,
              35.6469633647298
            ],
            [
              10.981118121977582,
              35.647074830345616
            ],
            [
              10.98124696551164,
              35.64664599219165
            ],
            [
              10.98142946321699,
              35.64627317188534
            ],
            [
              10.981667364257657,
              35.646027464205915
            ],
            [
              10.982161283515637,
              35.645564194232946
            ],
            [
              10.983071123814316,
              35.64500876021518
            ],
            [
              10.98353345392758,
              35.645385232164415
            ],
            [
              10.98492362884324,
              35.64664260271752
            ],
            [
              10.984550948714153,
              35.64707544353095
            ],
            [
              10.985133471756496,
              35.64737881657586
            ],
            [
              10.985239386038897,
              35.64743397498278
            ],
            [
              10.985435425290417,
              35.64690446240116
            ],
            [
              10.98555244132336,
              35.64670340198815
            ],
            [
              10.985786471685293,
              35.64630128085848
            ],
            [
              10.985904888345301,
              35.6461570940726
            ],
            [
              10.985955388161015,
              35.646085143638444
            ],
            [
              10.986143829370207,
              35.645954033395
            ],
            [
              10.98638312015935,
              35.64576518833857
            ],
            [
              10.98667782230518,
              35.645703450749174
            ],
            [
              10.987197203167604,
              35.6455668997641
            ],
            [
              10.987802969755291,
              35.6454004782819
            ],
            [
              10.988149923361698,
              35.645337879508354
            ],
            [
              10.98832340066805,
              35.64530657913811
            ],
            [
              10.988618803742002,
              35.64527327378183
            ],
            [
              10.98887866617096,
              35.64521210370677
            ],
            [
              10.989133960045415,
              35.64496609439711
            ]
          ]
        ]
      }
    },
    {
      "type": "Feature",
      "id": "osm:relation:7111784",
      "properties": {
        "officialCode": "326053",
        "nameAr": "العيايشة",
        "nameFr": "El aiaicha",
        "governorateCode": "32",
        "governorateAr": "المنستير",
        "governorateFr": "Monastir",
        "delegationCode": "3260",
        "parentAr": "طبلبة",
        "parentFr": "Teboulba",
        "sourceId": "isie-local-sectors-2023-bekalta-neighbors-review",
        "sourcePdfURL": "https://www.isie.tn/wp-content/uploads/2023/CartesCirconscriptionsElectoralesLocales2023/%D8%A7%D9%84%D9%85%D9%86%D8%B3%D8%AA%D9%8A%D8%B1/%D8%B7%D8%A8%D9%84%D8%A8%D8%A9/%D8%A7%D9%84%D8%B9%D9%8A%D8%A7%D9%8A%D8%B4%D8%A9.pdf",
        "sourcePdfSha256": "d4ec8820cb98123a8af0b6505972e708eb049b894766ac37d12e9a0248ab3a64",
        "sourcePdfFile": "work/isie-sector-maps-ayaicha/ayaicha.pdf",
        "sourcePdfCreated": "D:20231017051427+01",
        "reviewedDate": "2026-09-07",
        "sourceMapTitleAr": "العيايشة - (طبلبة)",
        "targetIsPageTitle": true,
        "sourceDrawingIndices": [
          247
        ],
        "sourceVectorLayer": "circonscription_isie2023",
        "sourceCrsEpsg": 32632,
        "sourceCrsWkt": "PROJCS[\"WGS_1984_UTM_Zone_32N\",GEOGCS[\"GCS_WGS_1984\",DATUM[\"D_WGS_1984\",SPHEROID[\"WGS_1984\",6378137.0,298.257223563]],PRIMEM[\"Greenwich\",0.0],UNIT[\"Degree\",0.0174532925199433]],PROJECTION[\"Transverse_Mercator\"],PARAMETER[\"False_Easting\",500000.0],PARAMETER[\"False_Northing\",0.0],PARAMETER[\"Central_Meridian\",9.0],PARAMETER[\"Scale_Factor\",0.9996],PARAMETER[\"Latitude_Of_Origin\",0.0],UNIT[\"Meter\",1.0]]",
        "sourceControlPointMaxResidualMeters": 0.36929432340403623,
        "sourceControlPointsLatLon": [
          [
            35.61484,
            10.93111
          ],
          [
            35.64368,
            10.9318
          ],
          [
            35.64285,
            10.98237
          ],
          [
            35.61402,
            10.98165
          ]
        ],
        "sourceLocalControlPoints": [
          [
            0.0,
            1.0
          ],
          [
            0.0,
            0.0
          ],
          [
            1.0,
            0.0
          ],
          [
            1.0,
            1.0
          ]
        ],
        "sourceViewportBBox": [
          4.31908,
          590.46173,
          841.50095,
          5.38791
        ],
        "sourcePageTransformationMatrix": [
          1.0,
          0.0,
          0.0,
          -1.0,
          0.0,
          595.5023803710938
        ],
        "sourceAffineMetersFromPagePoints": [
          [
            5.471143510773823,
            -0.0004705467879232736
          ],
          [
            -0.00032319125693902606,
            -5.469225790588098
          ],
          [
            674875.7563726441,
            3946174.4364566123
          ]
        ],
        "sourceGeometry": "One original complete valid explicitly closed red vector ring; no repair, joining, rounding, snapping, buffering, clipping or simplification applied to export.",
        "sourcePagePaths": [
          {
            "drawingIndex": 247,
            "vertices": [
              [
                665.8583374023438,
                156.61978149414062
              ],
              [
                690.6930541992188,
                194.06451416015625
              ],
              [
                691.052978515625,
                194.424560546875
              ],
              [
                691.4129028320312,
                195.1446533203125
              ],
              [
                697.8914794921875,
                202.70559692382812
              ],
              [
                707.24951171875,
                213.86700439453125
              ],
              [
                713.00830078125,
                220.34780883789062
              ],
              [
                721.2865600585938,
                229.34893798828125
              ],
              [
                740.722412109375,
                252.03182983398438
              ],
              [
                750.4403076171875,
                262.47314453125
              ],
              [
                757.9987182617188,
                273.2745056152344
              ],
              [
                763.0376586914062,
                282.275634765625
              ],
              [
                764.117431640625,
                283.7158203125
              ],
              [
                770.5960693359375,
                294.8772277832031
              ],
              [
                776.3547973632812,
                303.87835693359375
              ],
              [
                786.07275390625,
                337.3625793457031
              ],
              [
                789.3120727539062,
                344.20343017578125
              ],
              [
                779.5941162109375,
                352.12445068359375
              ],
              [
                769.1563110351562,
                340.6029968261719
              ],
              [
                764.117431640625,
                342.4031982421875
              ],
              [
                756.9189453125,
                347.44384765625
              ],
              [
                752.2399291992188,
                349.96417236328125
              ],
              [
                742.8819580078125,
                366.16619873046875
              ],
              [
                741.4422607421875,
                370.48675537109375
              ],
              [
                741.0823364257812,
                374.08721923828125
              ],
              [
                742.8819580078125,
                377.68768310546875
              ],
              [
                743.601806640625,
                381.28814697265625
              ],
              [
                742.5220336914062,
                383.8084411621094
              ],
              [
                741.0823364257812,
                385.9687194824219
              ],
              [
                738.9227905273438,
                388.84906005859375
              ],
              [
                737.1231689453125,
                392.0894775390625
              ],
              [
                736.4033203125,
                395.68994140625
              ],
              [
                731.7243041992188,
                407.2113952636719
              ],
              [
                740.0025634765625,
                414.41229248046875
              ],
              [
                737.1231689453125,
                420.89312744140625
              ],
              [
                722.0064086914062,
                452.2170715332031
              ],
              [
                714.8079223632812,
                471.6595458984375
              ],
              [
                710.4888305664062,
                470.2193603515625
              ],
              [
                702.2105712890625,
                479.5805358886719
              ],
              [
                656.8602294921875,
                532.5072021484375
              ],
              [
                629.1461181640625,
                533.227294921875
              ],
              [
                608.2705688476562,
                545.4688720703125
              ],
              [
                554.6419677734375,
                536.107666015625
              ],
              [
                486.25653076171875,
                535.3875732421875
              ],
              [
                442.705810546875,
                541.1483154296875
              ],
              [
                411.03253173828125,
                563.4711303710938
              ],
              [
                359.2035827636719,
                553.3898315429688
              ],
              [
                315.29290771484375,
                519.185546875
              ],
              [
                271.7421875,
                469.13922119140625
              ],
              [
                198.3177947998047,
                433.8547668457031
              ],
              [
                170.60369873046875,
                423.05340576171875
              ],
              [
                118.77472686767578,
                403.6109619140625
              ],
              [
                92.86023712158203,
                365.0860595703125
              ],
              [
                62.626678466796875,
                367.9664306640625
              ],
              [
                60.82706069946289,
                349.6041259765625
              ],
              [
                60.82706069946289,
                347.08380126953125
              ],
              [
                56.50798034667969,
                304.95849609375
              ],
              [
                76.30377197265625,
                302.43817138671875
              ],
              [
                77.38353729248047,
                301.3580322265625
              ],
              [
                79.18315124511719,
                298.1176452636719
              ],
              [
                73.7843017578125,
                252.03182983398438
              ],
              [
                111.57626342773438,
                241.23043823242188
              ],
              [
                120.57434844970703,
                239.0701904296875
              ],
              [
                143.96937561035156,
                233.66949462890625
              ],
              [
                161.96554565429688,
                229.70901489257812
              ],
              [
                167.36439514160156,
                228.62884521484375
              ],
              [
                193.2788848876953,
                223.22817993164062
              ],
              [
                203.71665954589844,
                219.98776245117188
              ],
              [
                211.99488830566406,
                216.74737548828125
              ],
              [
                220.27313232421875,
                210.98663330078125
              ],
              [
                230.35098266601562,
                203.42568969726562
              ],
              [
                243.3082275390625,
                193.7044677734375
              ],
              [
                253.02615356445312,
                188.30377197265625
              ],
              [
                268.1429443359375,
                182.18301391601562
              ],
              [
                278.9406433105469,
                178.58255004882812
              ],
              [
                293.33758544921875,
                175.70217895507812
              ],
              [
                297.2967529296875,
                174.98208618164062
              ],
              [
                303.7753601074219,
                173.54190063476562
              ],
              [
                304.1352844238281,
                173.181884765625
              ],
              [
                309.8940734863281,
                172.10174560546875
              ],
              [
                339.7677001953125,
                166.7010498046875
              ],
              [
                353.4447937011719,
                164.18072509765625
              ],
              [
                356.6841125488281,
                162.74053955078125
              ],
              [
                359.9234313964844,
                161.30038452148438
              ],
              [
                370.00128173828125,
                156.25973510742188
              ],
              [
                374.6802673339844,
                154.09945678710938
              ],
              [
                380.7989807128906,
                150.85903930664062
              ],
              [
                391.95660400390625,
                144.73828125
              ],
              [
                405.9936218261719,
                137.17733764648438
              ],
              [
                415.35162353515625,
                131.41659545898438
              ],
              [
                429.0287170410156,
                122.7755126953125
              ],
              [
                441.9859619140625,
                115.57461547851562
              ],
              [
                455.6630554199219,
                108.01364135742188
              ],
              [
                467.18060302734375,
                101.5328369140625
              ],
              [
                468.62030029296875,
                100.45269775390625
              ],
              [
                468.980224609375,
                100.0926513671875
              ],
              [
                471.49969482421875,
                98.29241943359375
              ],
              [
                473.2992858886719,
                96.85223388671875
              ],
              [
                480.1378479003906,
                89.29129028320312
              ],
              [
                484.4569091796875,
                85.33078002929688
              ],
              [
                492.01531982421875,
                79.93011474609375
              ],
              [
                502.4530944824219,
                74.5294189453125
              ],
              [
                512.5309448242188,
                69.12872314453125
              ],
              [
                517.5698852539062,
                66.24835205078125
              ],
              [
                534.84619140625,
                56.1671142578125
              ],
              [
                537.3656616210938,
                54.7269287109375
              ],
              [
                541.6847534179688,
                52.20660400390625
              ],
              [
                553.2022705078125,
                45.72576904296875
              ],
              [
                568.6790161132812,
                31.68402099609375
              ],
              [
                574.4378051757812,
                39.965087890625
              ],
              [
                575.517578125,
                41.76531982421875
              ],
              [
                578.0369873046875,
                45.00567626953125
              ],
              [
                584.515625,
                52.566650390625
              ],
              [
                589.9144897460938,
                57.6072998046875
              ],
              [
                597.8328247070312,
                64.4481201171875
              ],
              [
                607.5507202148438,
                73.44927978515625
              ],
              [
                614.7492065429688,
                80.2901611328125
              ],
              [
                618.7083740234375,
                84.97073364257812
              ],
              [
                626.6266479492188,
                94.3319091796875
              ],
              [
                626.986572265625,
                94.69195556640625
              ],
              [
                630.9457397460938,
                100.0926513671875
              ],
              [
                634.18505859375,
                104.41317749023438
              ],
              [
                638.8640747070312,
                110.89401245117188
              ],
              [
                665.8583374023438,
                156.61978149414062
              ]
            ],
            "explicitlyClosed": true,
            "originalValid": true,
            "originalAreaPagePoints2": 229715.43141996383
          }
        ],
        "geometryHash": "45fb1abc8304dbbe6ad33ad88907da12e55b05314ff784362ab3095044fa3d2a",
        "joiningReview": {
          "joined": false
        },
        "repair": null,
        "clipReview": {
          "activeClipCount": 2,
          "outsideActiveClipsAreaPoints2": [
            0.0,
            0.0
          ],
          "outsideViewportAreaPoints2": 0.0,
          "distanceFromViewportPoints": 26.643310546875004
        },
        "manualIdentityQualification": "The page title explicitly qualifies Ayaicha by Teboulba, and the same parent-qualified interior label lies in the complete target ring. North borders Boudriss/Sokrine, east borders Fadhalin and Bekalta North2, west borders Moknine, and south follows the lagoon. A neighboring Moknine label displaced into the target is not used to identify it.",
        "labelCenterContainmentPassed": true,
        "insideTargetLabels": [
          {
            "text": "( )طﺑﻠﺑﺔ- اﻟﻌﯾﺎﯾﺷﺔ",
            "normalizedForward": "طبلبةالعيايشة",
            "normalizedReverse": "ةشيايعلاةبلبط",
            "colors": [
              15073280
            ],
            "bounds": [
              330.7696228027344,
              294.83245849609375,
              516.90478515625,
              348.11700439453125
            ],
            "point": [
              423.8372039794922,
              321.4747314453125
            ]
          }
        ],
        "visualReview": {
          "file": "work/isie-sector-maps-ayaicha/ayaicha.png",
          "completeTargetReviewed": true
        },
        "sourceAssertion": {
          "id": "osm:relation:7111784",
          "expectedKind": "sector",
          "expectedTags": {
            "admin_level": "6",
            "boundary": "administrative",
            "name": "العيايشة",
            "name:ar": "العيايشة",
            "name:fr": "El Aïaïcha",
            "ref:tn:codegeo": "326053"
          }
        },
        "currentOfficialIdentity": {
          "governorateCode": "32",
          "governorateFr": "Monastir",
          "governorateAr": "المنستير",
          "delegationCode": "3260",
          "delegationFr": "Teboulba",
          "delegationAr": "طبلبة",
          "sectorCode": "326053",
          "sectorFr": "El aiaicha",
          "sectorAr": "العيايشة",
          "sourceRows": {
            "Population_Secteur_Age_Sexe_Dynamique.xlsx": 38113,
            "Nombre_de_Logements_par_Secteurs.xlsx": 1811,
            "Nombre_de_menages_par_Secteurs.xlsx": 1808
          }
        },
        "officialRegistrySha256": "23b3ee87c07971eb48b456799833f1996ade5d0bdc10d7bf6b0e3bf6798c9eec",
        "scopeReview": {
          "classification": "WHOLE_CIRCLE_EQUALS_WHOLE_IMADA",
          "wholeCircleEqualsWholeImada": true,
          "decreeAnnex": 1,
          "decreeTable": "A",
          "decreePDFPage": 18,
          "decreeJORTPage": 5115,
          "sourceDecreeSha256": "bfb3fe752b9900eaf873198b009968243f1b0bd2c119836cfd4fbbfc07e1e10f",
          "sourceDecreeURL": "https://www.isie.tn/wp-content/uploads/2023/09/Decret2023_590Arabe.pdf",
          "imadaNameAr": "العيايشة",
          "circleNameAr": "العيايشة"
        },
        "validation": {
          "valid": true,
          "countryFullyContains": true,
          "countryOutsideAreaMeters2": 0.0,
          "sourceUnchanged": true,
          "quantizedValid": true,
          "quantizedCountryFullyContains": true,
          "quantizedSymmetricDifferenceMeters2": 245.80541507269223,
          "quantizedHausdorffMeters": 0.05967280812516145,
          "quantizationGridDegrees": 1e-06
        },
        "osmComparison": {
          "oldAreaMeters2": 7014818.800798894,
          "officialAreaMeters2": 6873756.3267296925,
          "iou": 0.9527643998673794,
          "officialCoveredByOsm": 0.9858236490125872,
          "osmCoveredByOfficial": 0.9659995128695688,
          "hausdorffMeters": 269.0231338676613
        }
      },
      "geometry": {
        "type": "Polygon",
        "coordinates": [
          [
            [
              10.971574639923283,
              35.63555681472123
            ],
            [
              10.973028942967325,
              35.6336867224254
            ],
            [
              10.973050241321896,
              35.63366862027701
            ],
            [
              10.973071102130929,
              35.63363277364756
            ],
            [
              10.973453154127128,
              35.63325370245698
            ],
            [
              10.974004714174955,
              35.63269432280224
            ],
            [
              10.974344603440214,
              35.63236919801562
            ],
            [
              10.974833572606878,
              35.63191735532679
            ],
            [
              10.97597967601731,
              35.63078011976513
            ],
            [
              10.976553809434622,
              35.630255860114836
            ],
            [
              10.97699709214735,
              35.62971600359078
            ],
            [
              10.977290418712963,
              35.62926737669141
            ],
            [
              10.977353868967887,
              35.62919532369663
            ],
            [
              10.977731498766415,
              35.62863879549441
            ],
            [
              10.978068282471314,
              35.62818944999543
            ],
            [
              10.97861431364492,
              35.6265295401664
            ],
            [
              10.978801583517047,
              35.62618916966603
            ],
            [
              10.978205123211714,
              35.62580847387916
            ],
            [
              10.977588875279539,
              35.62638669067944
            ],
            [
              10.977282413306824,
              35.62630298746834
            ],
            [
              10.976841601089152,
              35.6260617317075
            ],
            [
              10.976555994727807,
              35.625942177919114
            ],
            [
              10.975971208814448,
              35.625152992578734
            ],
            [
              10.97587901843343,
              35.624941491378124
            ],
            [
              10.975852904853381,
              35.624764404747296
            ],
            [
              10.975957191722179,
              35.62458516946104
            ],
            [
              10.975996278133843,
              35.62440700848437
            ],
            [
              10.975928012034913,
              35.62428387302275
            ],
            [
              10.975838450839314,
              35.62417883858055
            ],
            [
              10.975704547492217,
              35.62403903275672
            ],
            [
              10.975591939846884,
              35.62388112273768
            ],
            [
              10.975544094203283,
              35.6237043940223
            ],
            [
              10.975247551903134,
              35.62314122617218
            ],
            [
              10.975738651825292,
              35.6227781035338
            ],
            [
              10.975556906265018,
              35.62246156721632
            ],
            [
              10.97460605267848,
              35.62093283422974
            ],
            [
              10.974147775869653,
              35.619981788559926
            ],
            [
              10.973888739877196,
              35.62005705934427
            ],
            [
              10.973377527562482,
              35.619603929672124
            ],
            [
              10.97057508952987,
              35.61704051617066
            ],
            [
              10.968900900504185,
              35.617032510733885
            ],
            [
              10.9676256542313,
              35.616449881462245
            ],
            [
              10.964399013763238,
              35.61696432331226
            ],
            [
              10.960270906728756,
              35.61706737572836
            ],
            [
              10.957634451295153,
              35.6168264140456
            ],
            [
              10.95569520717721,
              35.61575744730368
            ],
            [
              10.952578027157003,
              35.616305291373116
            ],
            [
              10.949967848397135,
              35.61803417681846
            ],
            [
              10.947398282988564,
              35.62054342660065
            ],
            [
              10.943007029801079,
              35.62235433227312
            ],
            [
              10.941346486513352,
              35.62291378047879
            ],
            [
              10.938240085571415,
              35.62392262807454
            ],
            [
              10.936721203470801,
              35.62584661226267
            ],
            [
              10.934892099537501,
              35.625734127419165
            ],
            [
              10.934805305429927,
              35.62664086814405
            ],
            [
              10.934808308216116,
              35.626765082471486
            ],
            [
              10.93459768002297,
              35.6288454383943
            ],
            [
              10.935796110409125,
              35.628950358579665
            ],
            [
              10.935862602927976,
              35.62900254049606
            ],
            [
              10.935975141317844,
              35.629160488297096
            ],
            [
              10.935704054855524,
              35.631437091168266
            ],
            [
              10.937999194923494,
              35.63193256925349
            ],
            [
              10.938545169346375,
              35.632030252309
            ],
            [
              10.939964450892353,
              35.63227357346603
            ],
            [
              10.941055979175836,
              35.632451175605894
            ],
            [
              10.941383309316704,
              35.63249913279864
            ],
            [
              10.942954757918038,
              35.6327399529018
            ],
            [
              10.943588979614228,
              35.63288943963084
            ],
            [
              10.944092786965813,
              35.633041036159824
            ],
            [
              10.944599615750445,
              35.63331684547601
            ],
            [
              10.945217285023666,
              35.63367961171867
            ],
            [
              10.946011439870883,
              35.63414602093399
            ],
            [
              10.946604795132346,
              35.63440266535605
            ],
            [
              10.947525065126237,
              35.63468949902725
            ],
            [
              10.948181478359325,
              35.63485635242075
            ],
            [
              10.949054395293013,
              35.6349841793375
            ],
            [
              10.94929436193284,
              35.635015781660385
            ],
            [
              10.949687347599076,
              35.6350803987898
            ],
            [
              10.949709516526344,
              35.63509778853687
            ],
            [
              10.950058599065212,
              35.635145366619994
            ],
            [
              10.951869221608565,
              35.63538218016016
            ],
            [
              10.952698242556371,
              35.6354929433067
            ],
            [
              10.952895604737973,
              35.635560735753934
            ],
            [
              10.95309296720379,
              35.63562852636223
            ],
            [
              10.953707658096425,
              35.63586703587613
            ],
            [
              10.95399283383429,
              35.63596889900578
            ],
            [
              10.95436625954113,
              35.636122578159934
            ],
            [
              10.955047469055287,
              35.63641325007099
            ],
            [
              10.955904313961877,
              35.6367720598541
            ],
            [
              10.956476415293752,
              35.637046753143125
            ],
            [
              10.95731283825109,
              35.637459141071076
            ],
            [
              10.958104058023444,
              35.63780125441923
            ],
            [
              10.958939193443813,
              35.63816039813164
            ],
            [
              10.95964260795109,
              35.63846843230857
            ],
            [
              10.959730861368477,
              35.63852024491696
            ],
            [
              10.95975303340803,
              35.638537634209634
            ],
            [
              10.959907368540836,
              35.63862386992749
            ],
            [
              10.96001779259192,
              35.63869307160006
            ],
            [
              10.960439934684379,
              35.639058954011546
            ],
            [
              10.960705566680602,
              35.639249878967526
            ],
            [
              10.961168580141376,
              35.63950858006692
            ],
            [
              10.961805496183807,
              35.63976443537372
            ],
            [
              10.962420678427451,
              35.64002064298157
            ],
            [
              10.96272848958011,
              35.64015761782497
            ],
            [
              10.963784095036246,
              35.64063737640567
            ],
            [
              10.963938002774068,
              35.64070586210561
            ],
            [
              10.964201907447997,
              35.640825800619446
            ],
            [
              10.964905362757003,
              35.64113380405883
            ],
            [
              10.965857103275173,
              35.64181051468798
            ],
            [
              10.96619488278471,
              35.64139668694213
            ],
            [
              10.966257916205821,
              35.6413068947808
            ],
            [
              10.966406153193129,
              35.64114470142841
            ],
            [
              10.9667882754303,
              35.64076564812756
            ],
            [
              10.967108235035937,
              35.64051187534492
            ],
            [
              10.967578174718252,
              35.64016688509132
            ],
            [
              10.968154175355966,
              35.63971363893051
            ],
            [
              10.968580630790509,
              35.63936935567245
            ],
            [
              10.968814066212094,
              35.639134752289976
            ],
            [
              10.969280929268896,
              35.638665542828264
            ],
            [
              10.969302229769205,
              35.63864744128794
            ],
            [
              10.969534787314846,
              35.638377346107134
            ],
            [
              10.96972517970489,
              35.638161199748644
            ],
            [
              10.969999897810661,
              35.63783715601737
            ],
            [
              10.971574639923283,
              35.63555681472123
            ]
          ]
        ]
      }
    }
  ]
}
