{
  "type": "FeatureCollection",
  "sourceId": "isie-local-sectors-2023-bekalta-south-east-review",
  "status": "REVIEWED_SOURCE_GEOMETRIES_PENDING_CLUSTER_ACCEPTANCE",
  "reviewedDate": "2026-09-07",
  "sourceSnapshotSha256": "346a79dca9013b427cf7ce4e11fb31ca03fa575ee7a68c865701c463c504a1ce",
  "features": [
    {
      "type": "Feature",
      "id": "osm:relation:7111931",
      "properties": {
        "officialCode": "325952",
        "nameAr": "البقالطة الجنوبية",
        "nameFr": "Bekalta Sud",
        "governorateCode": "32",
        "governorateAr": "المنستير",
        "governorateFr": "Monastir",
        "delegationCode": "3259",
        "parentAr": "البقالطة",
        "parentFr": "Bekalta",
        "sourceId": "isie-local-sectors-2023-bekalta-south-east-review",
        "sourcePdfURL": "https://www.isie.tn/wp-content/uploads/2023/CartesCirconscriptionsElectoralesLocales2023/%D8%A7%D9%84%D9%85%D9%86%D8%B3%D8%AA%D9%8A%D8%B1/%D8%A7%D9%84%D8%A8%D9%82%D8%A7%D9%84%D8%B7%D8%A9/%D8%A7%D9%84%D8%A8%D9%82%D8%A7%D9%84%D8%B7%D8%A9%20%D8%A7%D9%84%D8%AC%D9%86%D9%88%D8%A8%D9%8A%D8%A9.pdf",
        "sourcePdfSha256": "3fdddc32c5c2ad1de5b626dd9a5d0d0f1669c5b51ccab941071162a275b5667a",
        "sourcePdfFile": "work/isie-sector-maps-bekalta-south/bekalta-south.pdf",
        "sourcePdfCreated": "D:20231017051329+01",
        "reviewedDate": "2026-09-07",
        "sourceMapTitleAr": "البقالطة الجنوبية",
        "targetIsPageTitle": true,
        "sourceDrawingIndices": [
          248
        ],
        "sourceVectorLayer": "circonscription_isie2023",
        "sourceCrsEpsg": 32632,
        "sourceCrsWkt": "PROJCS[\"WGS_1984_UTM_Zone_32N\",GEOGCS[\"GCS_WGS_1984\",DATUM[\"D_WGS_1984\",SPHEROID[\"WGS_1984\",6378137.0,298.257223563]],PRIMEM[\"Greenwich\",0.0],UNIT[\"Degree\",0.0174532925199433]],PROJECTION[\"Transverse_Mercator\"],PARAMETER[\"False_Easting\",500000.0],PARAMETER[\"False_Northing\",0.0],PARAMETER[\"Central_Meridian\",9.0],PARAMETER[\"Scale_Factor\",0.9996],PARAMETER[\"Latitude_Of_Origin\",0.0],UNIT[\"Meter\",1.0]]",
        "sourceControlPointMaxResidualMeters": 0.21987705408440317,
        "sourceControlPointsLatLon": [
          [
            35.57215,
            10.95459
          ],
          [
            35.62175,
            10.9558
          ],
          [
            35.6203,
            11.04274
          ],
          [
            35.57071,
            11.04148
          ]
        ],
        "sourceLocalControlPoints": [
          [
            0.0,
            1.0
          ],
          [
            0.0,
            0.0
          ],
          [
            1.0,
            0.0
          ],
          [
            1.0,
            1.0
          ]
        ],
        "sourceViewportBBox": [
          4.31908,
          590.46173,
          841.50095,
          5.38791
        ],
        "sourcePageTransformationMatrix": [
          1.0,
          0.0,
          0.0,
          -1.0,
          0.0,
          595.5023803710938
        ],
        "sourceAffineMetersFromPagePoints": [
          [
            9.410130473078414,
            -0.00040079479813393416
          ],
          [
            -0.0002458157559885876,
            -9.40702330644126
          ],
          [
            677079.9459657274,
            3943804.639038309
          ]
        ],
        "sourceGeometry": "One original complete valid explicitly closed red vector ring; no repair, joining, rounding, snapping, buffering, clipping or simplification applied to export.",
        "sourcePagePaths": [
          {
            "drawingIndex": 248,
            "vertices": [
              [
                502.4530944824219,
                63.36798095703125
              ],
              [
                507.4920349121094,
                63.72808837890625
              ],
              [
                515.770263671875,
                62.64794921875
              ],
              [
                516.4901123046875,
                62.64794921875
              ],
              [
                522.2489013671875,
                62.28790283203125
              ],
              [
                524.768310546875,
                61.9278564453125
              ],
              [
                526.9278564453125,
                61.9278564453125
              ],
              [
                528.0076293945312,
                61.9278564453125
              ],
              [
                528.7274780273438,
                61.56781005859375
              ],
              [
                539.165283203125,
                66.24835205078125
              ],
              [
                545.6439208984375,
                68.40863037109375
              ],
              [
                548.1633911132812,
                69.12872314453125
              ],
              [
                553.5621948242188,
                70.928955078125
              ],
              [
                556.801513671875,
                72.00909423828125
              ],
              [
                555.0018920898438,
                78.8499755859375
              ],
              [
                552.1224975585938,
                84.97073364257812
              ],
              [
                547.803466796875,
                90.37142944335938
              ],
              [
                551.4027099609375,
                91.45156860351562
              ],
              [
                551.4027099609375,
                92.17166137695312
              ],
              [
                551.7625732421875,
                109.45382690429688
              ],
              [
                551.7625732421875,
                110.53396606445312
              ],
              [
                551.7625732421875,
                120.25518798828125
              ],
              [
                552.482421875,
                146.178466796875
              ],
              [
                539.5252075195312,
                145.09832763671875
              ],
              [
                506.77215576171875,
                142.5780029296875
              ],
              [
                506.77215576171875,
                170.301513671875
              ],
              [
                485.1767578125,
                172.82180786132812
              ],
              [
                485.8966064453125,
                174.98208618164062
              ],
              [
                486.616455078125,
                175.70217895507812
              ],
              [
                486.616455078125,
                176.06222534179688
              ],
              [
                489.85577392578125,
                177.14236450195312
              ],
              [
                492.01531982421875,
                177.14236450195312
              ],
              [
                494.89471435546875,
                177.14236450195312
              ],
              [
                497.4141540527344,
                177.14236450195312
              ],
              [
                499.5736999511719,
                177.50241088867188
              ],
              [
                502.8130187988281,
                177.86245727539062
              ],
              [
                504.2527160644531,
                179.66268920898438
              ],
              [
                505.6924133300781,
                181.10287475585938
              ],
              [
                507.4920349121094,
                181.82296752929688
              ],
              [
                510.7313232421875,
                183.26315307617188
              ],
              [
                518.649658203125,
                187.9437255859375
              ],
              [
                521.529052734375,
                189.3839111328125
              ],
              [
                525.4882202148438,
                191.544189453125
              ],
              [
                527.647705078125,
                192.2642822265625
              ],
              [
                537.3656616210938,
                198.02499389648438
              ],
              [
                542.4046020507812,
                202.70559692382812
              ],
              [
                547.4435424804688,
                205.94601440429688
              ],
              [
                550.6828002929688,
                207.7462158203125
              ],
              [
                557.5213623046875,
                213.14691162109375
              ],
              [
                560.7606811523438,
                216.3873291015625
              ],
              [
                564.7198486328125,
                219.26766967773438
              ],
              [
                569.0389404296875,
                222.14804077148438
              ],
              [
                571.5584106445312,
                224.66836547851562
              ],
              [
                574.4378051757812,
                226.10855102539062
              ],
              [
                577.317138671875,
                228.62884521484375
              ],
              [
                583.7957763671875,
                233.3094482421875
              ],
              [
                592.4339599609375,
                240.87042236328125
              ],
              [
                595.3133544921875,
                243.75076293945312
              ],
              [
                597.1129760742188,
                246.27108764648438
              ],
              [
                598.1927490234375,
                247.35122680664062
              ],
              [
                608.6304931640625,
                255.272216796875
              ],
              [
                606.8308715820312,
                255.9923095703125
              ],
              [
                599.2724609375,
                258.152587890625
              ],
              [
                584.1557006835938,
                262.83319091796875
              ],
              [
                571.9183349609375,
                266.7936706542969
              ],
              [
                564.7198486328125,
                269.3139953613281
              ],
              [
                546.36376953125,
                273.9945983886719
              ],
              [
                535.5660400390625,
                278.6751708984375
              ],
              [
                513.9706420898438,
                289.8365783691406
              ],
              [
                524.0485229492188,
                306.398681640625
              ],
              [
                534.4862670898438,
                326.201171875
              ],
              [
                552.1224975585938,
                370.126708984375
              ],
              [
                561.4805297851562,
                397.130126953125
              ],
              [
                570.8385620117188,
                428.0940246582031
              ],
              [
                571.9183349609375,
                432.0545349121094
              ],
              [
                575.517578125,
                443.93603515625
              ],
              [
                576.2373657226562,
                446.0963134765625
              ],
              [
                556.0816650390625,
                451.4969787597656
              ],
              [
                554.2820434570312,
                452.5771179199219
              ],
              [
                553.5621948242188,
                453.2972106933594
              ],
              [
                553.5621948242188,
                454.3773498535156
              ],
              [
                555.36181640625,
                461.5782470703125
              ],
              [
                557.8812866210938,
                471.6595458984375
              ],
              [
                555.36181640625,
                472.379638671875
              ],
              [
                549.2431640625,
                474.1798400878906
              ],
              [
                539.5252075195312,
                476.3401184082031
              ],
              [
                536.285888671875,
                477.0602111816406
              ],
              [
                535.2061157226562,
                477.7803039550781
              ],
              [
                534.84619140625,
                478.8604431152344
              ],
              [
                537.7255859375,
                491.10198974609375
              ],
              [
                551.7625732421875,
                546.1889038085938
              ],
              [
                532.3267211914062,
                551.2295532226562
              ],
              [
                513.6107177734375,
                556.2702026367188
              ],
              [
                513.2507934570312,
                556.2702026367188
              ],
              [
                485.1767578125,
                563.4711303710938
              ],
              [
                472.2195129394531,
                515.2250366210938
              ],
              [
                472.2195129394531,
                514.5049438476562
              ],
              [
                459.98211669921875,
                517.3853149414062
              ],
              [
                446.3050537109375,
                520.9857177734375
              ],
              [
                436.2271728515625,
                523.506103515625
              ],
              [
                433.7077331542969,
                523.506103515625
              ],
              [
                425.7893981933594,
                526.0263671875
              ],
              [
                423.6298522949219,
                526.3864135742188
              ],
              [
                421.83026123046875,
                526.0263671875
              ],
              [
                414.99169921875,
                527.8265991210938
              ],
              [
                410.672607421875,
                528.5466918945312
              ],
              [
                408.5130920410156,
                520.2656860351562
              ],
              [
                399.1550598144531,
                523.8660888671875
              ],
              [
                398.0752868652344,
                524.9462280273438
              ],
              [
                395.915771484375,
                526.3864135742188
              ],
              [
                393.036376953125,
                527.1065063476562
              ],
              [
                390.8768310546875,
                527.466552734375
              ],
              [
                387.277587890625,
                529.2667846679688
              ],
              [
                379.3592834472656,
                532.5072021484375
              ],
              [
                376.4798889160156,
                533.9473876953125
              ],
              [
                371.0810546875,
                537.9078979492188
              ],
              [
                368.9215087890625,
                540.0681762695312
              ],
              [
                368.20166015625,
                540.0681762695312
              ],
              [
                361.7230529785156,
                538.6279907226562
              ],
              [
                358.1238098144531,
                538.988037109375
              ],
              [
                356.3241882324219,
                540.0681762695312
              ],
              [
                354.8844909667969,
                541.1483154296875
              ],
              [
                347.68603515625,
                540.42822265625
              ],
              [
                347.32611083984375,
                539.3480834960938
              ],
              [
                344.806640625,
                539.3480834960938
              ],
              [
                340.84747314453125,
                540.7882690429688
              ],
              [
                343.366943359375,
                532.8672485351562
              ],
              [
                346.9661865234375,
                521.705810546875
              ],
              [
                340.487548828125,
                511.984619140625
              ],
              [
                334.7287902832031,
                500.4631652832031
              ],
              [
                327.1703796386719,
                489.66180419921875
              ],
              [
                324.6509094238281,
                474.1798400878906
              ],
              [
                327.5303039550781,
                454.3773498535156
              ],
              [
                327.1703796386719,
                441.0556640625
              ],
              [
                320.33184814453125,
                430.9743957519531
              ],
              [
                308.8143005371094,
                422.33331298828125
              ],
              [
                303.4154357910156,
                410.0917663574219
              ],
              [
                281.1001892089844,
                376.96759033203125
              ],
              [
                246.54754638671875,
                287.6763000488281
              ],
              [
                254.4658660888672,
                275.07470703125
              ],
              [
                251.22654724121094,
                257.79254150390625
              ],
              [
                237.1895294189453,
                187.58367919921875
              ],
              [
                260.5845642089844,
                176.42227172851562
              ],
              [
                260.9444885253906,
                164.540771484375
              ],
              [
                265.62347412109375,
                155.17959594726562
              ],
              [
                263.46392822265625,
                146.8985595703125
              ],
              [
                263.1040344238281,
                119.8951416015625
              ],
              [
                271.7421875,
                90.01138305664062
              ],
              [
                282.1799621582031,
                83.89059448242188
              ],
              [
                287.57879638671875,
                81.01025390625
              ],
              [
                312.7734375,
                68.7686767578125
              ],
              [
                319.61199951171875,
                64.80816650390625
              ],
              [
                322.49139404296875,
                63.72808837890625
              ],
              [
                323.21124267578125,
                63.36798095703125
              ],
              [
                332.2093200683594,
                59.40753173828125
              ],
              [
                331.1295471191406,
                58.68743896484375
              ],
              [
                328.2501525878906,
                55.447021484375
              ],
              [
                328.6100769042969,
                55.447021484375
              ],
              [
                331.1295471191406,
                54.0068359375
              ],
              [
                346.9661865234375,
                45.36572265625
              ],
              [
                355.9642639160156,
                40.6851806640625
              ],
              [
                362.44287109375,
                37.084716796875
              ],
              [
                365.322265625,
                35.64453125
              ],
              [
                372.1607971191406,
                32.0440673828125
              ],
              [
                375.0401916503906,
                31.68402099609375
              ],
              [
                381.5188293457031,
                32.0440673828125
              ],
              [
                389.07720947265625,
                33.84429931640625
              ],
              [
                393.036376953125,
                34.56439208984375
              ],
              [
                400.9546813964844,
                36.00457763671875
              ],
              [
                402.3943786621094,
                36.3646240234375
              ],
              [
                410.672607421875,
                38.16485595703125
              ],
              [
                419.67071533203125,
                39.965087890625
              ],
              [
                421.83026123046875,
                40.32513427734375
              ],
              [
                423.9897766113281,
                41.04522705078125
              ],
              [
                426.8691711425781,
                41.76531982421875
              ],
              [
                429.3886413574219,
                42.4853515625
              ],
              [
                435.5073547363281,
                44.28558349609375
              ],
              [
                436.58709716796875,
                44.28558349609375
              ],
              [
                438.74664306640625,
                45.00567626953125
              ],
              [
                449.1844177246094,
                47.88604736328125
              ],
              [
                452.7836608886719,
                48.9661865234375
              ],
              [
                453.8634338378906,
                49.32623291015625
              ],
              [
                454.9432067871094,
                49.686279296875
              ],
              [
                461.78173828125,
                51.48651123046875
              ],
              [
                462.14166259765625,
                51.48651123046875
              ],
              [
                474.3790588378906,
                55.08697509765625
              ],
              [
                483.37713623046875,
                58.68743896484375
              ],
              [
                483.737060546875,
                58.68743896484375
              ],
              [
                488.7760009765625,
                60.12762451171875
              ],
              [
                491.6553955078125,
                60.84771728515625
              ],
              [
                502.4530944824219,
                63.36798095703125
              ]
            ],
            "explicitlyClosed": true,
            "originalValid": true,
            "originalAreaPagePoints2": 129663.2269156659
          }
        ],
        "geometryHash": "6a739bf408f25fad5d65e42ec36ce92b4f4f751610f835d5753273ae986f2c43",
        "joiningReview": {
          "joined": false
        },
        "repair": null,
        "clipReview": {
          "activeClipCount": 2,
          "outsideActiveClipsAreaPoints2": [
            0.0,
            0.0
          ],
          "outsideViewportAreaPoints2": 0.0,
          "distanceFromViewportPoints": 26.643310546875004
        },
        "manualIdentityQualification": "The page title and interior South label uniquely identify the complete target ring. Its northern urban boundary meets North1 and North2, its western side follows the blue Moknine lagoon boundary, its eastern red divider separates East, and its complete southern red boundary separates Baghdadi. No adjacent named target is included.",
        "labelCenterContainmentPassed": true,
        "insideTargetLabels": [
          {
            "text": "اﻟﺑﻘﺎﻟطﺔ اﻟﺟﻧوﺑﯾﺔ",
            "normalizedForward": "البقالطةالجنوبية",
            "normalizedReverse": "ةيبونجلاةطلاقبلا",
            "colors": [
              15073280
            ],
            "bounds": [
              320.1518859863281,
              231.10438537597656,
              492.2451477050781,
              284.3889465332031
            ],
            "point": [
              406.1985168457031,
              257.74666595458984
            ]
          }
        ],
        "visualReview": {
          "file": "work/isie-sector-maps-bekalta-south/bekalta-south.png",
          "completeTargetReviewed": true
        },
        "sourceAssertion": {
          "id": "osm:relation:7111931",
          "expectedKind": "sector",
          "expectedTags": {
            "admin_level": "6",
            "boundary": "administrative",
            "name": "البقالطة الجنوبية",
            "name:ar": "البقالطة الجنوبية",
            "name:fr": "Beklta Sud",
            "ref:tn:codegeo": "325952"
          }
        },
        "currentOfficialIdentity": {
          "governorateCode": "32",
          "governorateFr": "Monastir",
          "governorateAr": "المنستير",
          "delegationCode": "3259",
          "delegationFr": "Bekalta",
          "delegationAr": "البقالطة",
          "sectorCode": "325952",
          "sectorFr": "Bekalta Sud",
          "sectorAr": "البقالطة الجنوبية",
          "sourceRows": {
            "Population_Secteur_Age_Sexe_Dynamique.xlsx": 37943,
            "Nombre_de_Logements_par_Secteurs.xlsx": 1803,
            "Nombre_de_menages_par_Secteurs.xlsx": 1800
          }
        },
        "officialRegistrySha256": "23b3ee87c07971eb48b456799833f1996ade5d0bdc10d7bf6b0e3bf6798c9eec",
        "scopeReview": {
          "classification": "WHOLE_CIRCLE_EQUALS_WHOLE_IMADA",
          "wholeCircleEqualsWholeImada": true,
          "decreeAnnex": 1,
          "decreeTable": "A",
          "decreePDFPage": 15,
          "decreeJORTPage": 5112,
          "sourceDecreeSha256": "bfb3fe752b9900eaf873198b009968243f1b0bd2c119836cfd4fbbfc07e1e10f",
          "sourceDecreeURL": "https://www.isie.tn/wp-content/uploads/2023/09/Decret2023_590Arabe.pdf",
          "imadaNameAr": "البقالطة الجنوبية",
          "circleNameAr": "البقالطة الجنوبية"
        },
        "validation": {
          "valid": true,
          "countryFullyContains": true,
          "countryOutsideAreaMeters2": 0.0,
          "sourceUnchanged": true,
          "quantizedValid": true,
          "quantizedCountryFullyContains": true,
          "quantizedSymmetricDifferenceMeters2": 348.00699722990487,
          "quantizedHausdorffMeters": 0.06710565999163749,
          "quantizationGridDegrees": 1e-06
        },
        "osmComparison": {
          "oldAreaMeters2": 11959668.61083538,
          "officialAreaMeters2": 11477959.583925148,
          "iou": 0.8744279788635506,
          "officialCoveredByOsm": 0.952586135663402,
          "osmCoveredByOfficial": 0.9142180708457144,
          "hausdorffMeters": 894.1802506428461
        }
      },
      "geometry": {
        "type": "Polygon",
        "coordinates": [
          [
            [
              11.007407572883263,
              35.615950940128634
            ],
            [
              11.007930069502436,
              35.615911674481566
            ],
            [
              11.008792001527626,
              35.6159888693776
            ],
            [
              11.008866753060007,
              35.61598761999149
            ],
            [
              11.009465529817833,
              35.6160081430231
            ],
            [
              11.009727918542103,
              35.61603428839405
            ],
            [
              11.00995217312324,
              35.616030538350664
            ],
            [
              11.01006430039829,
              35.61602866317259
            ],
            [
              11.01013981683106,
              35.61605793277171
            ],
            [
              11.011213764523728,
              35.61564304832167
            ],
            [
              11.011881930828885,
              35.61544867027701
            ],
            [
              11.012142027585465,
              35.615383251087856
            ],
            [
              11.012698822877711,
              35.61522126556099
            ],
            [
              11.01303290272438,
              35.61512407297842
            ],
            [
              11.012831474019514,
              35.61454732786025
            ],
            [
              11.012519455771036,
              35.61403350180082
            ],
            [
              11.012059480902971,
              35.613583214294714
            ],
            [
              11.012430929410655,
              35.613485397892184
            ],
            [
              11.012429397972333,
              35.613424358400394
            ],
            [
              11.012430012434686,
              35.61195878993079
            ],
            [
              11.012427715408958,
              35.61186723066956
            ],
            [
              11.012407042708189,
              35.61104319983678
            ],
            [
              11.012426664286041,
              35.60884453057629
            ],
            [
              11.011083560133146,
              35.6089586075833
            ],
            [
              11.007688015820992,
              35.60922909956094
            ],
            [
              11.007629206821072,
              35.606879075298934
            ],
            [
              11.005381577753147,
              35.606702868558614
            ],
            [
              11.005451743540874,
              35.60651850209957
            ],
            [
              11.005524960614983,
              35.60645621524962
            ],
            [
              11.005524197715788,
              35.60642569533868
            ],
            [
              11.005858251144621,
              35.60632852344069
            ],
            [
              11.00608247917271,
              35.60632478147679
            ],
            [
              11.006381449812597,
              35.606319791543115
            ],
            [
              11.006643045893606,
              35.60631542479606
            ],
            [
              11.00686651037227,
              35.60628116148649
            ],
            [
              11.007202088461266,
              35.6062450256961
            ],
            [
              11.007347755616475,
              35.60608993004701
            ],
            [
              11.007494185848264,
              35.60596535411282
            ],
            [
              11.007679514102144,
              35.605901193582845
            ],
            [
              11.008012795485117,
              35.6057734960386
            ],
            [
              11.008825024332337,
              35.6053630034418
            ],
            [
              11.009120933957538,
              35.6052359274225
            ],
            [
              11.009527425930829,
              35.60504593683282
            ],
            [
              11.009750114610153,
              35.60498114858554
            ],
            [
              11.010746883766952,
              35.60447595986578
            ],
            [
              11.011260123568919,
              35.60407044954771
            ],
            [
              11.011776418966367,
              35.60378701641589
            ],
            [
              11.012108916245255,
              35.60362879082707
            ],
            [
              11.012807461230523,
              35.6031591069418
            ],
            [
              11.013136897303713,
              35.60287879680502
            ],
            [
              11.013541835844169,
              35.60262775631564
            ],
            [
              11.013984141077506,
              35.60237608587017
            ],
            [
              11.014240363621882,
              35.602158064603
            ],
            [
              11.01453625246562,
              35.60203097587803
            ],
            [
              11.014829835162608,
              35.60181232986834
            ],
            [
              11.0154925124643,
              35.6014042971456
            ],
            [
              11.016373259783677,
              35.600748342446416
            ],
            [
              11.01666607211654,
              35.6004991723932
            ],
            [
              11.01684754480983,
              35.60028239969786
            ],
            [
              11.01695734843945,
              35.6001889596351
            ],
            [
              11.01802413622608,
              35.59949934157219
            ],
            [
              11.017835762022608,
              35.59944143847398
            ],
            [
              11.017046434168446,
              35.599271489495585
            ],
            [
              11.015467027645219,
              35.59890105580574
            ],
            [
              11.014188106971481,
              35.59858663471
            ],
            [
              11.013435395962905,
              35.598385515616606
            ],
            [
              11.011519715296462,
              35.59802066117152
            ],
            [
              11.010388755789124,
              35.59764265801059
            ],
            [
              11.00812305559943,
              35.59673401646506
            ],
            [
              11.00913418318392,
              35.59531262216284
            ],
            [
              11.01017575620288,
              35.59361591915048
            ],
            [
              11.011913328735545,
              35.58986187830796
            ],
            [
              11.012827391947807,
              35.58755663318203
            ],
            [
              11.013732986105552,
              35.58491566607537
            ],
            [
              11.013836649818616,
              35.58457807027545
            ],
            [
              11.014184996759946,
              35.58356465913362
            ],
            [
              11.014255118153601,
              35.583380288306955
            ],
            [
              11.012151464220592,
              35.58295752351402
            ],
            [
              11.01196236848147,
              35.582869089762575
            ],
            [
              11.01188611857926,
              35.582809300245515
            ],
            [
              11.011883824634555,
              35.58271774051007
            ],
            [
              11.012055331720548,
              35.58210421905788
            ],
            [
              11.012295437517121,
              35.58124528503822
            ],
            [
              11.012032391407837,
              35.58118862162289
            ],
            [
              11.011393463775581,
              35.58104665051786
            ],
            [
              11.010380173621694,
              35.58088040054137
            ],
            [
              11.010042411079475,
              35.58082498195666
            ],
            [
              11.009928805191501,
              35.58076581560306
            ],
            [
              11.009889154320236,
              35.580674880220805
            ],
            [
              11.010162055483217,
              35.579632207984424
            ],
            [
              11.011502094584268,
              35.57493830536907
            ],
            [
              11.009474152261989,
              35.574544753136635
            ],
            [
              11.007520940922577,
              35.57414991879822
            ],
            [
              11.007483584570059,
              35.57415054244875
            ],
            [
              11.00455455945503,
              35.57358874956592
            ],
            [
              11.003311737586218,
              35.577700844565314
            ],
            [
              11.003313260095512,
              35.5777618847612
            ],
            [
              11.002037000177646,
              35.57753887887537
            ],
            [
              11.000609797657152,
              35.57725731039097
            ],
            [
              10.999558455686868,
              35.57706106320394
            ],
            [
              10.999296953625311,
              35.577065411495866
            ],
            [
              10.99846976403148,
              35.576865437860064
            ],
            [
              10.998244857783682,
              35.57683864280827
            ],
            [
              10.998058831111011,
              35.57687226692221
            ],
            [
              10.997345237259124,
              35.57673145829905
            ],
            [
              10.996895426192609,
              35.57667786352112
            ],
            [
              10.996688733136725,
              35.57738354567713
            ],
            [
              10.99570983866599,
              35.577094473568316
            ],
            [
              10.995595489767435,
              35.57700477290121
            ],
            [
              10.995368312334676,
              35.57688641166135
            ],
            [
              10.995067932888915,
              35.576830330229946
            ],
            [
              10.994843027564725,
              35.5768035287859
            ],
            [
              10.994465659411686,
              35.57665712454106
            ],
            [
              10.99363697241564,
              35.57639607139007
            ],
            [
              10.993335080955998,
              35.57627894495562
            ],
            [
              10.992766389708807,
              35.57595250965485
            ],
            [
              10.992537701835985,
              35.575773102263305
            ],
            [
              10.99246298693778,
              35.575774340315164
            ],
            [
              10.99179358314375,
              35.57590756193617
            ],
            [
              10.991419251121576,
              35.575883229117856
            ],
            [
              10.991230193627846,
              35.57579476143776
            ],
            [
              10.991078493990965,
              35.575705674867734
            ],
            [
              10.990332860484202,
              35.575779084886975
            ],
            [
              10.990297771774523,
              35.575871264285965
            ],
            [
              10.990036268935096,
              35.57587559241617
            ],
            [
              10.989622311754813,
              35.57576031116773
            ],
            [
              10.9899004488792,
              35.57642743178663
            ],
            [
              10.990297471916191,
              35.57736737960149
            ],
            [
              10.98964543712625,
              35.57820255267785
            ],
            [
              10.989071889805956,
              35.57918909087091
            ],
            [
              10.988310016497497,
              35.58011767507114
            ],
            [
              10.988080988338947,
              35.581434372504674
            ],
            [
              10.988421434413706,
              35.58310804443075
            ],
            [
              10.988412036593123,
              35.58423791249686
            ],
            [
              10.987723326341111,
              35.58510421748178
            ],
            [
              10.986545870900882,
              35.58585646373482
            ],
            [
              10.986011104208545,
              35.5869034126087
            ],
            [
              10.983763995745825,
              35.589749525296185
            ],
            [
              10.98036377451812,
              35.59737771082886
            ],
            [
              10.98121223319496,
              35.59843237680856
            ],
            [
              10.980912079444296,
              35.5999028934375
            ],
            [
              10.97960151450614,
              35.60587836541168
            ],
            [
              10.98205404307731,
              35.60678446328941
            ],
            [
              10.982116298046522,
              35.607791015746734
            ],
            [
              10.982621748432285,
              35.60857652907504
            ],
            [
              10.982414857191822,
              35.609282192553444
            ],
            [
              10.982434054246168,
              35.61157182778987
            ],
            [
              10.983393670874019,
              35.61409020635735
            ],
            [
              10.984490392847812,
              35.614591159540716
            ],
            [
              10.98505706740253,
              35.61482606087097
            ],
            [
              10.987699078682567,
              35.61582050823221
            ],
            [
              10.98841754905378,
              35.6161444835551
            ],
            [
              10.988718829694447,
              35.616231091626
            ],
            [
              10.98879433931629,
              35.616260380032934
            ],
            [
              10.989737073406221,
              35.61658063093805
            ],
            [
              10.989626458256014,
              35.61664352753569
            ],
            [
              10.989334259477472,
              35.6169231585764
            ],
            [
              10.989371636123574,
              35.616922539910995
            ],
            [
              10.989636301247737,
              35.61704028954361
            ],
            [
              10.991299058684838,
              35.617745536061285
            ],
            [
              10.992243335907009,
              35.61812680659103
            ],
            [
              10.992923705505238,
              35.618420853187125
            ],
            [
              10.993225757818267,
              35.61853797476993
            ],
            [
              10.993943511734534,
              35.61883139545363
            ],
            [
              10.994243290095682,
              35.61885695419737
            ],
            [
              10.994915324518143,
              35.61881526846925
            ],
            [
              10.995696448942107,
              35.61864963700254
            ],
            [
              10.996106079902969,
              35.618581769001516
            ],
            [
              10.996925336382525,
              35.6184460289359
            ],
            [
              10.997074085077182,
              35.618413024686205
            ],
            [
              10.997929954626327,
              35.618246136804885
            ],
            [
              10.998860577442466,
              35.618077999656364
            ],
            [
              10.99908407844424,
              35.61804374968293
            ],
            [
              10.999306815205296,
              35.617978979384766
            ],
            [
              10.999604308506866,
              35.617912964935314
            ],
            [
              10.999864424578892,
              35.6178475768855
            ],
            [
              11.000496024100839,
              35.61768440249329
            ],
            [
              11.000608151165453,
              35.617682536093334
            ],
            [
              11.00083088874038,
              35.617617762991486
            ],
            [
              11.001908714920104,
              35.61735555393689
            ],
            [
              11.00228019455683,
              35.617257767939996
            ],
            [
              11.002391562060428,
              35.61722537993138
            ],
            [
              11.002502929469767,
              35.617192991822485
            ],
            [
              11.003209267458947,
              35.61702855805822
            ],
            [
              11.003246643837443,
              35.61702793508709
            ],
            [
              11.004509808781362,
              35.61670154845784
            ],
            [
              11.005436578677587,
              35.616380762180725
            ],
            [
              11.005473954703662,
              35.61638013852841
            ],
            [
              11.005994165527602,
              35.616249326771424
            ],
            [
              11.006291646182254,
              35.61618329616668
            ],
            [
              11.007407572883263,
              35.615950940128634
            ]
          ]
        ]
      }
    },
    {
      "type": "Feature",
      "id": "osm:relation:7111932",
      "properties": {
        "officialCode": "325954",
        "nameAr": "البقالطة الشرقية",
        "nameFr": "Bekalta est",
        "governorateCode": "32",
        "governorateAr": "المنستير",
        "governorateFr": "Monastir",
        "delegationCode": "3259",
        "parentAr": "البقالطة",
        "parentFr": "Bekalta",
        "sourceId": "isie-local-sectors-2023-bekalta-south-east-review",
        "sourcePdfURL": "https://www.isie.tn/wp-content/uploads/2023/CartesCirconscriptionsElectoralesLocales2023/%D8%A7%D9%84%D9%85%D9%86%D8%B3%D8%AA%D9%8A%D8%B1/%D8%A7%D9%84%D8%A8%D9%82%D8%A7%D9%84%D8%B7%D8%A9/%D8%A7%D9%84%D8%A8%D9%82%D8%A7%D9%84%D8%B7%D8%A9%20%D8%A7%D9%84%D8%B4%D8%B1%D9%82%D9%8A%D8%A9.pdf",
        "sourcePdfSha256": "602b348d8da271ae9d0467019775a0af72c3844f2e894e77124e601318101882",
        "sourcePdfFile": "work/isie-sector-maps-bekalta-east/bekalta-east.pdf",
        "sourcePdfCreated": "D:20231017051334+01",
        "reviewedDate": "2026-09-07",
        "sourceMapTitleAr": "البقالطة الشرقية",
        "targetIsPageTitle": true,
        "sourceDrawingIndices": [
          278
        ],
        "sourceVectorLayer": "circonscription_isie2023",
        "sourceCrsEpsg": 32632,
        "sourceCrsWkt": "PROJCS[\"WGS_1984_UTM_Zone_32N\",GEOGCS[\"GCS_WGS_1984\",DATUM[\"D_WGS_1984\",SPHEROID[\"WGS_1984\",6378137.0,298.257223563]],PRIMEM[\"Greenwich\",0.0],UNIT[\"Degree\",0.0174532925199433]],PROJECTION[\"Transverse_Mercator\"],PARAMETER[\"False_Easting\",500000.0],PARAMETER[\"False_Northing\",0.0],PARAMETER[\"Central_Meridian\",9.0],PARAMETER[\"Scale_Factor\",0.9996],PARAMETER[\"Latitude_Of_Origin\",0.0],UNIT[\"Meter\",1.0]]",
        "sourceControlPointMaxResidualMeters": 0.19231643360012066,
        "sourceControlPointsLatLon": [
          [
            35.5729,
            10.97031
          ],
          [
            35.63598,
            10.97186
          ],
          [
            35.63412,
            11.08246
          ],
          [
            35.57104,
            11.08083
          ]
        ],
        "sourceLocalControlPoints": [
          [
            0.0,
            1.0
          ],
          [
            0.0,
            0.0
          ],
          [
            1.0,
            0.0
          ],
          [
            1.0,
            1.0
          ]
        ],
        "sourceViewportBBox": [
          4.31908,
          590.46173,
          841.50095,
          5.38791
        ],
        "sourcePageTransformationMatrix": [
          1.0,
          0.0,
          0.0,
          -1.0,
          0.0,
          595.5023803710938
        ],
        "sourceAffineMetersFromPagePoints": [
          [
            11.969240552656983,
            -1.6597180726146122e-05
          ],
          [
            0.0001521794001746457,
            -11.96502658422287
          ],
          [
            678491.7620228096,
            3945425.4237938332
          ]
        ],
        "sourceGeometry": "One original complete valid explicitly closed red vector ring; no repair, joining, rounding, snapping, buffering, clipping or simplification applied to export.",
        "sourcePagePaths": [
          {
            "drawingIndex": 278,
            "vertices": [
              [
                476.5386047363281,
                509.46429443359375
              ],
              [
                458.9023742675781,
                550.8695068359375
              ],
              [
                424.7096252441406,
                546.9089965820312
              ],
              [
                424.7096252441406,
                545.4688720703125
              ],
              [
                412.47222900390625,
                544.748779296875
              ],
              [
                410.3127136230469,
                540.0681762695312
              ],
              [
                408.87298583984375,
                539.7081298828125
              ],
              [
                405.2737731933594,
                543.30859375
              ],
              [
                398.4352111816406,
                544.0286865234375
              ],
              [
                396.2756652832031,
                545.1088256835938
              ],
              [
                390.51690673828125,
                548.3491821289062
              ],
              [
                387.9974365234375,
                549.4293212890625
              ],
              [
                383.3184509277344,
                551.589599609375
              ],
              [
                379.3592834472656,
                553.02978515625
              ],
              [
                377.1997375488281,
                554.469970703125
              ],
              [
                373.60052490234375,
                558.0704345703125
              ],
              [
                368.9215087890625,
                559.1505737304688
              ],
              [
                359.5635070800781,
                562.3909912109375
              ],
              [
                355.9642639160156,
                563.4711303710938
              ],
              [
                344.806640625,
                518.8255004882812
              ],
              [
                335.0887145996094,
                486.06134033203125
              ],
              [
                334.3688659667969,
                484.2611083984375
              ],
              [
                331.8493957519531,
                474.8999328613281
              ],
              [
                330.7696228027344,
                472.0195617675781
              ],
              [
                323.5711364746094,
                447.89654541015625
              ],
              [
                316.01275634765625,
                426.2938232421875
              ],
              [
                301.9757385253906,
                391.72943115234375
              ],
              [
                294.05743408203125,
                376.24749755859375
              ],
              [
                286.1391296386719,
                363.28582763671875
              ],
              [
                303.0555114746094,
                354.28472900390625
              ],
              [
                311.6936950683594,
                351.0443115234375
              ],
              [
                325.7306823730469,
                347.08380126953125
              ],
              [
                331.8493957519531,
                345.2835693359375
              ],
              [
                341.2073974609375,
                342.04315185546875
              ],
              [
                353.0848693847656,
                338.4427185058594
              ],
              [
                359.2035827636719,
                336.6424865722656
              ],
              [
                360.6432800292969,
                336.2824401855469
              ],
              [
                352.3650207519531,
                330.16168212890625
              ],
              [
                351.2852478027344,
                329.08154296875
              ],
              [
                350.2054748535156,
                326.9212646484375
              ],
              [
                347.68603515625,
                324.760986328125
              ],
              [
                340.84747314453125,
                319.0002746582031
              ],
              [
                335.8085632324219,
                315.3998107910156
              ],
              [
                333.6490173339844,
                313.2395324707031
              ],
              [
                331.4894714355469,
                312.1593933105469
              ],
              [
                329.3299255371094,
                310.35919189453125
              ],
              [
                326.0906066894531,
                307.8388671875
              ],
              [
                322.851318359375,
                305.31854248046875
              ],
              [
                320.33184814453125,
                303.15826416015625
              ],
              [
                314.9329833984375,
                298.83770751953125
              ],
              [
                312.4135437011719,
                297.3975524902344
              ],
              [
                308.4543762207031,
                294.8772277832031
              ],
              [
                304.4952087402344,
                291.2767639160156
              ],
              [
                296.93682861328125,
                286.59619140625
              ],
              [
                295.13720703125,
                286.23614501953125
              ],
              [
                292.2578125,
                284.07586669921875
              ],
              [
                289.73834228515625,
                282.9957275390625
              ],
              [
                283.6196594238281,
                279.395263671875
              ],
              [
                280.7402648925781,
                278.31512451171875
              ],
              [
                279.6604919433594,
                277.59503173828125
              ],
              [
                278.5807189941406,
                276.87493896484375
              ],
              [
                277.1410217285156,
                275.4347839355469
              ],
              [
                274.62158203125,
                275.07470703125
              ],
              [
                273.181884765625,
                274.7146911621094
              ],
              [
                271.0223388671875,
                274.7146911621094
              ],
              [
                268.86279296875,
                274.7146911621094
              ],
              [
                267.06317138671875,
                274.7146911621094
              ],
              [
                264.543701171875,
                273.9945983886719
              ],
              [
                264.543701171875,
                273.6345520019531
              ],
              [
                264.18377685546875,
                272.9144592285156
              ],
              [
                263.46392822265625,
                271.4742736816406
              ],
              [
                280.3803405761719,
                269.3139953613281
              ],
              [
                280.3803405761719,
                247.71127319335938
              ],
              [
                306.2948303222656,
                249.51150512695312
              ],
              [
                316.3726806640625,
                250.59164428710938
              ],
              [
                315.65283203125,
                230.06906127929688
              ],
              [
                315.65283203125,
                222.14804077148438
              ],
              [
                315.65283203125,
                221.42794799804688
              ],
              [
                315.29290771484375,
                207.7462158203125
              ],
              [
                315.29290771484375,
                207.38616943359375
              ],
              [
                312.7734375,
                206.66607666015625
              ],
              [
                316.01275634765625,
                202.34555053710938
              ],
              [
                318.5322265625,
                197.30490112304688
              ],
              [
                319.61199951171875,
                191.90423583984375
              ],
              [
                317.45245361328125,
                191.18414306640625
              ],
              [
                313.13336181640625,
                189.74395751953125
              ],
              [
                310.97381591796875,
                189.02386474609375
              ],
              [
                305.9349060058594,
                187.58367919921875
              ],
              [
                297.65667724609375,
                183.98321533203125
              ],
              [
                300.8959655761719,
                183.62319946289062
              ],
              [
                309.8940734863281,
                181.10287475585938
              ],
              [
                311.3337707519531,
                180.74282836914062
              ],
              [
                317.092529296875,
                178.94259643554688
              ],
              [
                321.41162109375,
                176.06222534179688
              ],
              [
                327.1703796386719,
                171.74169921875
              ],
              [
                327.8902282714844,
                171.38165283203125
              ],
              [
                330.7696228027344,
                168.861328125
              ],
              [
                333.6490173339844,
                166.7010498046875
              ],
              [
                334.0089416503906,
                166.34100341796875
              ],
              [
                339.0478515625,
                162.02044677734375
              ],
              [
                339.0478515625,
                161.660400390625
              ],
              [
                341.92724609375,
                159.14010620117188
              ],
              [
                343.72686767578125,
                157.33987426757812
              ],
              [
                348.4058837890625,
                153.73941040039062
              ],
              [
                350.5653991699219,
                151.93917846679688
              ],
              [
                361.7230529785156,
                141.49786376953125
              ],
              [
                368.56158447265625,
                133.93692016601562
              ],
              [
                373.9604187011719,
                127.45608520507812
              ],
              [
                376.4798889160156,
                125.29583740234375
              ],
              [
                382.9585266113281,
                120.25518798828125
              ],
              [
                386.91766357421875,
                117.37481689453125
              ],
              [
                388.35736083984375,
                116.294677734375
              ],
              [
                399.5149841308594,
                107.65359497070312
              ],
              [
                404.1940002441406,
                104.77325439453125
              ],
              [
                408.87298583984375,
                102.2529296875
              ],
              [
                415.7115478515625,
                99.37255859375
              ],
              [
                423.2699279785156,
                97.2122802734375
              ],
              [
                434.067626953125,
                92.89175415039062
              ],
              [
                435.14739990234375,
                91.81161499023438
              ],
              [
                436.947021484375,
                92.17166137695312
              ],
              [
                437.6668701171875,
                90.73147583007812
              ],
              [
                437.6668701171875,
                88.21115112304688
              ],
              [
                441.26611328125,
                83.89059448242188
              ],
              [
                444.1455078125,
                80.65020751953125
              ],
              [
                443.78558349609375,
                78.8499755859375
              ],
              [
                450.2641906738281,
                71.6490478515625
              ],
              [
                450.6241149902344,
                69.48876953125
              ],
              [
                457.8226013183594,
                62.28790283203125
              ],
              [
                461.42181396484375,
                58.68743896484375
              ],
              [
                467.18060302734375,
                53.2867431640625
              ],
              [
                471.8595886230469,
                48.9661865234375
              ],
              [
                475.8187561035156,
                45.36572265625
              ],
              [
                477.6183776855469,
                45.72576904296875
              ],
              [
                490.2156982421875,
                31.68402099609375
              ],
              [
                490.935546875,
                32.0440673828125
              ],
              [
                501.3733215332031,
                39.60498046875
              ],
              [
                508.57177734375,
                46.44586181640625
              ],
              [
                515.4103393554688,
                54.0068359375
              ],
              [
                519.3695068359375,
                57.96734619140625
              ],
              [
                522.6088256835938,
                60.4876708984375
              ],
              [
                530.527099609375,
                63.00799560546875
              ],
              [
                541.3248291015625,
                67.3284912109375
              ],
              [
                544.2042236328125,
                68.7686767578125
              ],
              [
                547.803466796875,
                72.369140625
              ],
              [
                550.3229370117188,
                75.24951171875
              ],
              [
                553.2022705078125,
                75.9696044921875
              ],
              [
                558.9610595703125,
                76.32965087890625
              ],
              [
                561.8404541015625,
                77.04974365234375
              ],
              [
                565.7996215820312,
                78.8499755859375
              ],
              [
                571.198486328125,
                81.37030029296875
              ],
              [
                573.7179565429688,
                84.25064086914062
              ],
              [
                579.1167602539062,
                95.41204833984375
              ],
              [
                582.3560791015625,
                100.812744140625
              ],
              [
                581.9961547851562,
                103.33306884765625
              ],
              [
                577.317138671875,
                110.53396606445312
              ],
              [
                574.4378051757812,
                114.13442993164062
              ],
              [
                571.5584106445312,
                123.85565185546875
              ],
              [
                567.9591674804688,
                137.53738403320312
              ],
              [
                565.0797729492188,
                148.3387451171875
              ],
              [
                561.4805297851562,
                163.1005859375
              ],
              [
                560.4007568359375,
                175.70217895507812
              ],
              [
                562.560302734375,
                187.9437255859375
              ],
              [
                566.1595458984375,
                205.22592163085938
              ],
              [
                567.2393188476562,
                210.98663330078125
              ],
              [
                568.6790161132812,
                213.14691162109375
              ],
              [
                568.6790161132812,
                215.667236328125
              ],
              [
                570.4786376953125,
                219.62771606445312
              ],
              [
                569.7587890625,
                222.14804077148438
              ],
              [
                568.6790161132812,
                224.66836547851562
              ],
              [
                565.7996215820312,
                226.10855102539062
              ],
              [
                564.0,
                227.90878295898438
              ],
              [
                564.0,
                234.029541015625
              ],
              [
                564.7198486328125,
                242.670654296875
              ],
              [
                565.0797729492188,
                246.27108764648438
              ],
              [
                565.0797729492188,
                249.51150512695312
              ],
              [
                565.439697265625,
                253.1119384765625
              ],
              [
                562.9202270507812,
                255.272216796875
              ],
              [
                562.560302734375,
                259.95281982421875
              ],
              [
                561.12060546875,
                266.4336242675781
              ],
              [
                560.7606811523438,
                268.9539489746094
              ],
              [
                560.7606811523438,
                273.6345520019531
              ],
              [
                560.4007568359375,
                277.2349853515625
              ],
              [
                559.680908203125,
                282.275634765625
              ],
              [
                558.9610595703125,
                287.3162841796875
              ],
              [
                558.9610595703125,
                287.6763000488281
              ],
              [
                558.6011352539062,
                289.8365783691406
              ],
              [
                558.6011352539062,
                294.5171813964844
              ],
              [
                557.5213623046875,
                297.3975524902344
              ],
              [
                556.4415893554688,
                301.71807861328125
              ],
              [
                555.7217407226562,
                303.87835693359375
              ],
              [
                554.2820434570312,
                306.398681640625
              ],
              [
                552.1224975585938,
                310.7192077636719
              ],
              [
                550.3229370117188,
                313.9596252441406
              ],
              [
                549.6030883789062,
                316.1199035644531
              ],
              [
                548.1633911132812,
                320.4404602050781
              ],
              [
                547.803466796875,
                322.6007080078125
              ],
              [
                546.7236938476562,
                326.56121826171875
              ],
              [
                545.6439208984375,
                329.08154296875
              ],
              [
                543.8442993164062,
                331.9619140625
              ],
              [
                542.7645263671875,
                333.4020690917969
              ],
              [
                542.044677734375,
                335.2023010253906
              ],
              [
                540.60498046875,
                337.3625793457031
              ],
              [
                536.6458129882812,
                342.4031982421875
              ],
              [
                535.5660400390625,
                344.5634765625
              ],
              [
                534.4862670898438,
                345.64361572265625
              ],
              [
                531.966796875,
                349.6041259765625
              ],
              [
                529.8072509765625,
                352.4844970703125
              ],
              [
                527.2877807617188,
                356.44500732421875
              ],
              [
                522.96875,
                366.16619873046875
              ],
              [
                511.09124755859375,
                393.88970947265625
              ],
              [
                507.1321105957031,
                401.81072998046875
              ],
              [
                502.4530944824219,
                410.4518127441406
              ],
              [
                496.3343811035156,
                429.5342102050781
              ],
              [
                494.89471435546875,
                434.5748291015625
              ],
              [
                491.6553955078125,
                445.376220703125
              ],
              [
                485.8966064453125,
                468.05908203125
              ],
              [
                479.7779235839844,
                493.622314453125
              ],
              [
                476.5386047363281,
                509.46429443359375
              ]
            ],
            "explicitlyClosed": true,
            "originalValid": true,
            "originalAreaPagePoints2": 97736.703717703
          }
        ],
        "geometryHash": "ea11ae659d96bd68629131d6b5dd050531d152009dfd1a7e9098e251abe96e94",
        "joiningReview": {
          "joined": false
        },
        "repair": null,
        "clipReview": {
          "activeClipCount": 2,
          "outsideActiveClipsAreaPoints2": [
            0.0,
            0.0
          ],
          "outsideViewportAreaPoints2": 0.0,
          "distanceFromViewportPoints": 26.643310546875004
        },
        "manualIdentityQualification": "The page title and interior East label uniquely identify the complete eastern coastal ring. North1 is separately labeled across its northern divider, South lies west of the red stepped divider, Baghdadi is south of the full southern boundary, and the eastern edge follows the black coast boundary. The separate South ring on this same page is not combined with the target.",
        "labelCenterContainmentPassed": true,
        "insideTargetLabels": [
          {
            "text": "اﻟﺑﻘﺎﻟطﺔ اﻟﺷرﻗﯾﺔ",
            "normalizedForward": "البقالطةالشرقية",
            "normalizedReverse": "ةيقرشلاةطلاقبلا",
            "colors": [
              15073280
            ],
            "bounds": [
              351.6451721191406,
              333.3572998046875,
              519.0578002929688,
              386.6418762207031
            ],
            "point": [
              435.3514862060547,
              359.9995880126953
            ]
          }
        ],
        "visualReview": {
          "file": "work/isie-sector-maps-bekalta-east/bekalta-east.png",
          "completeTargetReviewed": true
        },
        "sourceAssertion": {
          "id": "osm:relation:7111932",
          "expectedKind": "sector",
          "expectedTags": {
            "admin_level": "6",
            "boundary": "administrative",
            "name": "البقالطة الشرقية",
            "name:ar": "البقالطة الشرقية",
            "name:fr": "Bekalta Est",
            "ref:tn:codegeo": "325954"
          }
        },
        "currentOfficialIdentity": {
          "governorateCode": "32",
          "governorateFr": "Monastir",
          "governorateAr": "المنستير",
          "delegationCode": "3259",
          "delegationFr": "Bekalta",
          "delegationAr": "البقالطة",
          "sectorCode": "325954",
          "sectorFr": "Bekalta est",
          "sectorAr": "البقالطة الشرقية",
          "sourceRows": {
            "Population_Secteur_Age_Sexe_Dynamique.xlsx": 38011,
            "Nombre_de_Logements_par_Secteurs.xlsx": 1806,
            "Nombre_de_menages_par_Secteurs.xlsx": 1803
          }
        },
        "officialRegistrySha256": "23b3ee87c07971eb48b456799833f1996ade5d0bdc10d7bf6b0e3bf6798c9eec",
        "scopeReview": {
          "classification": "WHOLE_CIRCLE_EQUALS_WHOLE_IMADA",
          "wholeCircleEqualsWholeImada": true,
          "decreeAnnex": 1,
          "decreeTable": "A",
          "decreePDFPage": 15,
          "decreeJORTPage": 5112,
          "sourceDecreeSha256": "bfb3fe752b9900eaf873198b009968243f1b0bd2c119836cfd4fbbfc07e1e10f",
          "sourceDecreeURL": "https://www.isie.tn/wp-content/uploads/2023/09/Decret2023_590Arabe.pdf",
          "imadaNameAr": "البقالطة الشرقية",
          "circleNameAr": "البقالطة الشرقية"
        },
        "validation": {
          "valid": true,
          "countryFullyContains": true,
          "countryOutsideAreaMeters2": 0.0,
          "sourceUnchanged": true,
          "quantizedValid": true,
          "quantizedCountryFullyContains": true,
          "quantizedSymmetricDifferenceMeters2": 343.95921668012863,
          "quantizedHausdorffMeters": 0.06864002298230887,
          "quantizationGridDegrees": 1e-06
        },
        "osmComparison": {
          "oldAreaMeters2": 11355668.486141613,
          "officialAreaMeters2": 13997096.316218775,
          "iou": 0.7483565841252882,
          "officialCoveredByOsm": 0.7752931503553621,
          "osmCoveredByOfficial": 0.955633119447985,
          "hausdorffMeters": 1861.1991901203626
        }
      },
      "geometry": {
        "type": "Polygon",
        "coordinates": [
          [
            [
              11.032870418841174,
              35.58055877755713
            ],
            [
              11.030429366035902,
              35.57613391081684
            ],
            [
              11.025926090782649,
              35.57663690202616
            ],
            [
              11.025929999770181,
              35.576792170515134
            ],
            [
              11.024316392279646,
              35.57689696218606
            ],
            [
              11.024043989279145,
              35.57740639632069
            ],
            [
              11.023854893585295,
              35.577448408000954
            ],
            [
              11.023369966547332,
              35.57706820038283
            ],
            [
              11.02246519554276,
              35.57700572064677
            ],
            [
              11.022177168242074,
              35.57689404938634
            ],
            [
              11.021408128315276,
              35.57655744348919
            ],
            [
              11.021072587484927,
              35.576446566648954
            ],
            [
              11.02044902891337,
              35.57622401321146
            ],
            [
              11.019922450934967,
              35.57607750119157
            ],
            [
              11.019633456032327,
              35.57592700468557
            ],
            [
              11.0191485576547,
              35.57554677902327
            ],
            [
              11.018527928000236,
              35.575440672117495
            ],
            [
              11.017283757995152,
              35.575111991524274
            ],
            [
              11.016805681074946,
              35.575003488882224
            ],
            [
              11.015453251218343,
              35.57984168002742
            ],
            [
              11.014258684952559,
              35.583395659291796
            ],
            [
              11.014168502597226,
              35.58359134327276
            ],
            [
              11.01386112076684,
              35.584606195007886
            ],
            [
              11.013726329629295,
              35.58491913007294
            ],
            [
              11.012840971404513,
              35.58753587711202
            ],
            [
              11.011901241626926,
              35.58988168227022
            ],
            [
              11.010140918045908,
              35.593639244050046
            ],
            [
              11.009137029592877,
              35.595325899751124
            ],
            [
              11.008126314529187,
              35.59674082115385
            ],
            [
              11.01038442456119,
              35.59767402952518
            ],
            [
              11.011533868713734,
              35.59800435710002
            ],
            [
              11.0133982029786,
              35.59840039683553
            ],
            [
              11.014211069828171,
              35.59858098310561
            ],
            [
              11.015455596959953,
              35.59890968273891
            ],
            [
              11.017033818142563,
              35.59927161390247
            ],
            [
              11.017846700873148,
              35.59945217504875
            ],
            [
              11.01803779595779,
              35.59948780883052
            ],
            [
              11.016961154792382,
              35.600166035554096
            ],
            [
              11.01682148404868,
              35.60028487962436
            ],
            [
              11.016684733929932,
              35.600520180051554
            ],
            [
              11.016357863014514,
              35.60075866305359
            ],
            [
              11.015470343071339,
              35.60139487565223
            ],
            [
              11.014814635207422,
              35.60179419695865
            ],
            [
              11.014535281284223,
              35.60203188030179
            ],
            [
              11.014253008003399,
              35.602153106394155
            ],
            [
              11.013972678636629,
              35.6023519663376
            ],
            [
              11.013551695969893,
              35.602630850589755
            ],
            [
              11.013130714384955,
              35.60290973338618
            ],
            [
              11.01280381903552,
              35.6031482073822
            ],
            [
              11.01210248965035,
              35.603625946919216
            ],
            [
              11.011773649389564,
              35.60378677707164
            ],
            [
              11.011257585191538,
              35.604067241524774
            ],
            [
              11.010744430183314,
              35.604464160728526
            ],
            [
              11.009758849210437,
              35.6049854637085
            ],
            [
              11.009522151024267,
              35.605028248131596
            ],
            [
              11.009147702271004,
              35.605267505793
            ],
            [
              11.008817875130688,
              35.60538951261284
            ],
            [
              11.008019498070034,
              35.60579117706807
            ],
            [
              11.007642132633288,
              35.60591397324169
            ],
            [
              11.007501468546053,
              35.60599398815299
            ],
            [
              11.00736080417436,
              35.60607400290811
            ],
            [
              11.007174543543508,
              35.60623244441599
            ],
            [
              11.006842775089073,
              35.60627681119667
            ],
            [
              11.006653605803548,
              35.60631879483579
            ],
            [
              11.006368398239546,
              35.6063235461183
            ],
            [
              11.006083190608802,
              35.60632829672628
            ],
            [
              11.005845517532205,
              35.60633225505107
            ],
            [
              11.005514712139558,
              35.606415434047186
            ],
            [
              11.005515680638553,
              35.60645425311095
            ],
            [
              11.005470082893588,
              35.60653268272088
            ],
            [
              11.005378887145142,
              35.60668954189476
            ],
            [
              11.00761883593016,
              35.606885237615906
            ],
            [
              11.007677010975156,
              35.60921437118996
            ],
            [
              11.01109475319414,
              35.60896317568582
            ],
            [
              11.012422841306764,
              35.60882448705737
            ],
            [
              11.012383169241224,
              35.611038745017254
            ],
            [
              11.012404553277108,
              35.611892760099614
            ],
            [
              11.01240649732499,
              35.611970397827804
            ],
            [
              11.012395896929156,
              35.61344630551332
            ],
            [
              11.0123968690036,
              35.613485124367735
            ],
            [
              11.012066042170302,
              35.61356832201179
            ],
            [
              11.012505556117555,
              35.614026996261586
            ],
            [
              11.012851941407499,
              35.61456489878706
            ],
            [
              11.013009145424077,
              35.615144794256864
            ],
            [
              11.01272585223465,
              35.615227199270755
            ],
            [
              11.012159264025387,
              35.61539200735252
            ],
            [
              11.011875969005562,
              35.61547441042036
            ],
            [
              11.011214301229638,
              35.615640802409644
            ],
            [
              11.010130596080801,
              35.61604724635636
            ],
            [
              11.01055942535358,
              35.61607891980101
            ],
            [
              11.011754734011861,
              35.61633080428986
            ],
            [
              11.011945867407697,
              35.6163664464215
            ],
            [
              11.012711370852639,
              35.61654783075078
            ],
            [
              11.013289637235257,
              35.61684884562568
            ],
            [
              11.014061958939958,
              35.61730194939291
            ],
            [
              11.014158013739618,
              35.617339178002375
            ],
            [
              11.01454515357461,
              35.61760454797292
            ],
            [
              11.01493132249479,
              35.617831097838234
            ],
            [
              11.014979837131081,
              35.61786912116982
            ],
            [
              11.015657095174651,
              35.61832380815517
            ],
            [
              11.015658068999636,
              35.6183626269002
            ],
            [
              11.016045218577064,
              35.618627988390514
            ],
            [
              11.016287797246584,
              35.61881810240241
            ],
            [
              11.01691558375767,
              35.61919594021625
            ],
            [
              11.017205704165953,
              35.619385256059886
            ],
            [
              11.018707790639889,
              35.62048629809033
            ],
            [
              11.019631588401477,
              35.621286340463264
            ],
            [
              11.02036230195193,
              35.621973113257035
            ],
            [
              11.020700964344103,
              35.62220043758445
            ],
            [
              11.021570423960718,
              35.622729534507826
            ],
            [
              11.022101219100353,
              35.623031302419285
            ],
            [
              11.02229432679247,
              35.62314456452394
            ],
            [
              11.023791658994325,
              35.62405144531974
            ],
            [
              11.0244175644222,
              35.624351600907744
            ],
            [
              11.025042491892062,
              35.624612937952044
            ],
            [
              11.025953676416181,
              35.624908290882736
            ],
            [
              11.02695799460409,
              35.62512439930266
            ],
            [
              11.028396106049925,
              35.62556619907523
            ],
            [
              11.028541683002288,
              35.625680251499446
            ],
            [
              11.028778429568408,
              35.625637428152736
            ],
            [
              11.028877442221063,
              35.625791099559905
            ],
            [
              11.028884305641704,
              35.62606282821214
            ],
            [
              11.029371530582397,
              35.62652063676861
            ],
            [
              11.02976072590854,
              35.626863587737375
            ],
            [
              11.029718084486715,
              35.627058480938494
            ],
            [
              11.03059353880651,
              35.627820418669614
            ],
            [
              11.030646973897047,
              35.62805252680397
            ],
            [
              11.031617546220948,
              35.628812845961384
            ],
            [
              11.032102835321247,
              35.62919300570257
            ],
            [
              11.032878331321236,
              35.629762438490104
            ],
            [
              11.033508241570358,
              35.630217820294774
            ],
            [
              11.034041100265242,
              35.63059716848394
            ],
            [
              11.034277857739855,
              35.63055433397223
            ],
            [
              11.035980416702902,
              35.63204010909534
            ],
            [
              11.036074530412202,
              35.63199968288133
            ],
            [
              11.037432763058744,
              35.63116118358413
            ],
            [
              11.038365006565083,
              35.630407544422184
            ],
            [
              11.039247717874101,
              35.62957706751101
            ],
            [
              11.03975989448454,
              35.629141209625985
            ],
            [
              11.040180916053483,
              35.62886223329811
            ],
            [
              11.041220034405573,
              35.62857277922913
            ],
            [
              11.042634589251385,
              35.628082780826446
            ],
            [
              11.043011010886385,
              35.62792105569407
            ],
            [
              11.043476597704185,
              35.627524807611415
            ],
            [
              11.043801517996803,
              35.62720861494813
            ],
            [
              11.04417990087272,
              35.62712452249904
            ],
            [
              11.044939645075331,
              35.62707278778601
            ],
            [
              11.04531803400966,
              35.62698869168134
            ],
            [
              11.045836092795273,
              35.62678571721906
            ],
            [
              11.046542352405535,
              35.626501872589266
            ],
            [
              11.046867256347301,
              35.62618567542884
            ],
            [
              11.047549750846315,
              35.624970198116465
            ],
            [
              11.047962805504715,
              35.62438065257518
            ],
            [
              11.047908334061162,
              35.624109735643636
            ],
            [
              11.047270477232919,
              35.62334388964056
            ],
            [
              11.046880246602587,
              35.622962175619556
            ],
            [
              11.046473201074535,
              35.62192055800264
            ],
            [
              11.045960208519672,
              35.620453555988945
            ],
            [
              11.04555022419982,
              35.619295479980146
            ],
            [
              11.045034303568901,
              35.61771202148359
            ],
            [
              11.044857106693593,
              35.61635581484204
            ],
            [
              11.045108752234581,
              35.61503116079724
            ],
            [
              11.04553670856253,
              35.61315982388552
            ],
            [
              11.045663511053933,
              35.61253631594619
            ],
            [
              11.0458477303142,
              35.61230017767612
            ],
            [
              11.045840813004041,
              35.61202845127198
            ],
            [
              11.04606762599243,
              35.61159741819819
            ],
            [
              11.04596563533391,
              35.611327306920494
            ],
            [
              11.045816109164685,
              35.611058003009056
            ],
            [
              11.045431867408842,
              35.61090918992773
            ],
            [
              11.045189247459495,
              35.610719135896865
            ],
            [
              11.045172454907892,
              35.61005923173723
            ],
            [
              11.045243818817335,
              35.60912598316503
            ],
            [
              11.045281476012832,
              35.60873699831067
            ],
            [
              11.045272585974123,
              35.60838763545803
            ],
            [
              11.045310242861666,
              35.607998650566074
            ],
            [
              11.044971576037542,
              35.60777139199515
            ],
            [
              11.044911203299622,
              35.60726756363346
            ],
            [
              11.044703293181874,
              35.60657206881694
            ],
            [
              11.044648847741426,
              35.606301148893145
            ],
            [
              11.04463601174778,
              35.605796513250624
            ],
            [
              11.044578605274019,
              35.605409142134086
            ],
            [
              11.044469717608164,
              35.604867301947095
            ],
            [
              11.044360831588845,
              35.60432546156712
            ],
            [
              11.04435984448801,
              35.60428664671292
            ],
            [
              11.044306389280287,
              35.604054544595016
            ],
            [
              11.044293556498845,
              35.6035499086561
            ],
            [
              11.044143064573227,
              35.60324178351852
            ],
            [
              11.043988626122674,
              35.602778388778944
            ],
            [
              11.04388764193924,
              35.60254709293262
            ],
            [
              11.043690609317386,
              35.60227859177511
            ],
            [
              11.043393583049287,
              35.60181761534593
            ],
            [
              11.043147058321654,
              35.60147228296386
            ],
            [
              11.043046078356253,
              35.60124098622972
            ],
            [
              11.042844120257104,
              35.600778392424466
            ],
            [
              11.042790672319592,
              35.600546292574215
            ],
            [
              11.042637233658668,
              35.60012171039764
            ],
            [
              11.042487741180091,
              35.59985240082006
            ],
            [
              11.042242204635114,
              35.59954588451158
            ],
            [
              11.042095672436451,
              35.59939303232443
            ],
            [
              11.041995684223044,
              35.59920055268129
            ],
            [
              11.041799652291369,
              35.598970866046756
            ],
            [
              11.04126303411311,
              35.5984362748566
            ],
            [
              11.041114534969683,
              35.59820578150795
            ],
            [
              11.040968992656852,
              35.59809174274094
            ],
            [
              11.040625454956894,
              35.59767037843057
            ],
            [
              11.040332404111265,
              35.59736466282019
            ],
            [
              11.039988872959524,
              35.596943296432144
            ],
            [
              11.039391962623142,
              35.59590486585752
            ],
            [
              11.037747814144158,
              35.592942401339705
            ],
            [
              11.037203401896312,
              35.592097238842946
            ],
            [
              11.036561981984285,
              35.591176046839294
            ],
            [
              11.035701988336282,
              35.58913233162844
            ],
            [
              11.03549814525387,
              35.58859208852805
            ],
            [
              11.035040972790252,
              35.587434760261296
            ],
            [
              11.034218767480292,
              35.58500204286633
            ],
            [
              11.033341250999543,
              35.5822595708207
            ],
            [
              11.032870418841174,
              35.58055877755713
            ]
          ]
        ]
      }
    }
  ]
}
