{
  "type": "FeatureCollection",
  "sourceId": "isie-local-sectors-2023-bekalta-north-aggregate-review",
  "purpose": "Both complete independently reviewed source electoral circles, unchanged. They are parts of one imada and are not individual whole-imada imports.",
  "features": [
    {
      "type": "Feature",
      "id": "bekalta-north-1",
      "properties": {
        "circleId": "bekalta-north-1",
        "circleNameAr": "البقالطة الشمالية 1",
        "parentImadaCode": "325951",
        "sourcePdfURL": "https://www.isie.tn/wp-content/uploads/2023/CartesCirconscriptionsElectoralesLocales2023/%D8%A7%D9%84%D9%85%D9%86%D8%B3%D8%AA%D9%8A%D8%B1/%D8%A7%D9%84%D8%A8%D9%82%D8%A7%D9%84%D8%B7%D8%A9/%D8%A7%D9%84%D8%A8%D9%82%D8%A7%D9%84%D8%B7%D8%A9%20%D8%A7%D9%84%D8%B4%D9%85%D8%A7%D9%84%D9%8A%D8%A9.pdf",
        "sourcePdfSha256": "44da4d4631854a63048c32acf144bb49e5dc583f8dd4b4b492675432430b7bbf",
        "sourcePdfFile": "work/isie-sector-maps-next-conflicts/bekalta-north.pdf",
        "sourcePdfPage": 1,
        "sourceDrawingIndex": 237,
        "sourceVectorLayer": "circonscription_isie2023",
        "sourceGeometrySha256": "d0e62b8f72da802caf5254fadea9f9b9a0854041d98c9bd042a1252dbe67f809",
        "sourceGeometryVertices": 177,
        "sourcePageVertices": [
          [
            213.0746612548828,
            460.49810791015625
          ],
          [
            213.7945098876953,
            457.6177673339844
          ],
          [
            215.9540557861328,
            450.4168701171875
          ],
          [
            218.47352600097656,
            442.495849609375
          ],
          [
            218.47352600097656,
            437.81524658203125
          ],
          [
            217.0338134765625,
            428.8141174316406
          ],
          [
            211.99488830566406,
            406.1312561035156
          ],
          [
            206.23611450195312,
            384.5285339355469
          ],
          [
            196.5181884765625,
            358.2452392578125
          ],
          [
            190.75941467285156,
            346.7237548828125
          ],
          [
            186.8002471923828,
            337.7226257324219
          ],
          [
            178.16209411621094,
            325.84112548828125
          ],
          [
            147.20867919921875,
            291.9968566894531
          ],
          [
            134.25143432617188,
            277.2349853515625
          ],
          [
            126.33312225341797,
            271.1142272949219
          ],
          [
            111.9361801147461,
            261.39300537109375
          ],
          [
            100.05870819091797,
            254.5521240234375
          ],
          [
            83.8621597290039,
            244.11080932617188
          ],
          [
            66.22590637207031,
            234.029541015625
          ],
          [
            52.54882049560547,
            226.46859741210938
          ],
          [
            42.4709587097168,
            221.78799438476562
          ],
          [
            76.66368865966797,
            151.57913208007812
          ],
          [
            81.70262145996094,
            137.89743041992188
          ],
          [
            94.29994201660156,
            140.417724609375
          ],
          [
            108.69686889648438,
            144.73828125
          ],
          [
            132.81173706054688,
            151.21908569335938
          ],
          [
            140.37013244628906,
            149.05880737304688
          ],
          [
            145.4090576171875,
            146.8985595703125
          ],
          [
            149.00830078125,
            146.178466796875
          ],
          [
            155.12698364257812,
            142.21795654296875
          ],
          [
            159.08615112304688,
            142.93804931640625
          ],
          [
            170.2437744140625,
            148.3387451171875
          ],
          [
            182.84109497070312,
            156.97982788085938
          ],
          [
            192.5590362548828,
            161.30038452148438
          ],
          [
            196.15826416015625,
            162.38052368164062
          ],
          [
            199.39756774902344,
            160.9403076171875
          ],
          [
            213.7945098876953,
            160.9403076171875
          ],
          [
            223.51243591308594,
            159.86019897460938
          ],
          [
            238.98915100097656,
            155.53964233398438
          ],
          [
            245.8276824951172,
            152.29922485351562
          ],
          [
            251.94639587402344,
            147.25860595703125
          ],
          [
            258.7849426269531,
            135.01705932617188
          ],
          [
            247.98724365234375,
            126.73602294921875
          ],
          [
            250.50669860839844,
            121.69537353515625
          ],
          [
            256.6253967285156,
            113.05429077148438
          ],
          [
            257.7051696777344,
            109.81387329101562
          ],
          [
            268.1429443359375,
            94.69195556640625
          ],
          [
            273.181884765625,
            87.13101196289062
          ],
          [
            271.38226318359375,
            99.01251220703125
          ],
          [
            277.1410217285156,
            110.17391967773438
          ],
          [
            291.5379638671875,
            122.055419921875
          ],
          [
            302.3356628417969,
            129.25631713867188
          ],
          [
            314.213134765625,
            135.37710571289062
          ],
          [
            325.0108642578125,
            140.05767822265625
          ],
          [
            339.7677001953125,
            145.09832763671875
          ],
          [
            362.44287109375,
            152.29922485351562
          ],
          [
            376.1199645996094,
            153.73941040039062
          ],
          [
            379.7192077636719,
            153.73941040039062
          ],
          [
            386.5577392578125,
            154.09945678710938
          ],
          [
            395.1959228515625,
            154.81954956054688
          ],
          [
            401.3146057128906,
            153.37936401367188
          ],
          [
            408.1531677246094,
            151.93917846679688
          ],
          [
            416.79132080078125,
            150.85903930664062
          ],
          [
            427.5890197753906,
            149.41888427734375
          ],
          [
            432.2680358886719,
            148.3387451171875
          ],
          [
            445.585205078125,
            146.53851318359375
          ],
          [
            461.78173828125,
            146.53851318359375
          ],
          [
            475.0989074707031,
            147.97869873046875
          ],
          [
            487.69622802734375,
            150.13894653320312
          ],
          [
            499.5736999511719,
            151.93917846679688
          ],
          [
            508.93170166015625,
            152.65927124023438
          ],
          [
            513.2507934570312,
            153.37936401367188
          ],
          [
            529.08740234375,
            155.17959594726562
          ],
          [
            543.1244506835938,
            157.33987426757812
          ],
          [
            557.8812866210938,
            159.14010620117188
          ],
          [
            569.0389404296875,
            160.58029174804688
          ],
          [
            577.6770629882812,
            162.74053955078125
          ],
          [
            584.515625,
            165.62091064453125
          ],
          [
            593.15380859375,
            165.98095703125
          ],
          [
            618.3484497070312,
            167.78118896484375
          ],
          [
            635.9846801757812,
            170.66156005859375
          ],
          [
            652.9010620117188,
            173.90194702148438
          ],
          [
            661.899169921875,
            177.14236450195312
          ],
          [
            668.3778076171875,
            178.94259643554688
          ],
          [
            699.3311767578125,
            183.62319946289062
          ],
          [
            733.1640014648438,
            192.62432861328125
          ],
          [
            738.9227905273438,
            196.22479248046875
          ],
          [
            743.601806640625,
            199.10513305664062
          ],
          [
            748.6406860351562,
            200.54531860351562
          ],
          [
            756.9189453125,
            200.54531860351562
          ],
          [
            767.7166748046875,
            200.54531860351562
          ],
          [
            773.115478515625,
            201.26541137695312
          ],
          [
            775.2750244140625,
            203.42568969726562
          ],
          [
            778.1544189453125,
            208.46630859375
          ],
          [
            781.3937377929688,
            212.0667724609375
          ],
          [
            784.2731323242188,
            213.5069580078125
          ],
          [
            787.8723754882812,
            213.5069580078125
          ],
          [
            794.3509521484375,
            213.14691162109375
          ],
          [
            803.3490600585938,
            213.14691162109375
          ],
          [
            778.874267578125,
            240.15032958984375
          ],
          [
            775.6349487304688,
            239.43023681640625
          ],
          [
            767.7166748046875,
            246.99118041992188
          ],
          [
            759.0784912109375,
            254.91217041015625
          ],
          [
            747.9208374023438,
            265.353515625
          ],
          [
            741.4422607421875,
            271.8343200683594
          ],
          [
            727.0452880859375,
            286.23614501953125
          ],
          [
            726.6853637695312,
            289.8365783691406
          ],
          [
            714.447998046875,
            303.87835693359375
          ],
          [
            714.8079223632812,
            307.1187744140625
          ],
          [
            709.4090576171875,
            313.2395324707031
          ],
          [
            702.2105712890625,
            321.880615234375
          ],
          [
            702.5704956054688,
            326.56121826171875
          ],
          [
            700.7708740234375,
            329.08154296875
          ],
          [
            697.8914794921875,
            328.3614501953125
          ],
          [
            695.7319946289062,
            330.521728515625
          ],
          [
            675.21630859375,
            338.8027648925781
          ],
          [
            660.8193969726562,
            343.123291015625
          ],
          [
            647.5022583007812,
            348.52398681640625
          ],
          [
            638.504150390625,
            353.20458984375
          ],
          [
            629.1461181640625,
            359.3253479003906
          ],
          [
            607.91064453125,
            375.52740478515625
          ],
          [
            605.3911743164062,
            377.32763671875
          ],
          [
            597.472900390625,
            383.4483947753906
          ],
          [
            585.2354736328125,
            392.8095703125
          ],
          [
            580.5564575195312,
            396.77008056640625
          ],
          [
            570.1187133789062,
            409.3716735839844
          ],
          [
            556.801513671875,
            423.4134521484375
          ],
          [
            535.5660400390625,
            443.2159423828125
          ],
          [
            531.6068725585938,
            447.17645263671875
          ],
          [
            522.2489013671875,
            454.3773498535156
          ],
          [
            519.0095825195312,
            457.2576904296875
          ],
          [
            513.9706420898438,
            462.29833984375
          ],
          [
            513.6107177734375,
            462.65838623046875
          ],
          [
            504.2527160644531,
            471.2994689941406
          ],
          [
            503.5328674316406,
            472.0195617675781
          ],
          [
            498.1340026855469,
            476.3401184082031
          ],
          [
            492.375244140625,
            480.66064453125
          ],
          [
            492.01531982421875,
            480.66064453125
          ],
          [
            490.57562255859375,
            481.74078369140625
          ],
          [
            480.1378479003906,
            489.66180419921875
          ],
          [
            471.8595886230469,
            495.0624694824219
          ],
          [
            460.70196533203125,
            498.6629333496094
          ],
          [
            457.8226013183594,
            499.7430725097656
          ],
          [
            440.5462646484375,
            504.0636291503906
          ],
          [
            434.4275817871094,
            504.78369140625
          ],
          [
            433.7077331542969,
            505.14373779296875
          ],
          [
            431.5481872558594,
            505.5037841796875
          ],
          [
            428.6687927246094,
            505.5037841796875
          ],
          [
            425.0695495605469,
            505.5037841796875
          ],
          [
            416.07147216796875,
            506.223876953125
          ],
          [
            414.99169921875,
            506.223876953125
          ],
          [
            402.7543029785156,
            508.02410888671875
          ],
          [
            394.83599853515625,
            507.6640625
          ],
          [
            378.6394348144531,
            503.70355224609375
          ],
          [
            374.32037353515625,
            502.6234130859375
          ],
          [
            366.761962890625,
            500.4631652832031
          ],
          [
            353.0848693847656,
            495.0624694824219
          ],
          [
            334.3688659667969,
            489.66180419921875
          ],
          [
            334.0089416503906,
            489.3017578125
          ],
          [
            323.5711364746094,
            486.78143310546875
          ],
          [
            321.77154541015625,
            486.06134033203125
          ],
          [
            320.33184814453125,
            485.7012939453125
          ],
          [
            315.29290771484375,
            484.2611083984375
          ],
          [
            299.4562683105469,
            479.9405517578125
          ],
          [
            295.8570556640625,
            478.8604431152344
          ],
          [
            294.4173583984375,
            478.5003967285156
          ],
          [
            285.0593566894531,
            475.9800720214844
          ],
          [
            281.1001892089844,
            474.8999328613281
          ],
          [
            276.7810974121094,
            473.8197937011719
          ],
          [
            273.9017333984375,
            473.0997009277344
          ],
          [
            270.66241455078125,
            472.379638671875
          ],
          [
            256.6253967285156,
            469.499267578125
          ],
          [
            244.38800048828125,
            466.618896484375
          ],
          [
            242.58837890625,
            466.25885009765625
          ],
          [
            230.35098266601562,
            464.09857177734375
          ],
          [
            224.23228454589844,
            463.0184326171875
          ],
          [
            213.0746612548828,
            460.49810791015625
          ]
        ],
        "sourceCrsEpsg": 32632,
        "sourceCrsWkt": "PROJCS[\"WGS_1984_UTM_Zone_32N\",GEOGCS[\"GCS_WGS_1984\",DATUM[\"D_WGS_1984\",SPHEROID[\"WGS_1984\",6378137.0,298.257223563]],PRIMEM[\"Greenwich\",0.0],UNIT[\"Degree\",0.0174532925199433]],PROJECTION[\"Transverse_Mercator\"],PARAMETER[\"False_Easting\",500000.0],PARAMETER[\"False_Northing\",0.0],PARAMETER[\"Central_Meridian\",9.0],PARAMETER[\"Scale_Factor\",0.9996],PARAMETER[\"Latitude_Of_Origin\",0.0],UNIT[\"Meter\",1.0]]",
        "sourceControlPointMaxResidualMeters": 0.32085106418361614,
        "sourceControlPointsLatLon": [
          [
            35.61174,
            10.98032
          ],
          [
            35.6447,
            10.98114
          ],
          [
            35.64374,
            11.03894
          ],
          [
            35.61077,
            11.0381
          ]
        ],
        "sourceLocalControlPoints": [
          [
            0.0,
            1.0
          ],
          [
            0.0,
            0.0
          ],
          [
            1.0,
            0.0
          ],
          [
            1.0,
            1.0
          ]
        ],
        "sourceViewportBBox": [
          4.31908,
          590.46173,
          841.50095,
          5.38791
        ],
        "sourcePageTransformationMatrix": [
          1.0,
          0.0,
          0.0,
          -1.0,
          0.0,
          595.5023803710938
        ],
        "sourceAffineMetersFromPagePoints": [
          [
            6.254404802685647,
            -7.97662263352125e-05
          ],
          [
            -0.000727733277471998,
            -6.252782655174087
          ],
          [
            679337.388510424,
            3946381.024358182
          ]
        ],
        "sourceClipPaths": [
          {
            "type": "Polygon",
            "coordinates": [
              [
                [
                  0.0,
                  0.0
                ],
                [
                  841.8609008789062,
                  0.0
                ],
                [
                  841.8609008789062,
                  596.2352294921875
                ],
                [
                  0.0,
                  596.2352294921875
                ],
                [
                  0.0,
                  0.0
                ]
              ]
            ]
          },
          {
            "type": "Polygon",
            "coordinates": [
              [
                [
                  4.319079875946045,
                  5.0406494140625
                ],
                [
                  841.8609008789062,
                  5.0406494140625
                ],
                [
                  841.8609008789062,
                  590.4745483398438
                ],
                [
                  4.319079875946045,
                  590.4745483398438
                ],
                [
                  4.319079875946045,
                  5.0406494140625
                ]
              ]
            ]
          }
        ],
        "sourceClipReview": {
          "explicitlyClosed": true,
          "activeClipCount": 2,
          "outsideActiveClipsAreaPoints2": [
            0.0,
            0.0
          ],
          "outsideViewportAreaPoints2": 0.0,
          "distanceFromViewportPoints": 38.15187883377075
        },
        "visualReview": "Complete North1 ring identified by its title, distinct northern/coastal footprint and shared border with North2. The neighboring North2 label on this page is displaced across the divider; it is not used as a ring-identity test.",
        "matchingNumberedPageLabels": [
          {
            "text": "1 اﻟﺑﻘﺎﻟطﺔ اﻟﺷﻣﺎﻟﯾﺔ",
            "normalizedForward": "1البقالطةالشمالية",
            "normalizedReverse": "ةيلامشلاةطلاقبلا1",
            "colors": [
              15073280
            ],
            "bounds": [
              176.72239685058594,
              192.5795440673828,
              371.4988098144531,
              245.86410522460938
            ],
            "point": [
              274.11060333251953,
              219.2218246459961
            ]
          },
          {
            "text": "1 اﻟﺑﻘﺎﻟطﺔ اﻟﺷﻣﺎﻟﯾﺔ",
            "normalizedForward": "1البقالطةالشمالية",
            "normalizedReverse": "ةيلامشلاةطلاقبلا1",
            "colors": [
              15073280
            ],
            "bounds": [
              691.4129028320312,
              36.847808837890625,
              858.4664916992188,
              82.52029418945312
            ],
            "point": [
              774.939697265625,
              59.684051513671875
            ]
          }
        ],
        "validation": {
          "valid": true,
          "countryFullyContains": true,
          "noRepairSnappingBufferClippingOrSimplification": true
        }
      },
      "geometry": {
        "type": "Polygon",
        "coordinates": [
          [
            [
              10.994910903957782,
              35.61880241401844
            ],
            [
              10.994964644615989,
              35.61896388017093
            ],
            [
              10.995123840254893,
              35.619367136178184
            ],
            [
              10.995308894675686,
              35.61981055460772
            ],
            [
              10.995315485791458,
              35.62007427801015
            ],
            [
              10.995228786988747,
              35.62058308404726
            ],
            [
              10.994912918260333,
              35.621866890026595
            ],
            [
              10.99454583156418,
              35.62309065945627
            ],
            [
              10.993912034004014,
              35.62458267750283
            ],
            [
              10.993530734964684,
              35.6252384279713
            ],
            [
              10.993270107410888,
              35.62575011335241
            ],
            [
              10.992690544364832,
              35.62642943783443
            ],
            [
              10.990601425063106,
              35.62837171775254
            ],
            [
              10.989727715152652,
              35.629218251867954
            ],
            [
              10.989189699343056,
              35.629572156020174
            ],
            [
              10.988209500110504,
              35.63013631206466
            ],
            [
              10.987399171069631,
              35.630535298288
            ],
            [
              10.986295724627134,
              35.63114206396831
            ],
            [
              10.985092368452678,
              35.631730172987616
            ],
            [
              10.984158781340156,
              35.63217175884307
            ],
            [
              10.983469620374652,
              35.63244695228709
            ],
            [
              10.98592854508036,
              35.63636387799877
            ],
            [
              10.986295612385854,
              35.63712901889931
            ],
            [
              10.987161772316664,
              35.63697265677279
            ],
            [
              10.988149642045963,
              35.636712801953294
            ],
            [
              10.989805372273269,
              35.636320130606975
            ],
            [
              10.990330220574341,
              35.636433219671005
            ],
            [
              10.990681132106467,
              35.6365491822015
            ],
            [
              10.990930627524342,
              35.63658564420314
            ],
            [
              10.991358616135592,
              35.63680180513691
            ],
            [
              10.991630935392795,
              35.636756708826724
            ],
            [
              10.992393633228014,
              35.63643966156427
            ],
            [
              10.993251156339749,
              35.63593838759198
            ],
            [
              10.993915969684645,
              35.635683836502736
            ],
            [
              10.994162927427412,
              35.63561885997724
            ],
            [
              10.99438858632008,
              35.63569630110938
            ],
            [
              10.995382503092772,
              35.63567982451697
            ],
            [
              10.996054918198851,
              35.635729555536344
            ],
            [
              10.99712947136564,
              35.6359552641459
            ],
            [
              10.997606152546451,
              35.63613000500909
            ],
            [
              10.998035681575113,
              35.63640699894257
            ],
            [
              10.998525071632194,
              35.63708889228664
            ],
            [
              10.997791305976554,
              35.63756785414215
            ],
            [
              10.997972356627907,
              35.63784897481512
            ],
            [
              10.99840697660202,
              35.63832883020094
            ],
            [
              10.998486096194041,
              35.638510168997726
            ],
            [
              10.999228059419892,
              35.63935022197956
            ],
            [
              10.999586623388096,
              35.63977045211151
            ],
            [
              10.999445599802147,
              35.63910307055022
            ],
            [
              10.999827417459084,
              35.63846759023091
            ],
            [
              11.000804576964512,
              35.63778162193894
            ],
            [
              11.001539852344097,
              35.637363501088394
            ],
            [
              11.00235119195961,
              35.63700499267968
            ],
            [
              11.003090018995113,
              35.6367288666263
            ],
            [
              11.004101655746146,
              35.636427896532204
            ],
            [
              11.005656879882128,
              35.63599609259716
            ],
            [
              11.006599057113542,
              35.63589920670682
            ],
            [
              11.006847535681406,
              35.63589506311099
            ],
            [
              11.007319132374443,
              35.635866902690644
            ],
            [
              11.007914459370388,
              35.63581638123284
            ],
            [
              11.008338912406948,
              35.635890477051525
            ],
            [
              11.008813063956774,
              35.63596374173949
            ],
            [
              11.009410942605681,
              35.636014643866524
            ],
            [
              11.010158420030463,
              35.63608333712947
            ],
            [
              11.010482975622544,
              35.63613879930327
            ],
            [
              11.011404901399299,
              35.636224866547266
            ],
            [
              11.012523051576094,
              35.63620617164732
            ],
            [
              11.013440372519606,
              35.636109647952885
            ],
            [
              11.014306971193971,
              35.63597337866842
            ],
            [
              11.015124383477824,
              35.63585821982725
            ],
            [
              11.015769396877996,
              35.63580682752272
            ],
            [
              11.016066544032775,
              35.63576126025133
            ],
            [
              11.017157272782057,
              35.63564150835327
            ],
            [
              11.0181232511207,
              35.635503544127054
            ],
            [
              11.019139429875937,
              35.635385024571015
            ],
            [
              11.01990764835092,
              35.63529095350152
            ],
            [
              11.020500901305056,
              35.63515922776509
            ],
            [
              11.020968891957757,
              35.63498901179774
            ],
            [
              11.021564714475769,
              35.634958709352176
            ],
            [
              11.02330145096224,
              35.63482804799378
            ],
            [
              11.024514845163361,
              35.63464528325726
            ],
            [
              11.025678024100772,
              35.63444305871707
            ],
            [
              11.026294565899414,
              35.63425002692956
            ],
            [
              11.026739236590828,
              35.63414106538696
            ],
            [
              11.028869364095284,
              35.63384134079202
            ],
            [
              11.031192056247942,
              35.63329479469215
            ],
            [
              11.031584438793429,
              35.63308522477846
            ],
            [
              11.031903312681148,
              35.6329174857851
            ],
            [
              11.0322490937658,
              35.63283046838897
            ],
            [
              11.032820563500705,
              35.63282081637894
            ],
            [
              11.03356595839883,
              35.6328082227299
            ],
            [
              11.03393761744701,
              35.632761352470744
            ],
            [
              11.034083593994039,
              35.632637117407235
            ],
            [
              11.03427512621846,
              35.63234975680448
            ],
            [
              11.03449357184368,
              35.632143117700544
            ],
            [
              11.034690273239567,
              35.632058613612756
            ],
            [
              11.034938735609412,
              35.63205441246282
            ],
            [
              11.035386480891393,
              35.63206713504687
            ],
            [
              11.036007636516446,
              35.63205662761999
            ],
            [
              11.034279316476383,
              35.6305637620126
            ],
            [
              11.03405673839615,
              35.63060811349987
            ],
            [
              11.033499281015835,
              35.63019134872798
            ],
            [
              11.032891617387087,
              35.62975513471625
            ],
            [
              11.032106426927692,
              35.62917985103456
            ],
            [
              11.03164991965112,
              35.628822256596926
            ],
            [
              11.030635464164895,
              35.62802759359776
            ],
            [
              11.030605458415726,
              35.627825155054225
            ],
            [
              11.029740614550109,
              35.62704825425097
            ],
            [
              11.029760816737582,
              35.6268652615799
            ],
            [
              11.029379378490477,
              35.62652668658838
            ],
            [
              11.028870111704494,
              35.626048202653095
            ],
            [
              11.028888253345835,
              35.62578406613843
            ],
            [
              11.028760422441087,
              35.62564415837443
            ],
            [
              11.028562698682038,
              35.62568808058333
            ],
            [
              11.028410543853916,
              35.62556887709051
            ],
            [
              11.026982568789796,
              35.62512615998322
            ],
            [
              11.025982625880657,
              35.624899462534856
            ],
            [
              11.025055676681632,
              35.62461064272151
            ],
            [
              11.02442788659771,
              35.62435737331986
            ],
            [
              11.023773199353288,
              35.624023375798465
            ],
            [
              11.022284286183666,
              35.62313514318262
            ],
            [
              11.022107811303881,
              35.62303663478848
            ],
            [
              11.021552522544136,
              35.62270095473907
            ],
            [
              11.020694491531795,
              35.622187702850326
            ],
            [
              11.020365880124457,
              35.62196997770552
            ],
            [
              11.019627465910935,
              35.621272057437324
            ],
            [
              11.018688265252106,
              35.62049632127883
            ],
            [
              11.017194347389717,
              35.61940516157213
            ],
            [
              11.016915441834824,
              35.619186593517256
            ],
            [
              11.016259294462985,
              35.618791693919874
            ],
            [
              11.016031614963811,
              35.618633151530204
            ],
            [
              11.015676651927864,
              35.61835497017825
            ],
            [
              11.015651297519291,
              35.6183351000381
            ],
            [
              11.014993113324278,
              35.61785904839323
            ],
            [
              11.014942405169313,
              35.61781930779479
            ],
            [
              11.014563631082078,
              35.617582111117144
            ],
            [
              11.014160019355568,
              35.61734533055967
            ],
            [
              11.01413517735155,
              35.61734574626422
            ],
            [
              11.014034274266306,
              35.61728655045745
            ],
            [
              11.013302605521837,
              35.61685230658157
            ],
            [
              11.012723572352568,
              35.61655757088596
            ],
            [
              11.011948367510124,
              35.61636758368372
            ],
            [
              11.011748102441063,
              35.616310046745646
            ],
            [
              11.010549571923804,
              35.61608653552491
            ],
            [
              11.010126244259641,
              35.61605301813234
            ],
            [
              11.010076050262526,
              35.616033561602
            ],
            [
              11.009926489663723,
              35.61601576437439
            ],
            [
              11.00972775638891,
              35.61601908277783
            ],
            [
              11.009479339749731,
              35.61602323032157
            ],
            [
              11.008857279323614,
              35.6159930243861
            ],
            [
              11.008782754321512,
              35.61599426816376
            ],
            [
              11.00793558880499,
              35.61590692969636
            ],
            [
              11.00738958438352,
              35.6159363317072
            ],
            [
              11.00627731751564,
              35.61617811907467
            ],
            [
              11.005980747327376,
              35.61624394639975
            ],
            [
              11.00546212664782,
              35.616374355565256
            ],
            [
              11.004525777679804,
              35.616694374878634
            ],
            [
              11.0032416340887,
              35.61702017422113
            ],
            [
              11.003217300969583,
              35.6170408739985
            ],
            [
              11.002500441935798,
              35.61719486618617
            ],
            [
              11.002377250844864,
              35.617237505269394
            ],
            [
              11.002278390958203,
              35.61725944467322
            ],
            [
              11.001932635216633,
              35.61734637513167
            ],
            [
              11.000845680767197,
              35.6176079865922
            ],
            [
              11.000598784828336,
              35.61767297330074
            ],
            [
              11.000499923853912,
              35.61769491127586
            ],
            [
              10.999857582278935,
              35.61784764932443
            ],
            [
              10.999585840249214,
              35.61791304851892
            ],
            [
              10.999289255323365,
              35.61797885976364
            ],
            [
              10.999091533857346,
              35.61802273349428
            ],
            [
              10.99886896755144,
              35.61806701778655
            ],
            [
              10.997904174375194,
              35.61824539487689
            ],
            [
              10.997063589545602,
              35.618421703469004
            ],
            [
              10.996939883946002,
              35.61844405076991
            ],
            [
              10.996098280246692,
              35.61857977993896
            ],
            [
              10.995677477226666,
              35.618647642350695
            ],
            [
              10.994910903957782,
              35.61880241401844
            ]
          ]
        ]
      }
    },
    {
      "type": "Feature",
      "id": "bekalta-north-2",
      "properties": {
        "circleId": "bekalta-north-2",
        "circleNameAr": "البقالطة الشمالية 2",
        "parentImadaCode": "325951",
        "sourcePdfURL": "https://www.isie.tn/wp-content/uploads/2023/CartesCirconscriptionsElectoralesLocales2023/%D8%A7%D9%84%D9%85%D9%86%D8%B3%D8%AA%D9%8A%D8%B1/%D8%A7%D9%84%D8%A8%D9%82%D8%A7%D9%84%D8%B7%D8%A9/%D8%A7%D9%84%D8%A8%D9%82%D8%A7%D9%84%D8%B7%D8%A9%20%D8%A7%D9%84%D8%B4%D9%85%D8%A7%D9%84%D9%8A%D8%A9%20%282%29.pdf",
        "sourcePdfSha256": "c2f5d298778222de1ef8a4cd19b41c58653b8a247c6d7197c1d653eb80018252",
        "sourcePdfFile": "work/isie-sector-maps-next-conflicts/bekalta-north-detail.pdf",
        "sourcePdfPage": 1,
        "sourceDrawingIndex": 146,
        "sourceVectorLayer": "circonscription_isie2023",
        "sourceGeometrySha256": "8c9d7948345a1201e02abbeff2ab5008e595154590cde720aed9270944bd615e",
        "sourceGeometryVertices": 88,
        "sourcePageVertices": [
          [
            396.6356201171875,
            55.08697509765625
          ],
          [
            411.3924560546875,
            62.28790283203125
          ],
          [
            432.6279602050781,
            74.16937255859375
          ],
          [
            459.6222229003906,
            89.65133666992188
          ],
          [
            484.4569091796875,
            105.49331665039062
          ],
          [
            503.1729431152344,
            116.294677734375
          ],
          [
            524.768310546875,
            130.69650268554688
          ],
          [
            537.0057373046875,
            140.05767822265625
          ],
          [
            556.801513671875,
            162.74053955078125
          ],
          [
            604.3114013671875,
            214.9471435546875
          ],
          [
            617.988525390625,
            233.3094482421875
          ],
          [
            623.7472534179688,
            246.99118041992188
          ],
          [
            632.3854370117188,
            264.9934387207031
          ],
          [
            647.5022583007812,
            304.59844970703125
          ],
          [
            656.140380859375,
            338.0826721191406
          ],
          [
            664.0587158203125,
            373.007080078125
          ],
          [
            666.5781860351562,
            386.6888122558594
          ],
          [
            666.21826171875,
            394.249755859375
          ],
          [
            662.6190185546875,
            406.1312561035156
          ],
          [
            659.019775390625,
            416.9326171875
          ],
          [
            657.9400024414062,
            421.253173828125
          ],
          [
            642.8232421875,
            420.17303466796875
          ],
          [
            636.3446044921875,
            420.89312744140625
          ],
          [
            620.867919921875,
            429.5342102050781
          ],
          [
            613.66943359375,
            433.1346740722656
          ],
          [
            598.91259765625,
            441.0556640625
          ],
          [
            578.3969116210938,
            451.8570251464844
          ],
          [
            542.044677734375,
            471.6595458984375
          ],
          [
            536.285888671875,
            474.8999328613281
          ],
          [
            535.2061157226562,
            475.6200256347656
          ],
          [
            542.044677734375,
            482.46087646484375
          ],
          [
            544.2042236328125,
            484.62115478515625
          ],
          [
            544.5641479492188,
            484.62115478515625
          ],
          [
            523.6885986328125,
            493.26226806640625
          ],
          [
            523.3286743164062,
            493.26226806640625
          ],
          [
            521.8889770507812,
            493.9823303222656
          ],
          [
            515.4103393554688,
            497.2227478027344
          ],
          [
            515.0504150390625,
            497.2227478027344
          ],
          [
            499.5736999511719,
            505.86383056640625
          ],
          [
            441.26611328125,
            534.66748046875
          ],
          [
            428.6687927246094,
            540.7882690429688
          ],
          [
            404.5539245605469,
            554.8300170898438
          ],
          [
            346.246337890625,
            563.4711303710938
          ],
          [
            314.57305908203125,
            533.227294921875
          ],
          [
            258.0650939941406,
            492.9022216796875
          ],
          [
            216.31396484375,
            463.0184326171875
          ],
          [
            184.64071655273438,
            452.5771179199219
          ],
          [
            179.2418670654297,
            409.3716735839844
          ],
          [
            190.03956604003906,
            397.130126953125
          ],
          [
            195.79833984375,
            398.5703125
          ],
          [
            205.87620544433594,
            372.64703369140625
          ],
          [
            226.0319061279297,
            330.521728515625
          ],
          [
            229.63113403320312,
            321.880615234375
          ],
          [
            218.83343505859375,
            312.1593933105469
          ],
          [
            224.95213317871094,
            296.6774597167969
          ],
          [
            226.0319061279297,
            291.9968566894531
          ],
          [
            228.55137634277344,
            287.6763000488281
          ],
          [
            231.43075561523438,
            283.7158203125
          ],
          [
            232.87045288085938,
            280.83544921875
          ],
          [
            234.67007446289062,
            277.59503173828125
          ],
          [
            233.95022583007812,
            272.5544128417969
          ],
          [
            231.07083129882812,
            267.5137634277344
          ],
          [
            231.79067993164062,
            263.1932373046875
          ],
          [
            233.59030151367188,
            257.07244873046875
          ],
          [
            246.1876220703125,
            235.4697265625
          ],
          [
            252.3063201904297,
            231.8692626953125
          ],
          [
            262.0242614746094,
            225.38845825195312
          ],
          [
            269.22271728515625,
            222.86813354492188
          ],
          [
            283.2597351074219,
            237.99005126953125
          ],
          [
            295.8570556640625,
            227.54873657226562
          ],
          [
            291.89788818359375,
            218.54757690429688
          ],
          [
            293.697509765625,
            217.46746826171875
          ],
          [
            311.6936950683594,
            205.94601440429688
          ],
          [
            316.3726806640625,
            205.22592163085938
          ],
          [
            324.2909851074219,
            199.10513305664062
          ],
          [
            328.6100769042969,
            200.18527221679688
          ],
          [
            332.5692443847656,
            196.94488525390625
          ],
          [
            333.6490173339844,
            193.7044677734375
          ],
          [
            343.72686767578125,
            181.46292114257812
          ],
          [
            345.5264892578125,
            176.42227172851562
          ],
          [
            352.0050964355469,
            172.10174560546875
          ],
          [
            357.0440368652344,
            175.70217895507812
          ],
          [
            374.32037353515625,
            158.42001342773438
          ],
          [
            359.9234313964844,
            145.81842041015625
          ],
          [
            342.6470947265625,
            126.73602294921875
          ],
          [
            307.7345275878906,
            94.3319091796875
          ],
          [
            372.520751953125,
            31.68402099609375
          ],
          [
            396.6356201171875,
            55.08697509765625
          ]
        ],
        "sourceCrsEpsg": 32632,
        "sourceCrsWkt": "PROJCS[\"WGS_1984_UTM_Zone_32N\",GEOGCS[\"GCS_WGS_1984\",DATUM[\"D_WGS_1984\",SPHEROID[\"WGS_1984\",6378137.0,298.257223563]],PRIMEM[\"Greenwich\",0.0],UNIT[\"Degree\",0.0174532925199433]],PROJECTION[\"Transverse_Mercator\"],PARAMETER[\"False_Easting\",500000.0],PARAMETER[\"False_Northing\",0.0],PARAMETER[\"Central_Meridian\",9.0],PARAMETER[\"Scale_Factor\",0.9996],PARAMETER[\"Latitude_Of_Origin\",0.0],UNIT[\"Meter\",1.0]]",
        "sourceControlPointMaxResidualMeters": 0.22829289759060906,
        "sourceControlPointsLatLon": [
          [
            35.6131,
            10.96535
          ],
          [
            35.63458,
            10.96588
          ],
          [
            35.63396,
            11.00355
          ],
          [
            35.61248,
            11.00302
          ]
        ],
        "sourceLocalControlPoints": [
          [
            0.0,
            1.0
          ],
          [
            0.0,
            0.0
          ],
          [
            1.0,
            0.0
          ],
          [
            1.0,
            1.0
          ]
        ],
        "sourceViewportBBox": [
          4.31908,
          590.46173,
          841.50095,
          5.38791
        ],
        "sourcePageTransformationMatrix": [
          1.0,
          0.0,
          0.0,
          -1.0,
          0.0,
          595.5023803710938
        ],
        "sourceAffineMetersFromPagePoints": [
          [
            4.0770374012864785,
            9.590952415881612e-05
          ],
          [
            0.00014534807769450708,
            -4.07423583389027
          ],
          [
            677987.347361655,
            3945219.394368721
          ]
        ],
        "sourceClipPaths": [
          {
            "type": "Polygon",
            "coordinates": [
              [
                [
                  0.0,
                  0.0
                ],
                [
                  841.8609008789062,
                  0.0
                ],
                [
                  841.8609008789062,
                  596.2352294921875
                ],
                [
                  0.0,
                  596.2352294921875
                ],
                [
                  0.0,
                  0.0
                ]
              ]
            ]
          },
          {
            "type": "Polygon",
            "coordinates": [
              [
                [
                  4.319079875946045,
                  5.0406494140625
                ],
                [
                  841.8609008789062,
                  5.0406494140625
                ],
                [
                  841.8609008789062,
                  590.4745483398438
                ],
                [
                  4.319079875946045,
                  590.4745483398438
                ],
                [
                  4.319079875946045,
                  5.0406494140625
                ]
              ]
            ]
          }
        ],
        "sourceClipReview": {
          "explicitlyClosed": true,
          "activeClipCount": 2,
          "outsideActiveClipsAreaPoints2": [
            0.0,
            0.0
          ],
          "outsideViewportAreaPoints2": 0.0,
          "distanceFromViewportPoints": 26.643310546875004
        },
        "visualReview": "Complete North2 ring identified by its title, interior numbered label and southwestern footprint, east of the Teboulba boundary and north of Bekalta South.",
        "matchingNumberedPageLabels": [
          {
            "text": "2 ﺔﯾﻟﺎﻣﺷﻟا ﺔطﻟﺎﻘﺑﻟا",
            "normalizedForward": "2ةيلامشلاةطلاقبلا",
            "normalizedReverse": "البقالطةالشمالية2",
            "colors": [
              15073280
            ],
            "bounds": [
              223.51243591308594,
              331.197021484375,
              418.28887939453125,
              384.4815979003906
            ],
            "point": [
              320.9006576538086,
              357.8393096923828
            ]
          },
          {
            "text": "2 ﺔﯾﻟﺎﻣﺷﻟا ﺔطﻟﺎﻘﺑﻟا",
            "normalizedForward": "2ةيلامشلاةطلاقبلا",
            "normalizedReverse": "البقالطةالشمالية2",
            "colors": [
              15073280
            ],
            "bounds": [
              691.4129028320312,
              36.847808837890625,
              858.4664916992188,
              82.52029418945312
            ],
            "point": [
              774.939697265625,
              59.684051513671875
            ]
          }
        ],
        "validation": {
          "valid": true,
          "countryFullyContains": true,
          "noRepairSnappingBufferClippingOrSimplification": true
        }
      },
      "geometry": {
        "type": "Polygon",
        "coordinates": [
          [
            [
              10.983487406667178,
              35.63245356674133
            ],
            [
              10.984144957916927,
              35.63217826962735
            ],
            [
              10.985089807617989,
              35.6317263309805
            ],
            [
              10.98629052784314,
              35.63113793014002
            ],
            [
              10.987393722350413,
              35.63053790252213
            ],
            [
              10.988226138619876,
              35.63012746348036
            ],
            [
              10.98918484477908,
              35.629582696746674
            ],
            [
              10.989727017778224,
              35.62922993134541
            ],
            [
              10.990597196892912,
              35.62838246739159
            ],
            [
              10.992687584153368,
              35.626430483524366
            ],
            [
              10.993286312034328,
              35.625746172929226
            ],
            [
              10.993532987017673,
              35.62523958976653
            ],
            [
              10.993905292090497,
              35.62457224361701
            ],
            [
              10.994549435748976,
              35.623106970455076
            ],
            [
              10.994907622468759,
              35.621871230786354
            ],
            [
              10.995232101131112,
              35.62058315242658
            ],
            [
              10.995333002311991,
              35.620078977760905
            ],
            [
              10.995309922034162,
              35.619801660090566
            ],
            [
              10.995137158785875,
              35.61936813311261
            ],
            [
              10.994965380995469,
              35.618974261066555
            ],
            [
              10.994912864534534,
              35.61881644378181
            ],
            [
              10.994233695024798,
              35.61886735010512
            ],
            [
              10.993941544281478,
              35.618845733966126
            ],
            [
              10.993237335790113,
              35.61854000584887
            ],
            [
              10.992910178242477,
              35.61841317503711
            ],
            [
              10.99223902011399,
              35.618133342385875
            ],
            [
              10.99130614188163,
              35.61775203751854
            ],
            [
              10.989652571466031,
              35.61705202277172
            ],
            [
              10.989390527583717,
              35.61693733272433
            ],
            [
              10.989341292281752,
              35.61691169729117
            ],
            [
              10.989642763630442,
              35.61665547089473
            ],
            [
              10.989737964701014,
              35.616574556795975
            ],
            [
              10.989754158471227,
              35.61657428957642
            ],
            [
              10.98880707930571,
              35.61627254119367
            ],
            [
              10.988790885587001,
              35.616272808283995
            ],
            [
              10.98872545719598,
              35.61624744078538
            ],
            [
              10.988431029807005,
              35.616133281541984
            ],
            [
              10.988414836112666,
              35.61613354858087
            ],
            [
              10.987710670026582,
              35.61582778658109
            ],
            [
              10.98506121179299,
              35.61481352379552
            ],
            [
              10.984488898944006,
              35.6145981379068
            ],
            [
              10.983391232908104,
              35.614100468215675
            ],
            [
              10.98076010646872,
              35.6138263430342
            ],
            [
              10.979362414819457,
              35.61496009872591
            ],
            [
              10.976856410693639,
              35.616482280533006
            ],
            [
              10.975004858682908,
              35.61761020279471
            ],
            [
              10.973589183728974,
              35.61801687405663
            ],
            [
              10.973385183879945,
              35.619607076765035
            ],
            [
              10.973882047230061,
              35.620048555554
            ],
            [
              10.97413986287052,
              35.61999143918024
            ],
            [
              10.974616675017723,
              35.620935750045774
            ],
            [
              10.975561566516184,
              35.622467463230564
            ],
            [
              10.975731309791971,
              35.622782055287274
            ],
            [
              10.975254221379457,
              35.623146915896335
            ],
            [
              10.975543501161921,
              35.62371080148488
            ],
            [
              10.97559630831091,
              35.62388184678724
            ],
            [
              10.975713572641691,
              35.624038611978975
            ],
            [
              10.97584670742215,
              35.62418189196441
            ],
            [
              10.975914087246283,
              35.62428657886019
            ],
            [
              10.975997987506112,
              35.62440421885328
            ],
            [
              10.975970143294726,
              35.62458980845925
            ],
            [
              10.975845125644097,
              35.624776991641
            ],
            [
              10.975881413857113,
              35.62493508246708
            ],
            [
              10.975967913012708,
              35.625158470946744
            ],
            [
              10.976554251381959,
              35.62594229097761
            ],
            [
              10.976832828371979,
              35.62606996258996
            ],
            [
              10.977275964584319,
              35.62630072485632
            ],
            [
              10.977602155669759,
              35.62638794214465
            ],
            [
              10.978220136241625,
              35.62582240250777
            ],
            [
              10.97879641822926,
              35.626196437114274
            ],
            [
              10.97862639496019,
              35.626529824341695
            ],
            [
              10.978708350100622,
              35.626568149859146
            ],
            [
              10.979528555358069,
              35.62697784897904
            ],
            [
              10.979739752394664,
              35.62700082900005
            ],
            [
              10.980101595511188,
              35.627219692693245
            ],
            [
              10.980294971086877,
              35.627176845065165
            ],
            [
              10.98047605695868,
              35.627292884310926
            ],
            [
              10.980527575017716,
              35.62741105285868
            ],
            [
              10.9809921343658,
              35.62785303105217
            ],
            [
              10.981077674146663,
              35.62803675965556
            ],
            [
              10.981373112144704,
              35.62819059004058
            ],
            [
              10.981596601472223,
              35.62805467947651
            ],
            [
              10.982389657593037,
              35.62867638540614
            ],
            [
              10.981753209572728,
              35.629149682638676
            ],
            [
              10.980993043970125,
              35.62986303788347
            ],
            [
              10.979451270237911,
              35.63107850685329
            ],
            [
              10.982423393192166,
              35.63333061585647
            ],
            [
              10.983487406667178,
              35.63245356674133
            ]
          ]
        ]
      }
    }
  ]
}
