{
  "type": "FeatureCollection",
  "sourceId": "isie-local-sectors-2023-bennane-joufia-source-review",
  "reviewedDate": "2026-09-08",
  "status": "COMPLETE_NATIVE_WHOLE_IMADA_SOURCE_QUALIFIED_NOT_IMPORTED",
  "features": [
    {
      "type": "Feature",
      "id": "osm:relation:7109597",
      "properties": {
        "sourceId": "isie-local-sectors-2023-bennane-joufia-source-review",
        "officialCode": "326254",
        "nameAr": "بنان الجوفية",
        "nameFr": "Benen nord",
        "governorateCode": "32",
        "governorateAr": "المنستير",
        "governorateFr": "Monastir",
        "delegationCode": "3262",
        "parentAr": "قصيبة المديوني",
        "parentFr": "Ksibet el mediouni",
        "expectedOriginalTags": {
          "admin_level": "6",
          "boundary": "administrative",
          "name": "بنان الجوفية",
          "name:ar": "بنان الجوفية",
          "name:fr": "Benen Nord",
          "ref:tn:codegeo": "326254"
        },
        "sourceOriginalGeometrySha256": "2f7d89217c6fbf3d4589cbe3ca9d7314e85e2d7b416b8b73f027ea489eb48b59",
        "sourcePdfURL": "https://www.isie.tn/wp-content/uploads/2023/CartesCirconscriptionsElectoralesLocales2023/%D8%A7%D9%84%D9%85%D9%86%D8%B3%D8%AA%D9%8A%D8%B1/%D9%82%D8%B5%D9%8A%D8%A8%D8%A9%20%D8%A7%D9%84%D9%85%D8%AF%D9%8A%D9%88%D9%86%D9%8A/%D8%A8%D9%86%D8%A7%D9%86%20%D8%A7%D9%84%D8%AC%D9%88%D9%81%D9%8A%D8%A9.pdf",
        "sourcePdfSha256": "a71ec1325093efdffc05d035ee189c867389e27b9fdb3f959a7288586a665227",
        "sourcePdfFile": "work\\bembla-bennane-joufia-extra-review\\bennane-joufia.pdf",
        "sourcePdfRenderFile": "work\\bembla-bennane-joufia-extra-review\\bennane-joufia.png",
        "sourcePdfRenderSha256": "d0a51f2dbf14abd6c83703fd3caf7638df1da02fc381221ec7010fca66833576",
        "sourceMapTitleAr": "بنان الجوفية",
        "sourceDrawingIndices": [
          373
        ],
        "sourceVectorLayer": "circonscription_isie2023",
        "sourceCrsEpsg": 32632,
        "sourceCrsWkt": "PROJCS[\"WGS_1984_UTM_Zone_32N\",GEOGCS[\"GCS_WGS_1984\",DATUM[\"D_WGS_1984\",SPHEROID[\"WGS_1984\",6378137.0,298.257223563]],PRIMEM[\"Greenwich\",0.0],UNIT[\"Degree\",0.0174532925199433]],PROJECTION[\"Transverse_Mercator\"],PARAMETER[\"False_Easting\",500000.0],PARAMETER[\"False_Northing\",0.0],PARAMETER[\"Central_Meridian\",9.0],PARAMETER[\"Scale_Factor\",0.9996],PARAMETER[\"Latitude_Of_Origin\",0.0],UNIT[\"Meter\",1.0]]",
        "sourceControlPointMaxResidualMeters": 0.15019747844650422,
        "sourceControlPointsLatLon": [
          [
            35.6624,
            10.79976
          ],
          [
            35.68716,
            10.80031
          ],
          [
            35.68651,
            10.84376
          ],
          [
            35.66175,
            10.84319
          ]
        ],
        "sourceLocalControlPoints": [
          [
            0.0,
            1.0
          ],
          [
            0.0,
            0.0
          ],
          [
            1.0,
            0.0
          ],
          [
            1.0,
            1.0
          ]
        ],
        "sourceViewportBBox": [
          4.31908,
          590.46173,
          841.50095,
          5.38791
        ],
        "sourceAffineMetersFromPagePoints": [
          [
            4.698082733732236,
            0.0009893405701279592
          ],
          [
            0.0004424899643709068,
            -4.695963322368698
          ],
          [
            662884.5715481316,
            3950767.8191119796
          ]
        ],
        "sourceGeometrySha256": "4354fb8745a898459a00c8aa0f105677756c97607b4a1b7d45853c2a76ee912f",
        "reviewedDate": "2026-09-08",
        "administrativeScope": {
          "conclusion": "whole_imada",
          "officialCode": "326254",
          "pdfPage": 18,
          "jortPage": 5115,
          "imadaName": "بنان الجوفية",
          "circleName": "بنان الجوفية",
          "decree": {
            "file": "work\\electoral-circle-semantics\\decree2023-590.pdf",
            "sha256": "bfb3fe752b9900eaf873198b009968243f1b0bd2c119836cfd4fbbfc07e1e10f",
            "url": "https://www.isie.tn/wp-content/uploads/2023/09/Decret2023_590Arabe.pdf"
          },
          "reviewedRender": {
            "file": "work\\electoral-circle-semantics\\page-18.png",
            "sha256": "1f0801e5adc23c32ca4adb68002439e387ca19818c1aaafbe1fd3fd3d442d6b7"
          },
          "personallyViewed": true
        },
        "currentOfficialIdentity": {
          "governorateCode": "32",
          "governorateFr": "Monastir",
          "governorateAr": "المنستير",
          "delegationCode": "3262",
          "delegationFr": "Ksibet el mediouni",
          "delegationAr": "قصيبة المديوني",
          "sectorCode": "326254",
          "sectorFr": "Benen nord",
          "sectorAr": "بنان الجوفية",
          "sourceRows": {
            "Population_Secteur_Age_Sexe_Dynamique.xlsx": 38453,
            "Nombre_de_Logements_par_Secteurs.xlsx": 1829,
            "Nombre_de_menages_par_Secteurs.xlsx": 1825
          }
        },
        "boundaryManipulation": "None. Original complete native path transformed through its own PDF controls; no cleanup, snap, union, clipping, invented connector or hole removal.",
        "sourceQualification": "full_native_whole_imada_source_reviewed_pending_cluster_decision"
      },
      "geometry": {
        "type": "Polygon",
        "coordinates": [
          [
            [
              10.812868681993374,
              35.66726577474594
            ],
            [
              10.813508407905072,
              35.66746963905789
            ],
            [
              10.81407309634271,
              35.66765937569324
            ],
            [
              10.814562748100132,
              35.6678349857104
            ],
            [
              10.81503372586862,
              35.66801087076484
            ],
            [
              10.815034069125934,
              35.66802610780384
            ],
            [
              10.814813064558075,
              35.66816658004003
            ],
            [
              10.814776058787032,
              35.66818237373671
            ],
            [
              10.814665386157607,
              35.668244991778785
            ],
            [
              10.814647739624903,
              35.668290981234286
            ],
            [
              10.814711313605944,
              35.668625361197066
            ],
            [
              10.815003446642299,
              35.66915447981409
            ],
            [
              10.815231183837755,
              35.67014182218233
            ],
            [
              10.814765683038264,
              35.670209729649216
            ],
            [
              10.814711032616222,
              35.67027151276915
            ],
            [
              10.814737257093975,
              35.67060644924068
            ],
            [
              10.814703339224783,
              35.670759374965215
            ],
            [
              10.814200828808602,
              35.67084307403095
            ],
            [
              10.814016137778745,
              35.67093727864544
            ],
            [
              10.813650524576609,
              35.671293293282204
            ],
            [
              10.813654984065138,
              35.67149137482942
            ],
            [
              10.813568125104757,
              35.67178226817303
            ],
            [
              10.813628267603223,
              35.67196427816616
            ],
            [
              10.814379599401748,
              35.67297430589595
            ],
            [
              10.814535182358178,
              35.67324634468723
            ],
            [
              10.81463164996634,
              35.67338208630044
            ],
            [
              10.81477301990443,
              35.673852484433105
            ],
            [
              10.814783661730809,
              35.67432483094043
            ],
            [
              10.813526394334328,
              35.67490752223968
            ],
            [
              10.813437473478873,
              35.6751069932495
            ],
            [
              10.806411717344,
              35.67422069261816
            ],
            [
              10.805832303668966,
              35.67587543707836
            ],
            [
              10.804821562005586,
              35.67996006984111
            ],
            [
              10.803326204248618,
              35.68493591285619
            ],
            [
              10.804581655920234,
              35.68426190107687
            ],
            [
              10.805249975393636,
              35.68406908755349
            ],
            [
              10.806518728256911,
              35.68398929966319
            ],
            [
              10.807040008616672,
              35.683905352970754
            ],
            [
              10.807615953841065,
              35.68375962386086
            ],
            [
              10.809206526079898,
              35.68303486199139
            ],
            [
              10.809529529891252,
              35.683273935780875
            ],
            [
              10.8098484259916,
              35.683330162822685
            ],
            [
              10.810221986637409,
              35.683324608980676
            ],
            [
              10.810725264965162,
              35.68327139964594
            ],
            [
              10.811136181249173,
              35.68326528737087
            ],
            [
              10.811510769640728,
              35.68330543934053
            ],
            [
              10.812594093032043,
              35.683289315072095
            ],
            [
              10.814182065339098,
              35.68328090406483
            ],
            [
              10.814706078332915,
              35.68331882056215
            ],
            [
              10.81540025506953,
              35.68344565013723
            ],
            [
              10.815943291161274,
              35.68349851966259
            ],
            [
              10.81903231529061,
              35.68128802797857
            ],
            [
              10.819804028461855,
              35.6807125378729
            ],
            [
              10.82145045473303,
              35.67998678125265
            ],
            [
              10.821549699636389,
              35.68024441221803
            ],
            [
              10.821440737873301,
              35.68038322020583
            ],
            [
              10.821564864472037,
              35.6809148355241
            ],
            [
              10.821698019016624,
              35.68101953784752
            ],
            [
              10.821719453979059,
              35.68114115395489
            ],
            [
              10.821832895906905,
              35.6812004247764
            ],
            [
              10.821872319134991,
              35.6812912861482
            ],
            [
              10.822055585955004,
              35.681959194692205
            ],
            [
              10.822670221556583,
              35.68187378335229
            ],
            [
              10.823099806348061,
              35.68186735079792
            ],
            [
              10.82343496637285,
              35.68181660478142
            ],
            [
              10.823845526408977,
              35.6817952124279
            ],
            [
              10.824069657255645,
              35.68179185432216
            ],
            [
              10.824591937004879,
              35.681753543297695
            ],
            [
              10.825021173779765,
              35.68173186700935
            ],
            [
              10.825543108655884,
              35.68167831493988
            ],
            [
              10.82569287432257,
              35.68169131106277
            ],
            [
              10.825938099119265,
              35.68179432778706
            ],
            [
              10.826161538608204,
              35.68176049196591
            ],
            [
              10.826302303047024,
              35.68220039965699
            ],
            [
              10.826491497171665,
              35.68230425579094
            ],
            [
              10.82668242163686,
              35.68248429610662
            ],
            [
              10.827078456362798,
              35.68264601441741
            ],
            [
              10.827177031329537,
              35.682873166203464
            ],
            [
              10.827281830860915,
              35.68337458073439
            ],
            [
              10.827836976442669,
              35.6839606863302
            ],
            [
              10.828421185440137,
              35.68418054140726
            ],
            [
              10.828500396065255,
              35.68437749866923
            ],
            [
              10.828651205278168,
              35.6844362015884
            ],
            [
              10.828931720255543,
              35.684447229364004
            ],
            [
              10.829515589467984,
              35.684651844623325
            ],
            [
              10.829851796648072,
              35.68464679112266
            ],
            [
              10.82987322070139,
              35.683945336085095
            ],
            [
              10.82983134593484,
              35.68292474880437
            ],
            [
              10.829713374604733,
              35.68184433680988
            ],
            [
              10.830402707825918,
              35.68175776329584
            ],
            [
              10.83127673494332,
              35.68157695504832
            ],
            [
              10.83174887008063,
              35.68179848268122
            ],
            [
              10.831737817961661,
              35.68213397340526
            ],
            [
              10.831801823057754,
              35.68248357803358
            ],
            [
              10.832121466928513,
              35.683393288153354
            ],
            [
              10.832144998677148,
              35.683606322998486
            ],
            [
              10.832128792059036,
              35.68453633072193
            ],
            [
              10.83208107871306,
              35.68490285854742
            ],
            [
              10.832233625071586,
              35.68503774111717
            ],
            [
              10.832478519694037,
              35.68512550449636
            ],
            [
              10.832741402653722,
              35.68518251497762
            ],
            [
              10.83302122976622,
              35.68516305938753
            ],
            [
              10.833337719312693,
              35.68511256683463
            ],
            [
              10.833529012655237,
              35.68530783239047
            ],
            [
              10.833625874225072,
              35.68545879397189
            ],
            [
              10.833907781229888,
              35.685530757358926
            ],
            [
              10.835001815414643,
              35.68516370205336
            ],
            [
              10.835443837643156,
              35.68488268315363
            ],
            [
              10.83564408667507,
              35.684651032555415
            ],
            [
              10.836081937313425,
              35.68418716696356
            ],
            [
              10.836610041241217,
              35.683584762122045
            ],
            [
              10.836828266344543,
              35.68332235425323
            ],
            [
              10.837393019003823,
              35.6826889089056
            ],
            [
              10.837721913635711,
              35.6823638619399
            ],
            [
              10.838013798428708,
              35.682054613709184
            ],
            [
              10.838269717594992,
              35.681806877470635
            ],
            [
              10.8384533608726,
              35.68166692545235
            ],
            [
              10.83872864747864,
              35.681449379866784
            ],
            [
              10.838930966433043,
              35.68130914502807
            ],
            [
              10.839152657960476,
              35.68119910127512
            ],
            [
              10.839780722592783,
              35.68088477033688
            ],
            [
              10.83983640603784,
              35.68086868665637
            ],
            [
              10.84055540976935,
              35.680446281504175
            ],
            [
              10.840554713265893,
              35.68041580921425
            ],
            [
              10.840363763736978,
              35.68023579163288
            ],
            [
              10.840077689231354,
              35.679981001431045
            ],
            [
              10.840020613842238,
              35.679936139311415
            ],
            [
              10.839963541654662,
              35.67989127582314
            ],
            [
              10.839639071604505,
              35.67959133870575
            ],
            [
              10.839276554352155,
              35.67926149271803
            ],
            [
              10.839200455091486,
              35.6792016742784
            ],
            [
              10.838819264686823,
              35.678872108971724
            ],
            [
              10.83857160011747,
              35.67866246097189
            ],
            [
              10.838419751766837,
              35.67855806117757
            ],
            [
              10.83811744729312,
              35.67841020565752
            ],
            [
              10.837721065493884,
              35.678233285502316
            ],
            [
              10.837513189287215,
              35.678129729051506
            ],
            [
              10.837400086917569,
              35.67808571004794
            ],
            [
              10.837267268475724,
              35.67799626358573
            ],
            [
              10.837114727864417,
              35.67786138710163
            ],
            [
              10.836614891597845,
              35.677244005580604
            ],
            [
              10.83659552027357,
              35.67721381368829
            ],
            [
              10.836557125134409,
              35.677168666725734
            ],
            [
              10.83603653728504,
              35.67646014450253
            ],
            [
              10.836017169544409,
              35.6764299524535
            ],
            [
              10.835671274037482,
              35.676008391840554
            ],
            [
              10.835554008557526,
              35.67578152883236
            ],
            [
              10.835455419791986,
              35.67555438539201
            ],
            [
              10.835415637211879,
              35.67544829062251
            ],
            [
              10.835374813094063,
              35.67529648529126
            ],
            [
              10.835354401097756,
              35.67522058261734
            ],
            [
              10.83533121153171,
              35.67502278643848
            ],
            [
              10.835328781109638,
              35.67491612849423
            ],
            [
              10.835306633285915,
              35.67476404155483
            ],
            [
              10.835264768251,
              35.674566526893116
            ],
            [
              10.835206310724706,
              35.67446071356023
            ],
            [
              10.835050309083305,
              35.674173466842916
            ],
            [
              10.834992199273053,
              35.67408289023667
            ],
            [
              10.83487632716,
              35.673916973780145
            ],
            [
              10.834683674008657,
              35.6736607631178
            ],
            [
              10.834548086537795,
              35.67344941716679
            ],
            [
              10.834450544764431,
              35.673267981940455
            ],
            [
              10.834315305623072,
              35.67307187382981
            ],
            [
              10.83418006712901,
              35.67287576424998
            ],
            [
              10.834160350880998,
              35.67283033502173
            ],
            [
              10.834101202277141,
              35.67269404731165
            ],
            [
              10.833982211930621,
              35.67239100062617
            ],
            [
              10.833804421845356,
              35.67196690016531
            ],
            [
              10.833725211963744,
              35.671769946031915
            ],
            [
              10.83358650900653,
              35.6714214694952
            ],
            [
              10.833547424805401,
              35.67134584765147
            ],
            [
              10.833270719881341,
              35.67067936235892
            ],
            [
              10.833270026397598,
              35.670648889895105
            ],
            [
              10.833072876134294,
              35.67019459674772
            ],
            [
              10.832894749520518,
              35.669755257625816
            ],
            [
              10.83283525891385,
              35.669603733503735
            ],
            [
              10.83273495294927,
              35.66930040273239
            ],
            [
              10.83261528004177,
              35.66896687787286
            ],
            [
              10.83257619804376,
              35.66889125562169
            ],
            [
              10.83243646585345,
              35.668497066635645
            ],
            [
              10.832318181699373,
              35.668224488932665
            ],
            [
              10.832159777782872,
              35.66783057797063
            ],
            [
              10.831889680321098,
              35.66745359205905
            ],
            [
              10.831850946243895,
              35.66739320641001
            ],
            [
              10.831407586800502,
              35.666790193096425
            ],
            [
              10.831167568830011,
              35.66609266723434
            ],
            [
              10.831162374411111,
              35.66586411491401
            ],
            [
              10.829901903126233,
              35.66629460150797
            ],
            [
              10.829514585761684,
              35.66569073852597
            ],
            [
              10.829067106042384,
              35.66490487246202
            ],
            [
              10.828498599894528,
              35.66454760291666
            ],
            [
              10.827689420963823,
              35.66428539368115
            ],
            [
              10.827403444629864,
              35.66403056982506
            ],
            [
              10.827213255445798,
              35.663881002769735
            ],
            [
              10.827080123497339,
              35.66377630822054
            ],
            [
              10.82692762759578,
              35.663641417210755
            ],
            [
              10.826645458619073,
              35.66355419780609
            ],
            [
              10.826061752253079,
              35.663349563178095
            ],
            [
              10.825590089607983,
              35.6631432458455
            ],
            [
              10.825413022245208,
              35.66357268034369
            ],
            [
              10.825719359757429,
              35.6647264871308
            ],
            [
              10.825794369927648,
              35.665563677080044
            ],
            [
              10.825860749739425,
              35.6660199430276
            ],
            [
              10.82648525419894,
              35.66719945981281
            ],
            [
              10.826740800555456,
              35.667759583358524
            ],
            [
              10.827254320376177,
              35.66898648564503
            ],
            [
              10.827146765495787,
              35.6691862473273
            ],
            [
              10.82661662484416,
              35.66887411745652
            ],
            [
              10.825956456161121,
              35.668594422112
            ],
            [
              10.825240959062178,
              35.66834603417784
            ],
            [
              10.824696296358155,
              35.668217018857206
            ],
            [
              10.823883985155765,
              35.66781765356788
            ],
            [
              10.822921943292938,
              35.66740528231676
            ],
            [
              10.822096145031605,
              35.66723473735684
            ],
            [
              10.82128833379604,
              35.667033434633524
            ],
            [
              10.820362285105054,
              35.66655953556216
            ],
            [
              10.818184279671044,
              35.664412454749666
            ],
            [
              10.81681308722222,
              35.66490542806615
            ],
            [
              10.815482314756803,
              35.665534960183656
            ],
            [
              10.814281209920043,
              35.66611682070402
            ],
            [
              10.813325937689632,
              35.666832188281745
            ],
            [
              10.813178258542736,
              35.66691059691464
            ],
            [
              10.812868681993374,
              35.66726577474594
            ]
          ]
        ]
      }
    }
  ]
}
