{
  "type": "FeatureCollection",
  "sourceId": "isie-local-sectors-2023-bennane-keblia-source-review",
  "status": "SOURCE_QUALIFIED_CANDIDATE_NOT_IMPORTED",
  "features": [
    {
      "type": "Feature",
      "id": "osm:relation:7109598",
      "properties": {
        "sourceId": "isie-local-sectors-2023-bennane-keblia-source-review",
        "officialCode": "326253",
        "nameAr": "بنان القبلية",
        "nameFr": "Benen sud",
        "governorateCode": "32",
        "governorateAr": "المنستير",
        "governorateFr": "Monastir",
        "delegationCode": "3262",
        "parentAr": "قصيبة المديوني",
        "parentFr": "Ksibet el mediouni",
        "expectedOriginalTags": {
          "admin_level": "6",
          "boundary": "administrative",
          "name": "بنان القبلية",
          "name:ar": "بنان القبلية",
          "name:fr": "Benen Sud",
          "ref:tn:codegeo": "326253"
        },
        "sourceOriginalGeometrySha256": "6b052b912f91d6e1585c6c642eb99ae7d9636945e5ed7aa29e6ee73f8787ef92",
        "sourcePdfURL": "https://www.isie.tn/wp-content/uploads/2023/CartesCirconscriptionsElectoralesLocales2023/%D8%A7%D9%84%D9%85%D9%86%D8%B3%D8%AA%D9%8A%D8%B1/%D9%82%D8%B5%D9%8A%D8%A8%D8%A9%20%D8%A7%D9%84%D9%85%D8%AF%D9%8A%D9%88%D9%86%D9%8A/%D8%A8%D9%86%D8%A7%D9%86%20%D8%A7%D9%84%D9%82%D8%A8%D9%84%D9%8A%D8%A9.pdf",
        "sourcePdfSha256": "6283f3f6e740bb0f1ff051de2a7a881d8b71692fa98f83d879c72579c3003558",
        "sourcePdfFile": "work\\bembla-bennane-keblia-followup-review\\bennane-keblia.pdf",
        "sourcePdfRenderFile": "work\\bembla-bennane-keblia-followup-review\\bennane-keblia.png",
        "sourcePdfRenderSha256": "d855508ad53cf35033fc51e8fb082793e3060afcad1b5cbbcd595abcc16a62bb",
        "sourceMapTitleAr": "بنان القبلية",
        "sourceDrawingIndices": [
          469
        ],
        "sourceVectorLayer": "circonscription_isie2023",
        "sourceCrsEpsg": 32632,
        "sourceCrsWkt": "PROJCS[\"WGS_1984_UTM_Zone_32N\",GEOGCS[\"GCS_WGS_1984\",DATUM[\"D_WGS_1984\",SPHEROID[\"WGS_1984\",6378137.0,298.257223563]],PRIMEM[\"Greenwich\",0.0],UNIT[\"Degree\",0.0174532925199433]],PROJECTION[\"Transverse_Mercator\"],PARAMETER[\"False_Easting\",500000.0],PARAMETER[\"False_Northing\",0.0],PARAMETER[\"Central_Meridian\",9.0],PARAMETER[\"Scale_Factor\",0.9996],PARAMETER[\"Latitude_Of_Origin\",0.0],UNIT[\"Meter\",1.0]]",
        "sourceControlPointMaxResidualMeters": 0.02934889416340131,
        "sourceControlPointsLatLon": [
          [
            35.65244,
            10.81741
          ],
          [
            35.68213,
            10.81809
          ],
          [
            35.68133,
            10.87018
          ],
          [
            35.65164,
            10.86948
          ]
        ],
        "sourceLocalControlPoints": [
          [
            0.0,
            1.0
          ],
          [
            0.0,
            0.0
          ],
          [
            1.0,
            0.0
          ],
          [
            1.0,
            1.0
          ]
        ],
        "sourceViewportBBox": [
          4.31908,
          590.46173,
          841.50095,
          5.38791
        ],
        "sourceAffineMetersFromPagePoints": [
          [
            5.63313705939831,
            -0.0003042574473621349
          ],
          [
            -0.0010968606188725971,
            -5.631076379648221
          ],
          [
            664499.7718750915,
            3950244.230793621
          ]
        ],
        "sourceGeometrySha256": "cc7be976f72920e6de73a974b6f984bd77dc775ffc49d2a9ef5f8f7a096f72a5",
        "reviewedDate": "2026-09-08",
        "administrativeScope": {
          "conclusion": "whole_imada",
          "pdfPage": 18,
          "jortPage": 5115,
          "imadaName": "بنان القبلية",
          "circleName": "بنان القبلية",
          "decree": {
            "file": "work\\electoral-circle-semantics\\decree2023-590.pdf",
            "root": "task",
            "sha256": "bfb3fe752b9900eaf873198b009968243f1b0bd2c119836cfd4fbbfc07e1e10f"
          },
          "render": {
            "file": "work\\electoral-circle-semantics\\page-18.png",
            "root": "task",
            "sha256": "1f0801e5adc23c32ca4adb68002439e387ca19818c1aaafbe1fd3fd3d442d6b7"
          },
          "personallyViewed": true,
          "rowObservation": "Ksibet El Mediouni block, second row after Bennane Joufia; each imada maps to one identical circle."
        },
        "currentOfficialIdentity": {
          "governorateCode": "32",
          "governorateFr": "Monastir",
          "governorateAr": "المنستير",
          "delegationCode": "3262",
          "delegationFr": "Ksibet el mediouni",
          "delegationAr": "قصيبة المديوني",
          "sectorCode": "326253",
          "sectorFr": "Benen sud",
          "sectorAr": "بنان القبلية",
          "sourceRows": {
            "Population_Secteur_Age_Sexe_Dynamique.xlsx": 38419,
            "Nombre_de_Logements_par_Secteurs.xlsx": 1827,
            "Nombre_de_menages_par_Secteurs.xlsx": 1823
          }
        },
        "boundaryManipulation": "none: unchanged full native red drawing469; no repair, clipped crop, snap, connector or union",
        "sourceQualification": {
          "fullNativePath": true,
          "validOriginalAndQuantized": true,
          "viewportAndAllActiveClipsCover": true,
          "countryCoversBoth": true,
          "originalVertexCount": 166,
          "originalRingCount": 1,
          "originalHoleCount": 0,
          "mapPersonallyViewed": true,
          "labelScope": "Actual page title and target interior label Bennane Keblia agree with unique code/registry/decree. The long neighboring Riadh label overlaps the target interior text-placement envelope; it is separately scoped under Ksar Hellal and does not combine either imada."
        }
      },
      "geometry": {
        "type": "Polygon",
        "coordinates": [
          [
            [
              10.85432518598862,
              35.6768054437625
            ],
            [
              10.853153065882438,
              35.67649455811687
            ],
            [
              10.851483191989754,
              35.67597201306501
            ],
            [
              10.852245383646675,
              35.6740776961088
            ],
            [
              10.851999068045163,
              35.67408149713738
            ],
            [
              10.85150388158606,
              35.673979473310624
            ],
            [
              10.85064956331875,
              35.67384643090404
            ],
            [
              10.850549763916831,
              35.67340931598343
            ],
            [
              10.853578435792278,
              35.672649767834095
            ],
            [
              10.853365386509148,
              35.67215957239141
            ],
            [
              10.85338051748587,
              35.67184862468636
            ],
            [
              10.853232939095815,
              35.671284310263985
            ],
            [
              10.852921364633387,
              35.67041181169686
            ],
            [
              10.853279194639912,
              35.67038800985289
            ],
            [
              10.852630055078977,
              35.6694476143389
            ],
            [
              10.85212039038444,
              35.66872438906033
            ],
            [
              10.851659568284319,
              35.66913359822963
            ],
            [
              10.851505390072514,
              35.669245640476916
            ],
            [
              10.851260794636744,
              35.66932252249406
            ],
            [
              10.85044085042015,
              35.669700710862784
            ],
            [
              10.850324633338651,
              35.66951973090637
            ],
            [
              10.85251614790277,
              35.664569341979146
            ],
            [
              10.855068782196803,
              35.65879085679226
            ],
            [
              10.856157582400668,
              35.65650764391251
            ],
            [
              10.855371217240213,
              35.65544143887624
            ],
            [
              10.855137524977025,
              35.65502467474914
            ],
            [
              10.854562913521908,
              35.65439384602985
            ],
            [
              10.854310256433592,
              35.654123588744326
            ],
            [
              10.853710081422335,
              35.65431563108889
            ],
            [
              10.853339095007078,
              35.65377304169043
            ],
            [
              10.85286599386522,
              35.65365240305854
            ],
            [
              10.852526356995257,
              35.65349314839942
            ],
            [
              10.85189569646115,
              35.6533383824225
            ],
            [
              10.851513420570356,
              35.653271169360686
            ],
            [
              10.85111089291275,
              35.65329565412629
            ],
            [
              10.849701395580196,
              35.653353934206535
            ],
            [
              10.84916752280292,
              35.653508377671926
            ],
            [
              10.848901011182361,
              35.6536038693465
            ],
            [
              10.848498904253493,
              35.65364661628893
            ],
            [
              10.848075684416859,
              35.653744519007084
            ],
            [
              10.847609818337448,
              35.653934463430275
            ],
            [
              10.847278694213566,
              35.65414061014846
            ],
            [
              10.846971232519945,
              35.654401220926985
            ],
            [
              10.846749489001239,
              35.65449601912717
            ],
            [
              10.84614419378539,
              35.65446877434692
            ],
            [
              10.845696880007885,
              35.654493929827204
            ],
            [
              10.84525126680525,
              35.65459216699657
            ],
            [
              10.844627830231234,
              35.65474796717474
            ],
            [
              10.843455324895713,
              35.65536913134994
            ],
            [
              10.842702645099846,
              35.65574623171273
            ],
            [
              10.84206019725281,
              35.656048529607205
            ],
            [
              10.84175228704118,
              35.656290859923644
            ],
            [
              10.841485332821504,
              35.65636806479899
            ],
            [
              10.840859755458581,
              35.65643249164253
            ],
            [
              10.84005761798568,
              35.656609284460835
            ],
            [
              10.839145655453027,
              35.656879141539015
            ],
            [
              10.838569926418813,
              35.65716212148249
            ],
            [
              10.837412533632282,
              35.65747228062595
            ],
            [
              10.836968159334628,
              35.65762529910896
            ],
            [
              10.836925498033851,
              35.657717338886464
            ],
            [
              10.837140524347243,
              35.6582989232116
            ],
            [
              10.837145177026603,
              35.658499903277566
            ],
            [
              10.837111820789124,
              35.658993901677945
            ],
            [
              10.835763466722282,
              35.65976390086807
            ],
            [
              10.835344423213243,
              35.660044469419645
            ],
            [
              10.835101528588009,
              35.6601944004998
            ],
            [
              10.834968465999115,
              35.660251266800934
            ],
            [
              10.834681215012449,
              35.66042015248292
            ],
            [
              10.834371575950243,
              35.66058938116818
            ],
            [
              10.834039967127241,
              35.66077722213739
            ],
            [
              10.833905634073103,
              35.66077927451648
            ],
            [
              10.833552058525795,
              35.6609857271556
            ],
            [
              10.833241990795264,
              35.66113668213827
            ],
            [
              10.83361456912527,
              35.66175241965903
            ],
            [
              10.833465866834311,
              35.66210196149143
            ],
            [
              10.833313786022611,
              35.662305335620495
            ],
            [
              10.833251683905143,
              35.662525611227835
            ],
            [
              10.832836416647195,
              35.662970608548996
            ],
            [
              10.833666927033395,
              35.66401800971031
            ],
            [
              10.833988828425088,
              35.66437863946853
            ],
            [
              10.831178637590357,
              35.66586545440391
            ],
            [
              10.831161729678072,
              35.66610331683458
            ],
            [
              10.831401661108174,
              35.666794195323206
            ],
            [
              10.831841002188785,
              35.66739064312075
            ],
            [
              10.83188747126941,
              35.66746304343658
            ],
            [
              10.832165021575737,
              35.66784263052406
            ],
            [
              10.832330618909838,
              35.668223926033
            ],
            [
              10.832426513415124,
              35.66849662272293
            ],
            [
              10.832569723295633,
              35.66887825961226
            ],
            [
              10.832616615098129,
              35.6689689305286
            ],
            [
              10.832736169160025,
              35.669296096236
            ],
            [
              10.832832909850678,
              35.66960533434287
            ],
            [
              10.83288107083093,
              35.66975081786924
            ],
            [
              10.833070756240721,
              35.67020485377452
            ],
            [
              10.833260022575427,
              35.67064061835223
            ],
            [
              10.83328325874169,
              35.67067681817328
            ],
            [
              10.833545192231194,
              35.6713490780171
            ],
            [
              10.83356927345838,
              35.671421819593704
            ],
            [
              10.833734041692432,
              35.67176657070364
            ],
            [
              10.83380586402951,
              35.67196652435032
            ],
            [
              10.83397274681146,
              35.6724026295695
            ],
            [
              10.834113857410678,
              35.67269291102211
            ],
            [
              10.834162021814755,
              35.672838392306666
            ],
            [
              10.834185259062465,
              35.672874591909974
            ],
            [
              10.834324260445284,
              35.67307351851865
            ],
            [
              10.834440870208125,
              35.67327278719529
            ],
            [
              10.834557057917838,
              35.673453783290896
            ],
            [
              10.834696482024306,
              35.67367098031755
            ],
            [
              10.834881539178363,
              35.6739240342344
            ],
            [
              10.834996883426053,
              35.67406848804941
            ],
            [
              10.83504420491841,
              35.674177428648115
            ],
            [
              10.835207717304908,
              35.67446736612227
            ],
            [
              10.835254616549593,
              35.67455803573036
            ],
            [
              10.835304052689489,
              35.67475832907372
            ],
            [
              10.835330250721842,
              35.67492242459957
            ],
            [
              10.835332787607632,
              35.67503204989947
            ],
            [
              10.835359408601374,
              35.67521441474126
            ],
            [
              10.835383492777998,
              35.67528715582702
            ],
            [
              10.835432084115007,
              35.67545090885855
            ],
            [
              10.835457012242038,
              35.675560191712634
            ],
            [
              10.835552083279687,
              35.67579634168394
            ],
            [
              10.83569151439279,
              35.67601353727617
            ],
            [
              10.836014746098634,
              35.676428970271715
            ],
            [
              10.836037985281468,
              35.67646516944091
            ],
            [
              10.836569528573506,
              35.67716985129886
            ],
            [
              10.83659276823215,
              35.67720605034286
            ],
            [
              10.836616007912323,
              35.67724224938151
            ],
            [
              10.837123053598223,
              35.677855916779315
            ],
            [
              10.837260799481959,
              35.67800002528215
            ],
            [
              10.83739727779902,
              35.67808932257137
            ],
            [
              10.837510516040348,
              35.67814242085982
            ],
            [
              10.83773656955088,
              35.678230346253635
            ],
            [
              10.838121494979838,
              35.67840722470717
            ],
            [
              10.838416001789527,
              35.678548932342494
            ],
            [
              10.838575299681136,
              35.6786561560221
            ],
            [
              10.838826713263371,
              35.67887162900081
            ],
            [
              10.839193065933324,
              35.67921328442105
            ],
            [
              10.839261519034284,
              35.679267067333996
            ],
            [
              10.839649843644784,
              35.67959010723211
            ],
            [
              10.839970567009216,
              35.67989590494577
            ],
            [
              10.84003859718046,
              35.679931413460665
            ],
            [
              10.840084657333614,
              35.679985539211614
            ],
            [
              10.840359321509,
              35.68023721006585
            ],
            [
              10.84054271591225,
              35.68041717077558
            ],
            [
              10.840565534248038,
              35.680435098139355
            ],
            [
              10.842105215002523,
              35.68017386977858
            ],
            [
              10.842439002840246,
              35.68007735933342
            ],
            [
              10.842861518894553,
              35.679942930908524
            ],
            [
              10.843172912696186,
              35.67984676541918
            ],
            [
              10.843529091789666,
              35.67974990809111
            ],
            [
              10.843706969548764,
              35.67969234363485
            ],
            [
              10.84412990426548,
              35.679576181680886
            ],
            [
              10.844241024249184,
              35.679537919537616
            ],
            [
              10.844775926868321,
              35.67942003467247
            ],
            [
              10.845510673747022,
              35.67922596529358
            ],
            [
              10.846222593942613,
              35.679013965322
            ],
            [
              10.846489617603565,
              35.67893674809641
            ],
            [
              10.847357864499784,
              35.67870405889744
            ],
            [
              10.847937118004229,
              35.67856720321227
            ],
            [
              10.848471158200583,
              35.67841276074972
            ],
            [
              10.849027587879776,
              35.67825797099871
            ],
            [
              10.8494281130639,
              35.6781421358555
            ],
            [
              10.851564659848524,
              35.67754259861591
            ],
            [
              10.853122794335308,
              35.67711645167465
            ],
            [
              10.853923819154142,
              35.676884753478056
            ],
            [
              10.85432518598862,
              35.6768054437625
            ]
          ]
        ]
      }
    }
  ]
}
