{
  "type": "FeatureCollection",
  "sourceId": "isie-local-sectors-2023-hiboun-review",
  "status": "REVIEWED_SOURCE_GEOMETRIES_PENDING_CLUSTER_ACCEPTANCE",
  "reviewedDate": "2026-09-07",
  "sourceSnapshotSha256": "346a79dca9013b427cf7ce4e11fb31ca03fa575ee7a68c865701c463c504a1ce",
  "features": [
    {
      "type": "Feature",
      "id": "osm:relation:7152283",
      "properties": {
        "officialCode": "335161",
        "nameAr": "هيبون",
        "nameFr": "Hiboun",
        "governorateCode": "33",
        "governorateAr": "المهدية",
        "governorateFr": "Mahdia",
        "delegationCode": "3351",
        "parentAr": "المهدية",
        "parentFr": "Mahdia",
        "sourceId": "isie-local-sectors-2023-hiboun-review",
        "sourcePdfURL": "https://www.isie.tn/wp-content/uploads/2023/CartesCirconscriptionsElectoralesLocales2023/%D8%A7%D9%84%D9%85%D9%87%D8%AF%D9%8A%D8%A9/%D8%A7%D9%84%D9%85%D9%87%D8%AF%D9%8A%D8%A9/%D9%87%D9%8A%D8%A8%D9%88%D9%86.pdf",
        "sourcePdfSha256": "4c93df7b54f7b9aa7356f3936ced541336cba298e17aa41c6c0d3e7fe57bfa50",
        "sourcePdfFile": "work/isie-sector-maps-hiboun/hiboun.pdf",
        "sourcePdfCreated": "D:20231017044652+01",
        "reviewedDate": "2026-09-07",
        "sourceMapTitleAr": "هيبون",
        "targetIsPageTitle": true,
        "sourceDrawingIndices": [
          376
        ],
        "sourceVectorLayer": "circonscription_isie2023",
        "sourceCrsEpsg": 32632,
        "sourceCrsWkt": "PROJCS[\"WGS_1984_UTM_Zone_32N\",GEOGCS[\"GCS_WGS_1984\",DATUM[\"D_WGS_1984\",SPHEROID[\"WGS_1984\",6378137.0,298.257223563]],PRIMEM[\"Greenwich\",0.0],UNIT[\"Degree\",0.0174532925199433]],PROJECTION[\"Transverse_Mercator\"],PARAMETER[\"False_Easting\",500000.0],PARAMETER[\"False_Northing\",0.0],PARAMETER[\"Central_Meridian\",9.0],PARAMETER[\"Scale_Factor\",0.9996],PARAMETER[\"Latitude_Of_Origin\",0.0],UNIT[\"Meter\",1.0]]",
        "sourceControlPointMaxResidualMeters": 0.18908650075725905,
        "sourceControlPointsLatLon": [
          [
            35.5027,
            10.94955
          ],
          [
            35.56212,
            10.95099
          ],
          [
            35.56039,
            11.05508
          ],
          [
            35.50098,
            11.05356
          ]
        ],
        "sourceLocalControlPoints": [
          [
            0.0,
            1.0
          ],
          [
            0.0,
            0.0
          ],
          [
            1.0,
            0.0
          ],
          [
            1.0,
            1.0
          ]
        ],
        "sourceViewportBBox": [
          4.31908,
          590.46173,
          841.50095,
          5.38791
        ],
        "sourcePageTransformationMatrix": [
          1.0,
          0.0,
          0.0,
          -1.0,
          0.0,
          595.5023803710938
        ],
        "sourceAffineMetersFromPagePoints": [
          [
            11.274368022059324,
            0.00040846670749224726
          ],
          [
            -0.0004975316569471033,
            -11.26955978980186
          ],
          [
            676767.5358058873,
            3937190.768676695
          ]
        ],
        "sourceGeometry": "One original complete valid explicitly closed red vector ring; no repair, joining, rounding, snapping, buffering, clipping or simplification applied to export.",
        "sourcePagePaths": [
          {
            "drawingIndex": 376,
            "vertices": [
              [
                642.4633178710938,
                55.80706787109375
              ],
              [
                646.7824096679688,
                93.61181640625
              ],
              [
                652.1812133789062,
                133.93692016601562
              ],
              [
                657.9400024414062,
                157.33987426757812
              ],
              [
                666.9381103515625,
                196.58480834960938
              ],
              [
                668.3778076171875,
                203.06564331054688
              ],
              [
                675.5762329101562,
                227.90878295898438
              ],
              [
                678.8155517578125,
                239.0701904296875
              ],
              [
                683.8544921875,
                254.5521240234375
              ],
              [
                683.8544921875,
                255.272216796875
              ],
              [
                688.8934326171875,
                268.2338562011719
              ],
              [
                692.1327514648438,
                279.03521728515625
              ],
              [
                696.0919189453125,
                289.4765319824219
              ],
              [
                698.611328125,
                297.0375061035156
              ],
              [
                701.8506469726562,
                304.2384033203125
              ],
              [
                702.930419921875,
                306.03863525390625
              ],
              [
                707.24951171875,
                315.7598571777344
              ],
              [
                715.1678466796875,
                333.4020690917969
              ],
              [
                720.566650390625,
                344.92352294921875
              ],
              [
                722.0064086914062,
                348.1639404296875
              ],
              [
                735.6834716796875,
                369.04656982421875
              ],
              [
                741.0823364257812,
                376.96759033203125
              ],
              [
                755.479248046875,
                396.77008056640625
              ],
              [
                767.3567504882812,
                411.8919677734375
              ],
              [
                784.2731323242188,
                433.49468994140625
              ],
              [
                803.3490600585938,
                452.5771179199219
              ],
              [
                797.5902709960938,
                456.8976745605469
              ],
              [
                791.4716186523438,
                459.77801513671875
              ],
              [
                787.8723754882812,
                461.93829345703125
              ],
              [
                786.07275390625,
                462.65838623046875
              ],
              [
                786.4326782226562,
                464.81866455078125
              ],
              [
                786.4326782226562,
                466.97894287109375
              ],
              [
                786.7926025390625,
                473.8197937011719
              ],
              [
                788.9521484375,
                473.8197937011719
              ],
              [
                790.0319213867188,
                474.8999328613281
              ],
              [
                791.83154296875,
                478.5003967285156
              ],
              [
                787.8723754882812,
                482.46087646484375
              ],
              [
                788.9521484375,
                483.18096923828125
              ],
              [
                787.512451171875,
                486.78143310546875
              ],
              [
                786.4326782226562,
                486.78143310546875
              ],
              [
                783.193359375,
                487.50152587890625
              ],
              [
                779.9540405273438,
                488.22161865234375
              ],
              [
                778.5143432617188,
                490.38189697265625
              ],
              [
                776.7147216796875,
                494.3424072265625
              ],
              [
                773.8353271484375,
                502.2633972167969
              ],
              [
                771.31591796875,
                501.1832580566406
              ],
              [
                760.1582641601562,
                497.9428405761719
              ],
              [
                757.6387939453125,
                497.2227478027344
              ],
              [
                754.3994750976562,
                496.14263916015625
              ],
              [
                752.9597778320312,
                495.42254638671875
              ],
              [
                750.4403076171875,
                494.3424072265625
              ],
              [
                749.0006103515625,
                493.9823303222656
              ],
              [
                739.28271484375,
                489.3017578125
              ],
              [
                722.0064086914062,
                480.3006286621094
              ],
              [
                702.930419921875,
                470.939453125
              ],
              [
                694.2922973632812,
                466.97894287109375
              ],
              [
                692.1327514648438,
                465.53875732421875
              ],
              [
                692.1327514648438,
                482.1008605957031
              ],
              [
                691.4129028320312,
                493.622314453125
              ],
              [
                691.4129028320312,
                495.7825622558594
              ],
              [
                690.6930541992188,
                506.9439697265625
              ],
              [
                691.052978515625,
                515.2250366210938
              ],
              [
                691.052978515625,
                518.4654541015625
              ],
              [
                693.932373046875,
                527.1065063476562
              ],
              [
                693.932373046875,
                529.9868774414062
              ],
              [
                693.932373046875,
                536.4677124023438
              ],
              [
                692.8526000976562,
                543.30859375
              ],
              [
                683.1346435546875,
                540.7882690429688
              ],
              [
                677.3758544921875,
                539.3480834960938
              ],
              [
                671.9769897460938,
                538.2679443359375
              ],
              [
                664.778564453125,
                537.5478515625
              ],
              [
                661.5392456054688,
                536.4677124023438
              ],
              [
                656.140380859375,
                534.66748046875
              ],
              [
                652.9010620117188,
                533.227294921875
              ],
              [
                651.4613647460938,
                532.5072021484375
              ],
              [
                646.7824096679688,
                529.9868774414062
              ],
              [
                639.94384765625,
                528.1866455078125
              ],
              [
                630.2258911132812,
                526.3864135742188
              ],
              [
                620.1480712890625,
                524.9462280273438
              ],
              [
                614.0293579101562,
                524.2261352539062
              ],
              [
                603.591552734375,
                523.14599609375
              ],
              [
                592.0740356445312,
                522.4259033203125
              ],
              [
                588.1148681640625,
                521.705810546875
              ],
              [
                579.1167602539062,
                520.9857177734375
              ],
              [
                574.7977294921875,
                519.9056396484375
              ],
              [
                564.0,
                517.745361328125
              ],
              [
                551.7625732421875,
                515.2250366210938
              ],
              [
                539.5252075195312,
                512.7047119140625
              ],
              [
                532.3267211914062,
                511.2645263671875
              ],
              [
                528.3675537109375,
                510.90447998046875
              ],
              [
                528.0076293945312,
                510.90447998046875
              ],
              [
                526.9278564453125,
                510.54443359375
              ],
              [
                519.7294311523438,
                509.8243408203125
              ],
              [
                512.890869140625,
                508.74420166015625
              ],
              [
                505.6924133300781,
                506.9439697265625
              ],
              [
                495.61456298828125,
                503.70355224609375
              ],
              [
                487.69622802734375,
                500.8232116699219
              ],
              [
                483.37713623046875,
                499.0229797363281
              ],
              [
                476.8985290527344,
                494.70245361328125
              ],
              [
                473.2992858886719,
                492.54217529296875
              ],
              [
                468.2603759765625,
                490.0218505859375
              ],
              [
                451.7038879394531,
                483.541015625
              ],
              [
                439.46649169921875,
                479.2204895019531
              ],
              [
                416.431396484375,
                471.2994689941406
              ],
              [
                392.3165283203125,
                461.93829345703125
              ],
              [
                379.3592834472656,
                457.2576904296875
              ],
              [
                376.4798889160156,
                456.53759765625
              ],
              [
                371.44097900390625,
                455.0974426269531
              ],
              [
                357.0440368652344,
                451.4969787597656
              ],
              [
                343.366943359375,
                447.5364990234375
              ],
              [
                339.7677001953125,
                446.45635986328125
              ],
              [
                336.5284118652344,
                445.376220703125
              ],
              [
                328.6100769042969,
                443.2159423828125
              ],
              [
                316.73260498046875,
                440.3355712890625
              ],
              [
                307.0146789550781,
                438.8953857421875
              ],
              [
                306.2948303222656,
                438.53533935546875
              ],
              [
                300.1761169433594,
                437.09515380859375
              ],
              [
                291.89788818359375,
                435.65496826171875
              ],
              [
                280.3803405761719,
                434.21478271484375
              ],
              [
                269.94256591796875,
                433.49468994140625
              ],
              [
                259.5047912597656,
                432.7746276855469
              ],
              [
                250.50669860839844,
                432.4145812988281
              ],
              [
                245.10784912109375,
                432.7746276855469
              ],
              [
                240.4288330078125,
                433.49468994140625
              ],
              [
                233.95022583007812,
                434.21478271484375
              ],
              [
                227.4716033935547,
                433.8547668457031
              ],
              [
                219.9132080078125,
                433.1346740722656
              ],
              [
                213.0746612548828,
                432.0545349121094
              ],
              [
                208.75558471679688,
                431.3344421386719
              ],
              [
                201.9170379638672,
                429.5342102050781
              ],
              [
                196.87811279296875,
                428.4541015625
              ],
              [
                194.358642578125,
                427.7340087890625
              ],
              [
                181.04147338867188,
                427.013916015625
              ],
              [
                176.00254821777344,
                426.65386962890625
              ],
              [
                171.6834716796875,
                426.2938232421875
              ],
              [
                165.20484924316406,
                425.21368408203125
              ],
              [
                156.20675659179688,
                423.4134521484375
              ],
              [
                150.44798278808594,
                422.693359375
              ],
              [
                148.2884521484375,
                417.6527099609375
              ],
              [
                147.20867919921875,
                414.7723388671875
              ],
              [
                139.2903594970703,
                404.69110107421875
              ],
              [
                134.97128295898438,
                397.130126953125
              ],
              [
                134.61135864257812,
                396.04998779296875
              ],
              [
                129.93234252929688,
                384.8885803222656
              ],
              [
                127.77281188964844,
                377.68768310546875
              ],
              [
                127.05297088623047,
                375.52740478515625
              ],
              [
                123.45372772216797,
                366.5262451171875
              ],
              [
                115.89533996582031,
                359.3253479003906
              ],
              [
                101.85832977294922,
                355.00482177734375
              ],
              [
                91.06063079833984,
                355.00482177734375
              ],
              [
                79.54308319091797,
                350.68426513671875
              ],
              [
                70.54499053955078,
                341.6831359863281
              ],
              [
                69.82514190673828,
                339.1628112792969
              ],
              [
                69.46521759033203,
                336.2824401855469
              ],
              [
                68.02552795410156,
                332.6819763183594
              ],
              [
                69.10530090332031,
                327.28131103515625
              ],
              [
                69.46521759033203,
                322.9607849121094
              ],
              [
                69.10530090332031,
                318.6402282714844
              ],
              [
                68.74536895751953,
                314.6797180175781
              ],
              [
                68.38545227050781,
                313.5995788574219
              ],
              [
                67.30567932128906,
                311.4393005371094
              ],
              [
                65.50605773925781,
                308.5589599609375
              ],
              [
                60.82706069946289,
                301.71807861328125
              ],
              [
                57.227821350097656,
                286.59619140625
              ],
              [
                53.62858963012695,
                276.5149230957031
              ],
              [
                51.82897186279297,
                271.8343200683594
              ],
              [
                49.30950927734375,
                261.7530517578125
              ],
              [
                50.74919891357422,
                255.63226318359375
              ],
              [
                48.949588775634766,
                251.67178344726562
              ],
              [
                46.0702018737793,
                248.07131958007812
              ],
              [
                44.27058029174805,
                245.19094848632812
              ],
              [
                43.19081115722656,
                242.670654296875
              ],
              [
                42.4709587097168,
                237.99005126953125
              ],
              [
                43.91065979003906,
                235.10968017578125
              ],
              [
                46.430118560791016,
                232.58935546875
              ],
              [
                50.389278411865234,
                230.06906127929688
              ],
              [
                53.26866912841797,
                228.62884521484375
              ],
              [
                54.70835876464844,
                226.10855102539062
              ],
              [
                55.06827926635742,
                223.94827270507812
              ],
              [
                57.947669982910156,
                220.70785522460938
              ],
              [
                61.54690170288086,
                216.3873291015625
              ],
              [
                65.50605773925781,
                213.5069580078125
              ],
              [
                66.58583068847656,
                212.786865234375
              ],
              [
                75.22399139404297,
                209.906494140625
              ],
              [
                80.98277282714844,
                209.906494140625
              ],
              [
                92.1404037475586,
                210.6265869140625
              ],
              [
                99.69879150390625,
                210.98663330078125
              ],
              [
                106.89726257324219,
                213.14691162109375
              ],
              [
                110.49649047851562,
                214.58709716796875
              ],
              [
                116.25525665283203,
                217.46746826171875
              ],
              [
                123.81365966796875,
                220.34780883789062
              ],
              [
                131.37205505371094,
                222.50808715820312
              ],
              [
                136.77090454101562,
                223.22817993164062
              ],
              [
                142.8896026611328,
                223.22817993164062
              ],
              [
                149.36822509765625,
                223.22817993164062
              ],
              [
                155.8468475341797,
                222.50808715820312
              ],
              [
                161.96554565429688,
                222.50808715820312
              ],
              [
                164.48500061035156,
                221.06790161132812
              ],
              [
                169.88385009765625,
                220.70785522460938
              ],
              [
                173.12315368652344,
                220.34780883789062
              ],
              [
                177.0823211669922,
                219.26766967773438
              ],
              [
                187.16018676757812,
                215.667236328125
              ],
              [
                191.8391876220703,
                213.86700439453125
              ],
              [
                195.0784912109375,
                210.98663330078125
              ],
              [
                197.9578857421875,
                209.1864013671875
              ],
              [
                202.27696228027344,
                207.02615356445312
              ],
              [
                206.59603881835938,
                204.86587524414062
              ],
              [
                213.0746612548828,
                200.18527221679688
              ],
              [
                217.39373779296875,
                196.22479248046875
              ],
              [
                218.11358642578125,
                193.7044677734375
              ],
              [
                219.55328369140625,
                191.18414306640625
              ],
              [
                220.99298095703125,
                189.74395751953125
              ],
              [
                224.5922088623047,
                189.02386474609375
              ],
              [
                227.83151245117188,
                189.02386474609375
              ],
              [
                230.71090698242188,
                187.58367919921875
              ],
              [
                233.59030151367188,
                186.86358642578125
              ],
              [
                237.9093780517578,
                185.783447265625
              ],
              [
                240.7887725830078,
                185.06338500976562
              ],
              [
                242.94830322265625,
                183.98321533203125
              ],
              [
                247.26739501953125,
                183.62319946289062
              ],
              [
                247.98724365234375,
                182.18301391601562
              ],
              [
                250.1467742919922,
                180.74282836914062
              ],
              [
                253.7460174560547,
                178.22250366210938
              ],
              [
                256.9853210449219,
                177.14236450195312
              ],
              [
                259.8647155761719,
                177.14236450195312
              ],
              [
                262.7441101074219,
                177.50241088867188
              ],
              [
                265.2635498046875,
                176.78231811523438
              ],
              [
                267.423095703125,
                175.70217895507812
              ],
              [
                269.94256591796875,
                174.62203979492188
              ],
              [
                273.181884765625,
                175.34213256835938
              ],
              [
                276.42120361328125,
                176.42227172851562
              ],
              [
                281.4601135253906,
                178.22250366210938
              ],
              [
                284.6994323730469,
                179.66268920898438
              ],
              [
                286.85894775390625,
                181.10287475585938
              ],
              [
                290.0982666015625,
                182.18301391601562
              ],
              [
                292.9776611328125,
                183.26315307617188
              ],
              [
                296.93682861328125,
                184.70330810546875
              ],
              [
                300.1761169433594,
                184.70330810546875
              ],
              [
                301.9757385253906,
                183.62319946289062
              ],
              [
                305.9349060058594,
                182.54306030273438
              ],
              [
                308.0944519042969,
                183.26315307617188
              ],
              [
                309.1742248535156,
                183.62319946289062
              ],
              [
                311.3337707519531,
                182.903076171875
              ],
              [
                314.213134765625,
                180.38278198242188
              ],
              [
                316.3726806640625,
                178.22250366210938
              ],
              [
                318.5322265625,
                176.06222534179688
              ],
              [
                319.2520751953125,
                173.54190063476562
              ],
              [
                321.77154541015625,
                171.74169921875
              ],
              [
                322.1314697265625,
                169.22137451171875
              ],
              [
                326.0906066894531,
                165.98095703125
              ],
              [
                328.6100769042969,
                164.18072509765625
              ],
              [
                330.4096984863281,
                163.1005859375
              ],
              [
                331.1295471191406,
                162.74053955078125
              ],
              [
                332.5692443847656,
                160.58029174804688
              ],
              [
                333.6490173339844,
                158.05996704101562
              ],
              [
                334.3688659667969,
                154.09945678710938
              ],
              [
                334.3688659667969,
                150.85903930664062
              ],
              [
                334.3688659667969,
                145.81842041015625
              ],
              [
                336.16845703125,
                139.6976318359375
              ],
              [
                336.16845703125,
                135.73715209960938
              ],
              [
                335.4486389160156,
                132.49673461914062
              ],
              [
                333.6490173339844,
                129.25631713867188
              ],
              [
                332.2093200683594,
                127.81613159179688
              ],
              [
                331.4894714355469,
                124.2156982421875
              ],
              [
                329.6898498535156,
                121.3353271484375
              ],
              [
                327.1703796386719,
                117.37481689453125
              ],
              [
                325.7306823730469,
                114.49444580078125
              ],
              [
                325.0108642578125,
                111.25405883789062
              ],
              [
                324.2909851074219,
                106.93350219726562
              ],
              [
                323.93109130859375,
                103.693115234375
              ],
              [
                323.21124267578125,
                100.45269775390625
              ],
              [
                324.6509094238281,
                99.01251220703125
              ],
              [
                326.8104553222656,
                98.29241943359375
              ],
              [
                327.1703796386719,
                95.41204833984375
              ],
              [
                327.8902282714844,
                93.61181640625
              ],
              [
                328.2501525878906,
                91.09152221679688
              ],
              [
                330.4096984863281,
                90.01138305664062
              ],
              [
                330.7696228027344,
                87.49105834960938
              ],
              [
                332.5692443847656,
                86.05087280273438
              ],
              [
                335.4486389160156,
                84.25064086914062
              ],
              [
                337.96807861328125,
                83.89059448242188
              ],
              [
                340.12762451171875,
                83.53054809570312
              ],
              [
                340.487548828125,
                81.37030029296875
              ],
              [
                340.84747314453125,
                79.21002197265625
              ],
              [
                343.00701904296875,
                77.04974365234375
              ],
              [
                346.60626220703125,
                75.60955810546875
              ],
              [
                349.125732421875,
                73.44927978515625
              ],
              [
                351.6451721191406,
                70.2088623046875
              ],
              [
                353.8047180175781,
                66.6083984375
              ],
              [
                358.1238098144531,
                61.56781005859375
              ],
              [
                362.44287109375,
                59.767578125
              ],
              [
                364.96234130859375,
                59.0474853515625
              ],
              [
                366.40203857421875,
                59.767578125
              ],
              [
                368.56158447265625,
                60.4876708984375
              ],
              [
                372.1607971191406,
                65.8883056640625
              ],
              [
                372.8806457519531,
                69.12872314453125
              ],
              [
                371.44097900390625,
                71.28900146484375
              ],
              [
                369.641357421875,
                70.928955078125
              ],
              [
                368.56158447265625,
                69.12872314453125
              ],
              [
                368.56158447265625,
                69.84881591796875
              ],
              [
                366.40203857421875,
                76.32965087890625
              ],
              [
                368.9215087890625,
                84.25064086914062
              ],
              [
                369.28143310546875,
                84.61068725585938
              ],
              [
                378.6394348144531,
                88.21115112304688
              ],
              [
                389.4371337890625,
                91.81161499023438
              ],
              [
                402.3943786621094,
                92.53167724609375
              ],
              [
                406.7134704589844,
                93.97186279296875
              ],
              [
                407.4333190917969,
                94.3319091796875
              ],
              [
                408.1531677246094,
                93.97186279296875
              ],
              [
                409.2329406738281,
                93.97186279296875
              ],
              [
                409.5928649902344,
                93.97186279296875
              ],
              [
                410.3127136230469,
                93.97186279296875
              ],
              [
                411.75238037109375,
                93.61181640625
              ],
              [
                412.47222900390625,
                93.25177001953125
              ],
              [
                413.19207763671875,
                93.25177001953125
              ],
              [
                414.2718505859375,
                92.89175415039062
              ],
              [
                415.35162353515625,
                92.53167724609375
              ],
              [
                415.7115478515625,
                92.53167724609375
              ],
              [
                418.23101806640625,
                91.81161499023438
              ],
              [
                420.39056396484375,
                91.81161499023438
              ],
              [
                421.83026123046875,
                91.45156860351562
              ],
              [
                422.1901550292969,
                91.09152221679688
              ],
              [
                422.9100341796875,
                89.29129028320312
              ],
              [
                423.9897766113281,
                86.41091918945312
              ],
              [
                423.9897766113281,
                86.05087280273438
              ],
              [
                424.3497009277344,
                85.69082641601562
              ],
              [
                425.0695495605469,
                84.25064086914062
              ],
              [
                426.1493225097656,
                82.81048583984375
              ],
              [
                427.5890197753906,
                81.7303466796875
              ],
              [
                430.4684143066406,
                80.65020751953125
              ],
              [
                433.7077331542969,
                79.570068359375
              ],
              [
                435.5073547363281,
                78.48992919921875
              ],
              [
                436.58709716796875,
                77.4097900390625
              ],
              [
                438.02679443359375,
                76.32965087890625
              ],
              [
                439.1065673828125,
                74.88946533203125
              ],
              [
                439.826416015625,
                74.5294189453125
              ],
              [
                442.705810546875,
                73.44927978515625
              ],
              [
                444.1455078125,
                72.369140625
              ],
              [
                445.585205078125,
                71.28900146484375
              ],
              [
                449.1844177246094,
                69.84881591796875
              ],
              [
                452.0638122558594,
                68.40863037109375
              ],
              [
                456.7428283691406,
                66.24835205078125
              ],
              [
                460.342041015625,
                64.4481201171875
              ],
              [
                464.6611328125,
                62.64794921875
              ],
              [
                466.100830078125,
                61.9278564453125
              ],
              [
                467.90045166015625,
                61.207763671875
              ],
              [
                468.980224609375,
                60.12762451171875
              ],
              [
                470.0599670410156,
                59.40753173828125
              ],
              [
                471.8595886230469,
                58.68743896484375
              ],
              [
                475.4588317871094,
                57.6072998046875
              ],
              [
                479.4179992675781,
                55.80706787109375
              ],
              [
                483.37713623046875,
                54.36688232421875
              ],
              [
                489.13592529296875,
                51.8465576171875
              ],
              [
                502.8130187988281,
                91.09152221679688
              ],
              [
                508.93170166015625,
                88.57119750976562
              ],
              [
                509.2916259765625,
                88.21115112304688
              ],
              [
                513.9706420898438,
                85.69082641601562
              ],
              [
                515.770263671875,
                84.61068725585938
              ],
              [
                520.4492797851562,
                82.450439453125
              ],
              [
                523.6885986328125,
                81.01025390625
              ],
              [
                524.768310546875,
                80.65020751953125
              ],
              [
                526.2080688476562,
                79.93011474609375
              ],
              [
                531.2469482421875,
                77.76983642578125
              ],
              [
                536.6458129882812,
                75.24951171875
              ],
              [
                536.285888671875,
                74.16937255859375
              ],
              [
                535.5660400390625,
                71.28900146484375
              ],
              [
                535.5660400390625,
                70.2088623046875
              ],
              [
                535.9259643554688,
                69.48876953125
              ],
              [
                541.3248291015625,
                66.96844482421875
              ],
              [
                541.3248291015625,
                69.12872314453125
              ],
              [
                541.6847534179688,
                84.97073364257812
              ],
              [
                548.5233154296875,
                83.53054809570312
              ],
              [
                549.2431640625,
                85.69082641601562
              ],
              [
                553.5621948242188,
                83.89059448242188
              ],
              [
                552.482421875,
                81.37030029296875
              ],
              [
                557.5213623046875,
                79.93011474609375
              ],
              [
                556.0816650390625,
                75.24951171875
              ],
              [
                560.0408325195312,
                74.16937255859375
              ],
              [
                562.2003784179688,
                78.8499755859375
              ],
              [
                566.1595458984375,
                77.4097900390625
              ],
              [
                565.7996215820312,
                76.689697265625
              ],
              [
                570.8385620117188,
                75.24951171875
              ],
              [
                570.4786376953125,
                74.5294189453125
              ],
              [
                570.8385620117188,
                74.5294189453125
              ],
              [
                575.87744140625,
                72.72918701171875
              ],
              [
                576.5972900390625,
                74.88946533203125
              ],
              [
                578.7568359375,
                73.809326171875
              ],
              [
                579.1167602539062,
                73.809326171875
              ],
              [
                579.8366088867188,
                74.16937255859375
              ],
              [
                581.2763061523438,
                73.809326171875
              ],
              [
                581.63623046875,
                73.44927978515625
              ],
              [
                583.4358520507812,
                72.72918701171875
              ],
              [
                588.834716796875,
                70.928955078125
              ],
              [
                590.6343383789062,
                70.56890869140625
              ],
              [
                593.8736572265625,
                69.48876953125
              ],
              [
                596.033203125,
                68.7686767578125
              ],
              [
                598.1927490234375,
                67.68853759765625
              ],
              [
                597.472900390625,
                65.168212890625
              ],
              [
                604.6713256835938,
                62.28790283203125
              ],
              [
                633.8251342773438,
                57.24725341796875
              ],
              [
                642.4633178710938,
                55.80706787109375
              ]
            ],
            "explicitlyClosed": true,
            "originalValid": true,
            "originalAreaPagePoints2": 216183.89549436868
          }
        ],
        "geometryHash": "bb2e1736f5ca0cdb06a7c4c27cc001dc090a3a1e9c94697b6d5749462090ee30",
        "joiningReview": {
          "joined": false
        },
        "repair": null,
        "clipReview": {
          "activeClipCount": 2,
          "outsideActiveClipsAreaPoints2": [
            0.0,
            0.0
          ],
          "outsideViewportAreaPoints2": 0.0,
          "distanceFromViewportPoints": 38.15187883377075
        },
        "manualIdentityQualification": "The page title and interior Hiboun label uniquely identify the complete target ring. Its northern black governorate boundary separately labels Baghdadi and Moknine; its eastern black edge follows the coast. The southern red divider separates Zahra and Rmel, and the western red divider separates Chiba. Only the full target ring376 is exported; the adjacent Rmel ring381 reaches the viewport and is not substituted or joined. Decree annex1 page20 first row is Hiboun to Hiboun, continuing the Mahdia parent cell from page19.",
        "labelCenterContainmentPassed": true,
        "insideTargetLabels": [
          {
            "text": "نوﺑﯾھ",
            "normalizedForward": "نوبيه",
            "normalizedReverse": "هيبون",
            "colors": [
              15073280
            ],
            "bounds": [
              285.23931884765625,
              273.5897216796875,
              355.79888916015625,
              326.8742980957031
            ],
            "point": [
              320.51910400390625,
              300.2320098876953
            ]
          }
        ],
        "visualReview": {
          "file": "work/isie-sector-maps-hiboun/hiboun.png",
          "completeTargetReviewed": true
        },
        "sourceAssertion": {
          "id": "osm:relation:7152283",
          "expectedKind": "sector",
          "expectedTags": {
            "admin_level": "6",
            "boundary": "administrative",
            "name": "هيبون",
            "name:ar": "هيبون",
            "name:fr": "Hiboun",
            "ref:tn:codegeo": "335161",
            "wikidata": "Q3135175"
          }
        },
        "currentOfficialIdentity": {
          "governorateCode": "33",
          "governorateFr": "Mahdia",
          "governorateAr": "المهدية",
          "delegationCode": "3351",
          "delegationFr": "Mahdia",
          "delegationAr": "المهدية",
          "sectorCode": "335161",
          "sectorFr": "Hiboun",
          "sectorAr": "هيبون",
          "sourceRows": {
            "Population_Secteur_Age_Sexe_Dynamique.xlsx": 38929,
            "Nombre_de_Logements_par_Secteurs.xlsx": 1852,
            "Nombre_de_menages_par_Secteurs.xlsx": 1848
          }
        },
        "officialRegistrySha256": "23b3ee87c07971eb48b456799833f1996ade5d0bdc10d7bf6b0e3bf6798c9eec",
        "scopeReview": {
          "classification": "WHOLE_CIRCLE_EQUALS_WHOLE_IMADA",
          "wholeCircleEqualsWholeImada": true,
          "decreeAnnex": 1,
          "decreeTable": "A",
          "decreePDFPage": 20,
          "decreeJORTPage": 5117,
          "parentContinuationPDFPage": 19,
          "parentContinuationJORTPage": 5116,
          "sourceDecreeSha256": "bfb3fe752b9900eaf873198b009968243f1b0bd2c119836cfd4fbbfc07e1e10f",
          "sourceDecreeURL": "https://www.isie.tn/wp-content/uploads/2023/09/Decret2023_590Arabe.pdf",
          "imadaNameAr": "هيبون",
          "circleNameAr": "هيبون"
        },
        "validation": {
          "valid": true,
          "countryFullyContains": true,
          "countryOutsideAreaMeters2": 0.0,
          "sourceUnchanged": true,
          "quantizedValid": true,
          "quantizedCountryFullyContains": true,
          "quantizedSymmetricDifferenceMeters2": 570.5828711836896,
          "quantizedHausdorffMeters": 0.06935544934227479,
          "quantizationGridDegrees": 1e-06
        },
        "osmComparison": {
          "oldAreaMeters2": 27722961.17711298,
          "officialAreaMeters2": 27467712.731783953,
          "iou": 0.9610352076464732,
          "officialCoveredByOsm": 0.9846845139444577,
          "osmCoveredByOfficial": 0.9756184120328267,
          "hausdorffMeters": 485.2507925205805
        }
      },
      "geometry": {
        "type": "Polygon",
        "coordinates": [
          [
            [
              11.03020292085771,
              35.555654970003786
            ],
            [
              11.030642811898838,
              35.551806898550325
            ],
            [
              11.031210416701564,
              35.547700626661374
            ],
            [
              11.031866177871834,
              35.54531203037686
            ],
            [
              11.032883853917676,
              35.54130791189574
            ],
            [
              11.033046155496399,
              35.5406467752698
            ],
            [
              11.033877051327504,
              35.538108906764975
            ],
            [
              11.034250988257423,
              35.53696869268273
            ],
            [
              11.034837482413822,
              35.535385962856935
            ],
            [
              11.034835631079273,
              35.53531283798907
            ],
            [
              11.035428584263293,
              35.53398603959995
            ],
            [
              11.03580340875496,
              35.53288238376366
            ],
            [
              11.036268615340605,
              35.53181378092436
            ],
            [
              11.03656228428257,
              35.531040690298084
            ],
            [
              11.036946345799187,
              35.53030265557918
            ],
            [
              11.037075908948022,
              35.53011758009256
            ],
            [
              11.037587668845555,
              35.52912134313908
            ],
            [
              11.038526327297593,
              35.5273131854886
            ],
            [
              11.039167597540622,
              35.52613186578208
            ],
            [
              11.039338176686112,
              35.525799783249475
            ],
            [
              11.04098405267203,
              35.523650461298566
            ],
            [
              11.04163455039671,
              35.522834750348295
            ],
            [
              11.043372546795505,
              35.52079357382082
            ],
            [
              11.044809472333379,
              35.5192329848002
            ],
            [
              11.046855730834752,
              35.51700365050588
            ],
            [
              11.049176735340415,
              35.515025665136015
            ],
            [
              11.048449992075957,
              35.51459905526192
            ],
            [
              11.047682264500466,
              35.514319450904374
            ],
            [
              11.04722945367499,
              35.51410765774071
            ],
            [
              11.047003979590857,
              35.51403832277425
            ],
            [
              11.047043119345874,
              35.51381819117658
            ],
            [
              11.047037536565442,
              35.51359881745586
            ],
            [
              11.047064580203447,
              35.51290337917748
            ],
            [
              11.047332911966055,
              35.512898831605675
            ],
            [
              11.047464285945106,
              35.5127868707492
            ],
            [
              11.04767858820322,
              35.512417457629354
            ],
            [
              11.047176414471377,
              35.51202361358159
            ],
            [
              11.047308717834275,
              35.51194821521236
            ],
            [
              11.047120527750764,
              35.51158562392093
            ],
            [
              11.046986364043814,
              35.5115878974725
            ],
            [
              11.046582012467919,
              35.511521592612155
            ],
            [
              11.046177661492349,
              35.51145528637244
            ],
            [
              11.045993197275182,
              35.51123894238363
            ],
            [
              11.045759364161633,
              35.510840543778016
            ],
            [
              11.045381146032222,
              35.510042233627985
            ],
            [
              11.04507089893266,
              35.510157220570065
            ],
            [
              11.04369292214054,
              35.510509743832664
            ],
            [
              11.043381734365935,
              35.51058816430066
            ],
            [
              11.042982032713907,
              35.510704655964524
            ],
            [
              11.042805006142435,
              35.51078080593531
            ],
            [
              11.042494744661298,
              35.510895786579376
            ],
            [
              11.042316789033524,
              35.510935376549135
            ],
            [
              11.041121388734723,
              35.51143109320277
            ],
            [
              11.038997939977374,
              35.51238140406727
            ],
            [
              11.036651745529111,
              35.513372012042744
            ],
            [
              11.035588590170924,
              35.513792291838406
            ],
            [
              11.035323954094489,
              35.513943063598575
            ],
            [
              11.035281398603335,
              35.512261189011035
            ],
            [
              11.035162354301098,
              35.51109269683768
            ],
            [
              11.035156804475172,
              35.510873324489566
            ],
            [
              11.035038689910712,
              35.50974139439754
            ],
            [
              11.035062138031094,
              35.508899701534816
            ],
            [
              11.035053814277834,
              35.50857063822047
            ],
            [
              11.035389373660735,
              35.50768711504029
            ],
            [
              11.035381973905865,
              35.507394614318095
            ],
            [
              11.035365324846788,
              35.506736487636275
            ],
            [
              11.035213595954332,
              35.50604405842943
            ],
            [
              11.034012666144434,
              35.506320331514935
            ],
            [
              11.033300863004225,
              35.50647862668869
            ],
            [
              11.032632852077654,
              35.506599602683735
            ],
            [
              11.031740328454804,
              35.50668777286826
            ],
            [
              11.031340627198384,
              35.50680422901615
            ],
            [
              11.030674455743183,
              35.50699831973123
            ],
            [
              11.030275673892406,
              35.507151335150375
            ],
            [
              11.030098642025628,
              35.50722746664202
            ],
            [
              11.029523754822844,
              35.50749317349921
            ],
            [
              11.02867869454826,
              35.50769025848969
            ],
            [
              11.027475872062844,
              35.507893342420694
            ],
            [
              11.026227409813965,
              35.50806060169667
            ],
            [
              11.025469012942743,
              35.508146476045184
            ],
            [
              11.024174894051278,
              35.5082779014021
            ],
            [
              11.022745698132342,
              35.508374996423804
            ],
            [
              11.022255614690822,
              35.50845635777716
            ],
            [
              11.021139446534338,
              35.50854819343367
            ],
            [
              11.020605565508552,
              35.50866685293664
            ],
            [
              11.019269460455634,
              35.50890866295806
            ],
            [
              11.01775538093629,
              35.509190009317166
            ],
            [
              11.01624129753996,
              35.50947133686799
            ],
            [
              11.015350542674117,
              35.50963251347699
            ],
            [
              11.01485952696202,
              35.509677282204066
            ],
            [
              11.014814805891142,
              35.509678028077026
            ],
            [
              11.014681558325595,
              35.50971682864258
            ],
            [
              11.013788974151765,
              35.50980486765455
            ],
            [
              11.012942016241828,
              35.509928718164666
            ],
            [
              11.01205216683806,
              35.51012643380466
            ],
            [
              11.01080819616967,
              35.51047635117836
            ],
            [
              11.009831627863731,
              35.51078522593291
            ],
            [
              11.009299532155277,
              35.510976968989915
            ],
            [
              11.008505495488498,
              35.51142911044202
            ],
            [
              11.008063749553703,
              35.51165592429148
            ],
            [
              11.0074440273456,
              35.511922272548325
            ],
            [
              11.00540320116043,
              35.51261457921738
            ],
            [
              11.003893553781786,
              35.51307856829433
            ],
            [
              11.001051280799679,
              35.51393040764502
            ],
            [
              10.998078404938624,
              35.51493065160213
            ],
            [
              10.996480126344714,
              35.515432596459455
            ],
            [
              10.996124143044332,
              35.51551163615593
            ],
            [
              10.995501627769714,
              35.51566823170561
            ],
            [
              10.993721696948352,
              35.51606340569176
            ],
            [
              10.992032103932612,
              35.516493639303015
            ],
            [
              10.991587565348963,
              35.516610704454536
            ],
            [
              10.991187754822482,
              35.516727030719615
            ],
            [
              10.990209219426667,
              35.51696262713106
            ],
            [
              10.9887405045833,
              35.517279443542314
            ],
            [
              10.987536520197496,
              35.51744557291659
            ],
            [
              10.987447971513227,
              35.51748360827522
            ],
            [
              10.986691239666964,
              35.517642369991506
            ],
            [
              10.985666150190495,
              35.51780553851353
            ],
            [
              10.984238517643762,
              35.51797531122424
            ],
            [
              10.982943255097899,
              35.518069737276285
            ],
            [
              10.981647988770698,
              35.518164146406974
            ],
            [
              10.9805307235316,
              35.51821904798525
            ],
            [
              10.97985892393018,
              35.518193481936756
            ],
            [
              10.979275676369005,
              35.518129885823974
            ],
            [
              10.978468799744753,
              35.51806994660812
            ],
            [
              10.97766461954715,
              35.518119690348406
            ],
            [
              10.976727156451979,
              35.518208191459706
            ],
            [
              10.975880043129152,
              35.51833178606858
            ],
            [
              10.975345117942686,
              35.518413691613134
            ],
            [
              10.974499795354003,
              35.51861040442011
            ],
            [
              10.973876309641447,
              35.51873032647323
            ],
            [
              10.97356501378302,
              35.518808569830924
            ],
            [
              10.971911901018286,
              35.5189087235326
            ],
            [
              10.971286616013716,
              35.51895550757748
            ],
            [
              10.970750785014895,
              35.51900082904359
            ],
            [
              10.96994837975689,
              35.519123652806236
            ],
            [
              10.968834668793393,
              35.51932470264983
            ],
            [
              10.968120817450645,
              35.51940949239986
            ],
            [
              10.967864979510196,
              35.519925760832
            ],
            [
              10.967737953133783,
              35.520220458911446
            ],
            [
              10.966778974481214,
              35.52126027115347
            ],
            [
              10.966261006643002,
              35.52203685416679
            ],
            [
              10.966218959679086,
              35.522147274392
            ],
            [
              10.965665188060804,
              35.52329022062053
            ],
            [
              10.965414685661244,
              35.52402586566647
            ],
            [
              10.96533058840957,
              35.52424670557051
            ],
            [
              10.964905622863332,
              35.52516808409915
            ],
            [
              10.963984137665934,
              35.52591463924284
            ],
            [
              10.962250323298464,
              35.52638175785318
            ],
            [
              10.960908373405374,
              35.52640355055652
            ],
            [
              10.959487652614282,
              35.52686554970522
            ],
            [
              10.958391619037553,
              35.52779778759199
            ],
            [
              10.9583083886053,
              35.52805518740992
            ],
            [
              10.958270781316251,
              35.52834842613945
            ],
            [
              10.958100756620368,
              35.52871696881073
            ],
            [
              10.958248316602447,
              35.52926325284953
            ],
            [
              10.95830373799014,
              35.52970129465929
            ],
            [
              10.958269694151886,
              35.53014079002427
            ],
            [
              10.958234757408054,
              35.530543721218656
            ],
            [
              10.958192696371796,
              35.53065413897567
            ],
            [
              10.958063837705364,
              35.530875699690846
            ],
            [
              10.957847290465551,
              35.531171835821524
            ],
            [
              10.957282660256372,
              35.531875980598805
            ],
            [
              10.956872699149063,
              35.533418918869835
            ],
            [
              10.956450263573528,
              35.534449960339145
            ],
            [
              10.956238151749927,
              35.53492891794861
            ],
            [
              10.955949912225885,
              35.53595778402563
            ],
            [
              10.956143990030695,
              35.536576477022805
            ],
            [
              10.955930092398726,
              35.53698230268702
            ],
            [
              10.955581088363122,
              35.537353740191065
            ],
            [
              10.955364515569796,
              35.53764987550701
            ],
            [
              10.955236528729735,
              35.53790799464894
            ],
            [
              10.955158616369486,
              35.53838477770739
            ],
            [
              10.95534468890014,
              35.5386743940518
            ],
            [
              10.955664087832057,
              35.53892527261919
            ],
            [
              10.956162445280556,
              35.539173248725426
            ],
            [
              10.956523918100757,
              35.53931371080018
            ],
            [
              10.956709105895953,
              35.539566757540996
            ],
            [
              10.956759186930677,
              35.5397854175913
            ],
            [
              10.957125116215195,
              35.54010869534399
            ],
            [
              10.957583199147793,
              35.540540210826926
            ],
            [
              10.958082462983151,
              35.54082474564731
            ],
            [
              10.958218464823933,
              35.54089569764564
            ],
            [
              10.959299352468067,
              35.54117079517114
            ],
            [
              10.960015192190596,
              35.54115917961199
            ],
            [
              10.96140034441016,
              35.541063534320095
            ],
            [
              10.962338986970602,
              35.54101170770549
            ],
            [
              10.963228422305924,
              35.54077778110064
            ],
            [
              10.963672243430926,
              35.540624251417704
            ],
            [
              10.964380923586077,
              35.540320098260416
            ],
            [
              10.965313296484407,
              35.54001230411136
            ],
            [
              10.966247450316128,
              35.53977762776191
            ],
            [
              10.966916744673675,
              35.539693572166605
            ],
            [
              10.967677306055295,
              35.53968118291173
            ],
            [
              10.968482605946832,
              35.53966805965131
            ],
            [
              10.969289697452416,
              35.53972805876799
            ],
            [
              10.97005025807436,
              35.53971565453744
            ],
            [
              10.970367015080873,
              35.53985680094185
            ],
            [
              10.971038995288266,
              35.539882414091345
            ],
            [
              10.971442541593712,
              35.53991240571865
            ],
            [
              10.971937362657187,
              35.54001406260348
            ],
            [
              10.9731990326553,
              35.54035923664976
            ],
            [
              10.973785131279374,
              35.54053255135849
            ],
            [
              10.974194969716208,
              35.5408184799754
            ],
            [
              10.974557377823114,
              35.54099544731822
            ],
            [
              10.975099642800835,
              35.541206047508794
            ],
            [
              10.975641910601041,
              35.541416648259926
            ],
            [
              10.976458915962237,
              35.54187879942785
            ],
            [
              10.977005689820189,
              35.54227220912914
            ],
            [
              10.977101468107534,
              35.54252669004231
            ],
            [
              10.97728672796779,
              35.542779705797805
            ],
            [
              10.977469289348496,
              35.54292303019699
            ],
            [
              10.97791849294546,
              35.54298883060047
            ],
            [
              10.978321156054998,
              35.542982234934065
            ],
            [
              10.978682682160345,
              35.54312262555376
            ],
            [
              10.979042408262897,
              35.543189887768335
            ],
            [
              10.979581996555039,
              35.54329077906999
            ],
            [
              10.979941723961288,
              35.54335803545037
            ],
            [
              10.980212869838878,
              35.54346332788906
            ],
            [
              10.980750660220709,
              35.543491083510865
            ],
            [
              10.980843747506116,
              35.54363587018289
            ],
            [
              10.981115796912484,
              35.54377772100901
            ],
            [
              10.981569518437645,
              35.54402632541908
            ],
            [
              10.981974891753683,
              35.54412940810003
            ],
            [
              10.982332820399947,
              35.54412353312172
            ],
            [
              10.982689846646526,
              35.54408109352964
            ],
            [
              10.983004834978303,
              35.54414907828365
            ],
            [
              10.983275989064538,
              35.54425436047064
            ],
            [
              10.983591885008995,
              35.5443589071211
            ],
            [
              10.983992749691994,
              35.544279165215585
            ],
            [
              10.984392710448263,
              35.54416285848718
            ],
            [
              10.985014564306306,
              35.543969746569566
            ],
            [
              10.985413618382237,
              35.54381687304796
            ],
            [
              10.985678444917381,
              35.54366620540242
            ],
            [
              10.986078399963676,
              35.54354989324502
            ],
            [
              10.986433613218363,
              35.543434315751455
            ],
            [
              10.986922142808456,
              35.543279968570594
            ],
            [
              10.98732480328089,
              35.54327334282512
            ],
            [
              10.987551218945416,
              35.54337934848834
            ],
            [
              10.988046078672719,
              35.54348093782173
            ],
            [
              10.988312712364761,
              35.54340339137944
            ],
            [
              10.98844602900874,
              35.543364617942956
            ],
            [
              10.988716281992614,
              35.54343332743019
            ],
            [
              10.98908053845156,
              35.54368337340174
            ],
            [
              10.989354414158543,
              35.54389833193482
            ],
            [
              10.989628291326042,
              35.544113289790744
            ],
            [
              10.989724111507694,
              35.544367759233815
            ],
            [
              10.990041826675075,
              35.544545412365565
            ],
            [
              10.990092907490085,
              35.54480061874167
            ],
            [
              10.990593210424729,
              35.54512157751614
            ],
            [
              10.990910930532436,
              35.545299231275635
            ],
            [
              10.991137356498173,
              35.54540523292771
            ],
            [
              10.991227745804359,
              35.54544032079262
            ],
            [
              10.991412149783068,
              35.54565674660949
            ],
            [
              10.99155271942784,
              35.545910476446835
            ],
            [
              10.991652173772904,
              35.546311197381726
            ],
            [
              10.991660331777654,
              35.54664026742878
            ],
            [
              10.991673022192984,
              35.54715215103052
            ],
            [
              10.991912142931243,
              35.5477700376543
            ],
            [
              10.991922115600374,
              35.54817223111554
            ],
            [
              10.991840792566162,
              35.54850277706688
            ],
            [
              10.991625234822449,
              35.548835537017446
            ],
            [
              10.991449886778403,
              35.54898474208136
            ],
            [
              10.991369463669404,
              35.549351848052716
            ],
            [
              10.991152995508887,
              35.54964804392264
            ],
            [
              10.990849756224579,
              35.550055404884084
            ],
            [
              10.990678028646892,
              35.55035086227308
            ],
            [
              10.990596698617951,
              35.55068140441046
            ],
            [
              10.990518078715336,
              35.55112163972991
            ],
            [
              10.990481492323624,
              35.551451444181176
            ],
            [
              10.990400156871017,
              35.55178198935301
            ],
            [
              10.990582758047582,
              35.55192529232627
            ],
            [
              10.990853041650547,
              35.55199399283808
            ],
            [
              10.990905037194036,
              35.5522857616567
            ],
            [
              10.990999059654333,
              35.55246710267983
            ],
            [
              10.991050149657585,
              35.55272230497368
            ],
            [
              10.991321342822912,
              35.552827567636164
            ],
            [
              10.991372434202988,
              35.5530827728375
            ],
            [
              10.991599789778093,
              35.55322533606179
            ],
            [
              10.991962290813735,
              35.553402247661985
            ],
            [
              10.992276415711036,
              35.55343364335658
            ],
            [
              10.992545798621999,
              35.55346577656515
            ],
            [
              10.992595987174461,
              35.55368441470976
            ],
            [
              10.992646176104445,
              35.55390305591623
            ],
            [
              10.992920097051837,
              35.554118004562824
            ],
            [
              10.993371190282854,
              35.55425687128738
            ],
            [
              10.993689860852891,
              35.55447107934197
            ],
            [
              10.994011252680544,
              35.55479497626177
            ],
            [
              10.994288811982948,
              35.55515617446826
            ],
            [
              10.9948384888466,
              35.555659183193924
            ],
            [
              10.9953799928763,
              35.555833126631136
            ],
            [
              10.995695040597314,
              35.55590107617972
            ],
            [
              10.995872212256621,
              35.55582499124057
            ],
            [
              10.996138877888978,
              35.55574742654445
            ],
            [
              10.996572711031178,
              35.55519158666537
            ],
            [
              10.996654023687867,
              35.554861038214845
            ],
            [
              10.996469587419488,
              35.55464461871424
            ],
            [
              10.996246763525741,
              35.554684881056794
            ],
            [
              10.996117067559736,
              35.554869916297896
            ],
            [
              10.996115250061969,
              35.5547967899212
            ],
            [
              10.995830415262395,
              35.55414309054486
            ],
            [
              10.99612364737377,
              35.55333352557027
            ],
            [
              10.996167484467351,
              35.5532962226448
            ],
            [
              10.997321778365933,
              35.552911352235554
            ],
            [
              10.998655041972803,
              35.55252350865428
            ],
            [
              11.000264046775776,
              35.55242371160489
            ],
            [
              11.00079734585919,
              35.55226856312493
            ],
            [
              11.000885925220752,
              35.55223051712241
            ],
            [
              11.000976326232507,
              35.5522655972484
            ],
            [
              11.00111056149532,
              35.5522633726668
            ],
            [
              11.001155306579653,
              35.55226263110643
            ],
            [
              11.00124479674341,
              35.5522611479359
            ],
            [
              11.00142468433091,
              35.55229474454386
            ],
            [
              11.00151508563134,
              35.55232982425524
            ],
            [
              11.001604575850086,
              35.552328340815265
            ],
            [
              11.001739722307514,
              35.552362675509556
            ],
            [
              11.001874869028075,
              35.55239701624648
            ],
            [
              11.001919614165757,
              35.55239627440007
            ],
            [
              11.002234652898702,
              35.552464204043936
            ],
            [
              11.002503123865173,
              35.55245975190829
            ],
            [
              11.002683016128245,
              35.55249334654188
            ],
            [
              11.002728669176868,
              35.552529167511366
            ],
            [
              11.00282272193927,
              35.55271049836002
            ],
            [
              11.002964248321968,
              35.553000776140316
            ],
            [
              11.002965160119816,
              35.553037339186545
            ],
            [
              11.003010817403238,
              35.55307315996898
            ],
            [
              11.003103955824056,
              35.55321792756165
            ],
            [
              11.003241840150034,
              35.553361949614505
            ],
            [
              11.003423558742435,
              35.55346866913138
            ],
            [
              11.003784260780975,
              35.55357241821792
            ],
            [
              11.004189709489799,
              35.55367542348062
            ],
            [
              11.004416175836859,
              35.553781398700586
            ],
            [
              11.00455314718754,
              35.55388885928763
            ],
            [
              11.004734868646757,
              35.55399557672222
            ],
            [
              11.004872757278946,
              35.554139599851304
            ],
            [
              11.004963162068343,
              35.55417467684859
            ],
            [
              11.005323869076364,
              35.55427842114603
            ],
            [
              11.005505592406134,
              35.55438513734949
            ],
            [
              11.00568731621149,
              35.554491853261325
            ],
            [
              11.006138427475927,
              35.554630671450994
            ],
            [
              11.006500051361432,
              35.55477097506245
            ],
            [
              11.007087235909585,
              35.55498068455062
            ],
            [
              11.007539266060927,
              35.555156060250084
            ],
            [
              11.008080794957406,
              35.55532993956806
            ],
            [
              11.008261609899895,
              35.555400088485456
            ],
            [
              11.008487171812847,
              35.555469492781285
            ],
            [
              11.008624155152665,
              35.55557694837673
            ],
            [
              11.00876022054521,
              35.55564784096564
            ],
            [
              11.008985783547638,
              35.55571724428846
            ],
            [
              11.0094359958355,
              35.55581948674279
            ],
            [
              11.009932786188688,
              35.55599410833661
            ],
            [
              11.010428659530042,
              35.55613216500999
            ],
            [
              11.01115102034802,
              35.55637618150823
            ],
            [
              11.012751527510225,
              35.55236250841978
            ],
            [
              11.013518601425336,
              35.55260576592181
            ],
            [
              11.013564262956537,
              35.5526415825614
            ],
            [
              11.01415236528654,
              35.55288782039175
            ],
            [
              11.014378841568652,
              35.55299377654043
            ],
            [
              11.014966031491518,
              35.55320344434027
            ],
            [
              11.015372408226813,
              35.55334297433624
            ],
            [
              11.015507554016542,
              35.55337729655861
            ],
            [
              11.015688378002597,
              35.55344743415606
            ],
            [
              11.016320312325425,
              35.55365635135044
            ],
            [
              11.016997921119536,
              35.553901080246334
            ],
            [
              11.016955930104679,
              35.554011515893556
            ],
            [
              11.016873784059522,
              35.55430551260181
            ],
            [
              11.016876538537158,
              35.55441520077802
            ],
            [
              11.016923120751553,
              35.554487578775685
            ],
            [
              11.017600738337567,
              35.55473230395905
            ],
            [
              11.017595227359852,
              35.55451292771403
            ],
            [
              11.017599560407518,
              35.552903423741625
            ],
            [
              11.018453390191867,
              35.55303546557325
            ],
            [
              11.018537367064027,
              35.55281459335729
            ],
            [
              11.019078893856896,
              35.55298842936629
            ],
            [
              11.018951092197172,
              35.5532466096947
            ],
            [
              11.019581201420785,
              35.55338238408833
            ],
            [
              11.019414171307831,
              35.55386069240704
            ],
            [
              11.019909129938627,
              35.55396214727654
            ],
            [
              11.020165647737159,
              35.553482341111796
            ],
            [
              11.02066152466492,
              35.55362035558995
            ],
            [
              11.020618619031897,
              35.553694229703794
            ],
            [
              11.021248734182315,
              35.5538299951586
            ],
            [
              11.021205828996465,
              35.55390386946505
            ],
            [
              11.021250574439977,
              35.55390312041784
            ],
            [
              11.021881604981296,
              35.55407544521526
            ],
            [
              11.02196557326922,
              35.553854570919725
            ],
            [
              11.022236807348346,
              35.55395976252266
            ],
            [
              11.022281552794425,
              35.55395901309185
            ],
            [
              11.02237012304136,
              35.5539209515766
            ],
            [
              11.022550025436178,
              35.55395451615851
            ],
            [
              11.022595691614061,
              35.553990329210116
            ],
            [
              11.022821260557889,
              35.55405970640774
            ],
            [
              11.023497048453631,
              35.55423127280871
            ],
            [
              11.02372169751157,
              35.554264085697056
            ],
            [
              11.024127171968813,
              35.55436702289877
            ],
            [
              11.024397488816232,
              35.55443564692183
            ],
            [
              11.024668727801052,
              35.554540832870735
            ],
            [
              11.024585688078323,
              35.55479827135417
            ],
            [
              11.025487973662413,
              35.55507575599458
            ],
            [
              11.029125317281505,
              35.55552677329494
            ],
            [
              11.03020292085771,
              35.555654970003786
            ]
          ]
        ]
      }
    }
  ]
}
