{
  "type": "FeatureCollection",
  "features": [
    {
      "type": "Feature",
      "id": "osm:relation:7113923",
      "properties": {
        "officialCode": "325654",
        "governorateCode": "32",
        "delegationCode": "3256",
        "nameAr": "جمال الغربية",
        "nameFr": "Jammel Ouest",
        "currentName": "جمال الغربية",
        "currentAliases": [
          "Jammel Ouest"
        ],
        "acceptedNameRecommendation": {
          "nameAr": "جمال الغربية",
          "nameFr": "Jammel Ouest",
          "aliases": [
            "Jammel Ouest"
          ]
        },
        "sourcePdfURL": "https://www.isie.tn/wp-content/uploads/2023/CartesCirconscriptionsElectoralesLocales2023/%D8%A7%D9%84%D9%85%D9%86%D8%B3%D8%AA%D9%8A%D8%B1/%D8%AC%D9%85%D8%A7%D9%84/%D8%AC%D9%85%D8%A7%D9%84%20%D8%A7%D9%84%D8%BA%D8%B1%D8%A8%D9%8A%D8%A9.pdf",
        "sourcePdfSha256": "cd0d1da3b91173ba8aa4bebc6883a9f5d3bd04e3c66a942455e38c42343bdb6a",
        "sourceDrawingIndices": [
          648
        ],
        "sourceVectorLayer": "circonscription_isie2023",
        "sourceCrsEpsg": 32632,
        "sourceGeometrySha256": "42f60a88cabc93977992219024ce5391a3ed474e11725f9b4c1250e4997f8f98",
        "sourceControlPointMaxResidualMeters": 0.22214878242608715,
        "rawNativePath": {
          "file": "C:\\Users\\barou\\Documents\\Codex\\2026-09-06\\the-android-app-app-currently-allows\\work\\next-three-interface-source-review\\jammel-ouest-raw-native-path.json",
          "sha256": "6df3c064c1f50b6d16bd2ee2a2d9bbb92028303d6d557089b9da4ae4b1f1dc56"
        },
        "administrativeScope": {
          "decision": "whole_imada",
          "officialIdentity": {
            "governorateCode": "32",
            "governorateFr": "Monastir",
            "governorateAr": "المنستير",
            "delegationCode": "3256",
            "delegationFr": "Jammel",
            "delegationAr": "جمال",
            "sectorCode": "325654",
            "sectorFr": "Jammel Ouest",
            "sectorAr": "جمال الغربية",
            "sourceRows": {
              "Population_Secteur_Age_Sexe_Dynamique.xlsx": 37059,
              "Nombre_de_Logements_par_Secteurs.xlsx": 1755,
              "Nombre_de_menages_par_Secteurs.xlsx": 1753
            }
          },
          "decree": {
            "file": "C:\\Users\\barou\\Documents\\Codex\\2026-09-06\\the-android-app-app-currently-allows\\work\\electoral-circle-semantics\\decree2023-590.pdf",
            "sha256": "bfb3fe752b9900eaf873198b009968243f1b0bd2c119836cfd4fbbfc07e1e10f"
          },
          "decreePdfPage": 17,
          "jortPage": 5114,
          "personallyViewedPage": {
            "file": "C:\\Users\\barou\\Documents\\Codex\\2026-09-06\\the-android-app-app-currently-allows\\work\\next-three-interface-source-review\\decree-17.png",
            "sha256": "3bc6e32e18574cc92182937b0f8fe7270bd3bcc21fc72aed9c4aca45953dd13c"
          },
          "circleLabel": "جمال الغربية",
          "oneWholeImadaOneCircleOneSeat": true
        },
        "geometryPolicy": "Unmodified complete native ring. No clipping, snapping, repair or invented connecting segments.",
        "officialRegistryNameAr": "جمال الغربية",
        "officialRegistryNameFr": "Jammel Ouest",
        "id": "osm:relation:7113923",
        "sourceId": "isie-local-sectors-2023-jammel",
        "parentAr": "معتمدية جمّال",
        "parentFr": "Délégation Jammel"
      },
      "geometry": {
        "type": "Polygon",
        "coordinates": [
          [
            [
              10.687636269594552,
              35.61426281862788
            ],
            [
              10.687532399963708,
              35.61440984064992
            ],
            [
              10.687533011359065,
              35.61443894587797
            ],
            [
              10.687110804800103,
              35.614706875594635
            ],
            [
              10.686977402303528,
              35.61514544553499
            ],
            [
              10.687453596429368,
              35.61575017438421
            ],
            [
              10.688285616975106,
              35.61632080535347
            ],
            [
              10.688829442386938,
              35.61674989925026
            ],
            [
              10.689436463765524,
              35.61848821961806
            ],
            [
              10.690526001062638,
              35.61943370593279
            ],
            [
              10.69203655731431,
              35.62005302560638
            ],
            [
              10.695631754028447,
              35.619769629737384
            ],
            [
              10.697280626783506,
              35.62018314497079
            ],
            [
              10.699632020489046,
              35.62178039668658
            ],
            [
              10.703150567831063,
              35.62292442301787
            ],
            [
              10.704136297171441,
              35.62232822914825
            ],
            [
              10.70478224098373,
              35.62252289427995
            ],
            [
              10.705698106160483,
              35.62367448962958
            ],
            [
              10.707242643620779,
              35.62420579388963
            ],
            [
              10.70953267786009,
              35.62458094807523
            ],
            [
              10.711614438253807,
              35.62522103427988
            ],
            [
              10.713636978617684,
              35.62475561084937
            ],
            [
              10.71792777148222,
              35.623646486716694
            ],
            [
              10.721190965158447,
              35.62284301292405
            ],
            [
              10.722434184730504,
              35.6226214702603
            ],
            [
              10.724318386629283,
              35.62236163930407
            ],
            [
              10.72559785929011,
              35.622168659430535
            ],
            [
              10.728085494739382,
              35.6217836832879
            ],
            [
              10.729115433898908,
              35.62159424116943
            ],
            [
              10.731710592990982,
              35.62123676009429
            ],
            [
              10.732207103292435,
              35.62111317629022
            ],
            [
              10.733479623671732,
              35.620599966629655
            ],
            [
              10.734712714646058,
              35.619912629643544
            ],
            [
              10.735033504136904,
              35.61990801554693
            ],
            [
              10.735792719857955,
              35.62039201925006
            ],
            [
              10.736438089823265,
              35.62055741089588
            ],
            [
              10.736972752810768,
              35.62054971233891
            ],
            [
              10.737329194689702,
              35.62054457865027
            ],
            [
              10.73747176537156,
              35.62054252496678
            ],
            [
              10.738112730601628,
              35.620504176484644
            ],
            [
              10.739003834085306,
              35.62049133186975
            ],
            [
              10.739110766465432,
              35.62048979007334
            ],
            [
              10.739430933220808,
              35.620456059707145
            ],
            [
              10.740892334694268,
              35.6204349752046
            ],
            [
              10.74146263965499,
              35.62042674226641
            ],
            [
              10.74221053322288,
              35.6203868280756
            ],
            [
              10.743029707782608,
              35.620345879157554
            ],
            [
              10.743207927707308,
              35.620343303498096
            ],
            [
              10.743778231314279,
              35.62033505961739
            ],
            [
              10.743921439139996,
              35.62036210256458
            ],
            [
              10.745061407537959,
              35.620316501109166
            ],
            [
              10.745133960205992,
              35.62037367831586
            ],
            [
              10.745740540007944,
              35.62039401372048
            ],
            [
              10.746491594479732,
              35.62049959452047
            ],
            [
              10.746706091374255,
              35.62052560183585
            ],
            [
              10.747744194266295,
              35.62071435530607
            ],
            [
              10.747923048033158,
              35.620740879391676
            ],
            [
              10.748781674042286,
              35.62087399780052
            ],
            [
              10.74910373871668,
              35.62092755456077
            ],
            [
              10.749318237408819,
              35.62095355716462
            ],
            [
              10.749674038633511,
              35.62091928274303
            ],
            [
              10.749922913270593,
              35.62088655869308
            ],
            [
              10.750101133739484,
              35.62088397280328
            ],
            [
              10.750528228405837,
              35.62084866135904
            ],
            [
              10.750777102401747,
              35.62081593555929
            ],
            [
              10.75088403454295,
              35.62081438330155
            ],
            [
              10.751346137738704,
              35.620749447312534
            ],
            [
              10.751416156437296,
              35.620690206175226
            ],
            [
              10.751442914751763,
              35.620282229481425
            ],
            [
              10.752453000691355,
              35.62082071024972
            ],
            [
              10.753250511356583,
              35.62142050190927
            ],
            [
              10.754194426263993,
              35.62219283681787
            ],
            [
              10.75485064998848,
              35.62285289660541
            ],
            [
              10.754923211747222,
              35.62291006762696
            ],
            [
              10.755975368796312,
              35.623739039669346
            ],
            [
              10.756118586233997,
              35.62376606780538
            ],
            [
              10.756221703022455,
              35.62358988590775
            ],
            [
              10.756361101005488,
              35.62344228897753
            ],
            [
              10.756501135068135,
              35.62332379602584
            ],
            [
              10.756641805408265,
              35.62323440951474
            ],
            [
              10.75678247537835,
              35.62314502038004
            ],
            [
              10.757063808325693,
              35.62296624172873
            ],
            [
              10.757168195687761,
              35.62284826732913
            ],
            [
              10.757383338434854,
              35.62290335945497
            ],
            [
              10.757527191722742,
              35.622959490063316
            ],
            [
              10.757672319217454,
              35.62307382871706
            ],
            [
              10.75794792199387,
              35.62263311098142
            ],
            [
              10.757982292495104,
              35.62257438321037
            ],
            [
              10.758121685469856,
              35.62242678436072
            ],
            [
              10.758294810906637,
              35.62219135586879
            ],
            [
              10.758399832701754,
              35.62210248457284
            ],
            [
              10.758503579699696,
              35.621955404982955
            ],
            [
              10.758536037644895,
              35.62180936475491
            ],
            [
              10.758640421356871,
              35.621691389161974
            ],
            [
              10.758706611151737,
              35.621457516838234
            ],
            [
              10.758809719470175,
              35.62128133537327
            ],
            [
              10.758835165455203,
              35.62081514993217
            ],
            [
              10.758901991458801,
              35.62061038161009
            ],
            [
              10.759176936010956,
              35.62014055977472
            ],
            [
              10.759383784415286,
              35.619817295207916
            ],
            [
              10.759487526800042,
              35.619670214852746
            ],
            [
              10.759728103089818,
              35.61925911994416
            ],
            [
              10.759969314671153,
              35.61887712622768
            ],
            [
              10.759968676931233,
              35.61884802213164
            ],
            [
              10.760072417046327,
              35.61870094131634
            ],
            [
              10.760208610615946,
              35.618407822254525
            ],
            [
              10.760517913144687,
              35.61787926672236
            ],
            [
              10.760792845457454,
              35.617409441443094
            ],
            [
              10.76086157803355,
              35.61729198441737
            ],
            [
              10.760965314591353,
              35.617144902900755
            ],
            [
              10.761032770537485,
              35.616969237608565
            ],
            [
              10.761102140510904,
              35.61688088454647
            ],
            [
              10.761410793458056,
              35.61632322530876
            ],
            [
              10.761580061010958,
              35.61591316562548
            ],
            [
              10.761579422811202,
              35.61588406400719
            ],
            [
              10.761644961640913,
              35.61562108614882
            ],
            [
              10.76170858521526,
              35.61527079599824
            ],
            [
              10.761705393797811,
              35.61512527556546
            ],
            [
              10.761739758525566,
              35.61506654682241
            ],
            [
              10.761772846653725,
              35.61494961236416
            ],
            [
              10.761801466485508,
              35.61462894681943
            ],
            [
              10.761796998377543,
              35.61442521820092
            ],
            [
              10.761749230124307,
              35.61387276105202
            ],
            [
              10.761748591911214,
              35.61384365942651
            ],
            [
              10.761747953644939,
              35.613814555333974
            ],
            [
              10.7617052921854,
              35.61349493085553
            ],
            [
              10.761663269339778,
              35.613204410433056
            ],
            [
              10.76173072085548,
              35.613028747245416
            ],
            [
              10.761730082614827,
              35.61299964314866
            ],
            [
              10.761832535794431,
              35.61279435279578
            ],
            [
              10.761899986575697,
              35.61261868705549
            ],
            [
              10.762003077195976,
              35.61244250066732
            ],
            [
              10.76210616743077,
              35.612266316665796
            ],
            [
              10.762171702078511,
              35.612003338503854
            ],
            [
              10.762235959545658,
              35.611682152117325
            ],
            [
              10.762235321153643,
              35.611653048021964
            ],
            [
              10.762232129207298,
              35.61150752754292
            ],
            [
              10.762193297648164,
              35.61136252772697
            ],
            [
              10.762190105812065,
              35.611217007237606
            ],
            [
              10.762189467501699,
              35.61118790560615
            ],
            [
              10.762151274545335,
              35.61107200986208
            ],
            [
              10.762146167794953,
              35.6108391770608
            ],
            [
              10.762142976105709,
              35.61069365655509
            ],
            [
              10.76210414516294,
              35.6105486566758
            ],
            [
              10.762063399473368,
              35.610316344463556
            ],
            [
              10.761988929827467,
              35.61017186759885
            ],
            [
              10.761986376764774,
              35.610055451171824
            ],
            [
              10.761911269230358,
              35.60988186766675
            ],
            [
              10.761909354536794,
              35.60979455533884
            ],
            [
              10.761907439851463,
              35.60970724300957
            ],
            [
              10.761939887570065,
              35.609561201899155
            ],
            [
              10.762038506660547,
              35.609181289203555
            ],
            [
              10.762134571688962,
              35.608684957519905
            ],
            [
              10.762203295349492,
              35.608567499835786
            ],
            [
              10.762167656952727,
              35.608568020459764
            ],
            [
              10.761808720279708,
              35.60845680965117
            ],
            [
              10.761200874848031,
              35.606747997602604
            ],
            [
              10.761358642442952,
              35.60581406615678
            ],
            [
              10.761511947141285,
              35.60467640786979
            ],
            [
              10.761468017148198,
              35.60429857439351
            ],
            [
              10.76139036500646,
              35.60400857363934
            ],
            [
              10.761386537587319,
              35.60383394876271
            ],
            [
              10.76148387759227,
              35.60339582800791
            ],
            [
              10.761584406397763,
              35.60310322791125
            ],
            [
              10.761609197061698,
              35.60260793701749
            ],
            [
              10.76153027047756,
              35.60225972794094
            ],
            [
              10.761521339749976,
              35.60185226979925
            ],
            [
              10.761581128101128,
              35.60132735678235
            ],
            [
              10.761565818529894,
              35.60062885947053
            ],
            [
              10.761511601285017,
              35.59815501032293
            ],
            [
              10.76145938512284,
              35.597398827005485
            ],
            [
              10.761045100393153,
              35.59638590283487
            ],
            [
              10.760518198543181,
              35.59511260375437
            ],
            [
              10.760289745995426,
              35.59444632656177
            ],
            [
              10.759455555386099,
              35.5937888864617
            ],
            [
              10.758550751787157,
              35.59316158309784
            ],
            [
              10.757972378179858,
              35.592791536060204
            ],
            [
              10.757394640052842,
              35.59245059289041
            ],
            [
              10.756818814635123,
              35.59219695714771
            ],
            [
              10.756348614646898,
              35.59188355641952
            ],
            [
              10.756124020864053,
              35.59139189546476
            ],
            [
              10.755493473728135,
              35.59189600180794
            ],
            [
              10.755102166541548,
              35.591930808260585
            ],
            [
              10.754182106251264,
              35.592235321714426
            ],
            [
              10.753918643405678,
              35.593229010108345
            ],
            [
              10.75375890262175,
              35.594075622494145
            ],
            [
              10.753627166756848,
              35.59457246507891
            ],
            [
              10.753315996991255,
              35.59501369065351
            ],
            [
              10.753324883886338,
              35.5954211510539
            ],
            [
              10.747618185679572,
              35.59853174973234
            ],
            [
              10.748624631299029,
              35.600555109512534
            ],
            [
              10.748350946386465,
              35.60108311984336
            ],
            [
              10.746770126834498,
              35.60215410186054
            ],
            [
              10.746173808686546,
              35.60259943785329
            ],
            [
              10.745814919151291,
              35.60248817788222
            ],
            [
              10.745563570617447,
              35.60240447436814
            ],
            [
              10.745628520990016,
              35.602112399086344
            ],
            [
              10.745553456586144,
              35.6019388064119
            ],
            [
              10.745302742021808,
              35.60188420422836
            ],
            [
              10.745011968741602,
              35.60162639349635
            ],
            [
              10.744436112893242,
              35.60137269967901
            ],
            [
              10.743862792612966,
              35.601235420637956
            ],
            [
              10.743757149036712,
              35.60129517479825
            ],
            [
              10.743215672226212,
              35.60098275098671
            ],
            [
              10.743073130636946,
              35.600984810577884
            ],
            [
              10.74264108846774,
              35.60078725717034
            ],
            [
              10.742391641207389,
              35.600790860137884
            ],
            [
              10.742134623632175,
              35.600445209045446
            ],
            [
              10.741743898041758,
              35.6005090778632
            ],
            [
              10.740907903585203,
              35.5997641963481
            ],
            [
              10.740622194023347,
              35.59973920282454
            ],
            [
              10.740003799592118,
              35.59916585407782
            ],
            [
              10.739870710994998,
              35.599604474859795
            ],
            [
              10.73910627210408,
              35.60051801569852
            ],
            [
              10.739038779963192,
              35.60069367013374
            ],
            [
              10.738898127625236,
              35.6007830383048
            ],
            [
              10.738687463333095,
              35.60093164252459
            ],
            [
              10.738203043971536,
              35.60160823309127
            ],
            [
              10.737124132711026,
              35.6028174280665
            ],
            [
              10.736945322051971,
              35.60279088910502
            ],
            [
              10.736670082320531,
              35.60160119930178
            ],
            [
              10.736558144084128,
              35.60136990187463
            ],
            [
              10.736225476972137,
              35.60082153157313
            ],
            [
              10.736034098171311,
              35.6002129024646
            ],
            [
              10.735888414490868,
              35.600069430718236
            ],
            [
              10.735144296781895,
              35.59862445709283
            ],
            [
              10.733878260396303,
              35.59776925505183
            ],
            [
              10.734219531812567,
              35.59706562295155
            ],
            [
              10.734310107079244,
              35.596307369090894
            ],
            [
              10.734266938798479,
              35.595958628515895
            ],
            [
              10.733971199682074,
              35.59546794745895
            ],
            [
              10.73361660909043,
              35.59390091142044
            ],
            [
              10.732434469308918,
              35.5936267549447
            ],
            [
              10.732005627125899,
              35.593574684556145
            ],
            [
              10.731717433909811,
              35.593433253029175
            ],
            [
              10.729924552732596,
              35.59293492668383
            ],
            [
              10.72813419222027,
              35.592552994366955
            ],
            [
              10.726878324709643,
              35.592163386440355
            ],
            [
              10.72619382483306,
              35.5918238170981
            ],
            [
              10.72525803335587,
              35.59140049612997
            ],
            [
              10.725853147928808,
              35.590897054839225
            ],
            [
              10.725981927883188,
              35.59025471386929
            ],
            [
              10.725833781602894,
              35.589994809668056
            ],
            [
              10.723897240168656,
              35.589440219047184
            ],
            [
              10.723832218608875,
              35.589732285129465
            ],
            [
              10.723152115068778,
              35.589596431106855
            ],
            [
              10.72286956674834,
              35.58971692073815
            ],
            [
              10.7225132588406,
              35.58972200784572
            ],
            [
              10.722630127954513,
              35.59018615885209
            ],
            [
              10.722498203605141,
              35.59068297539863
            ],
            [
              10.722191237501237,
              35.59132785397814
            ],
            [
              10.721607940498792,
              35.592384271868454
            ],
            [
              10.72163349371364,
              35.593577564349445
            ],
            [
              10.721580923380257,
              35.59445172558503
            ],
            [
              10.721385201822768,
              35.59529881054098
            ],
            [
              10.721472049811577,
              35.59602541384374
            ],
            [
              10.721350705134618,
              35.59701700581128
            ],
            [
              10.721111237380251,
              35.59748624121923
            ],
            [
              10.7187620322007,
              35.59597670934668
            ],
            [
              10.717239930956778,
              35.594804723108545
            ],
            [
              10.715571619962185,
              35.593460113412284
            ],
            [
              10.71415030379253,
              35.59199551828738
            ],
            [
              10.71257969536106,
              35.590212773003216
            ],
            [
              10.710343260505192,
              35.592311567677804
            ],
            [
              10.70901151282283,
              35.593378528891314
            ],
            [
              10.707959230109305,
              35.5941795009813
            ],
            [
              10.706941322254162,
              35.59492174774047
            ],
            [
              10.706131640106278,
              35.595399017814145
            ],
            [
              10.704653545612038,
              35.59629332343173
            ],
            [
              10.703564312772674,
              35.59703654741719
            ],
            [
              10.700547170886548,
              35.59932086748486
            ],
            [
              10.69830709379521,
              35.601273925768034
            ],
            [
              10.696383341509181,
              35.60301869929841
            ],
            [
              10.69467824397639,
              35.60499328178065
            ],
            [
              10.694125829751023,
              35.60584533778365
            ],
            [
              10.693500287017741,
              35.60661107898461
            ],
            [
              10.69273523987602,
              35.60752434099997
            ],
            [
              10.68971174926601,
              35.611235055056454
            ],
            [
              10.687636269594552,
              35.61426281862788
            ]
          ]
        ]
      }
    },
    {
      "type": "Feature",
      "id": "osm:relation:7113920",
      "properties": {
        "officialCode": "325659",
        "governorateCode": "32",
        "delegationCode": "3256",
        "nameAr": "الطيايرة",
        "nameFr": "Et-Teyaïra",
        "currentName": "الطيايرة",
        "currentAliases": [
          "Et-Teyaïra"
        ],
        "acceptedNameRecommendation": {
          "nameAr": "الطيايرة",
          "nameFr": "Et-Teyaïra",
          "aliases": [
            "Et-Teyaïra"
          ]
        },
        "sourcePdfURL": "https://www.isie.tn/wp-content/uploads/2023/CartesCirconscriptionsElectoralesLocales2023/%D8%A7%D9%84%D9%85%D9%86%D8%B3%D8%AA%D9%8A%D8%B1/%D8%AC%D9%85%D8%A7%D9%84/%D8%A7%D9%84%D8%B7%D9%8A%D8%A7%D9%8A%D8%B1%D8%A9.pdf",
        "sourcePdfSha256": "561e36aa1f77269140706b76bc3fa640113f2e54c12d0fdba1eff0061c17b6a2",
        "sourceDrawingIndices": [
          201
        ],
        "sourceVectorLayer": "circonscription_isie2023",
        "sourceCrsEpsg": 32632,
        "sourceGeometrySha256": "a2995afea8a7d185d2e4bbabf19260b052f8e369b7fea82c2b2675c891d6cd72",
        "sourceControlPointMaxResidualMeters": 0.29332306339780134,
        "rawNativePath": {
          "file": "C:\\Users\\barou\\Documents\\Codex\\2026-09-06\\the-android-app-app-currently-allows\\work\\next-three-interface-source-review\\teyaira-raw-native-path.json",
          "sha256": "346a2b9e68c75ee733642a345f55baf2da9d66f44eaaf23750023599c93a4ac6"
        },
        "administrativeScope": {
          "decision": "whole_imada",
          "officialIdentity": {
            "governorateCode": "32",
            "governorateFr": "Monastir",
            "governorateAr": "المنستير",
            "delegationCode": "3256",
            "delegationFr": "Jammel",
            "delegationAr": "جمال",
            "sectorCode": "325659",
            "sectorFr": "Et-teyaira",
            "sectorAr": "الطيايرة",
            "sourceRows": {
              "Population_Secteur_Age_Sexe_Dynamique.xlsx": 37229,
              "Nombre_de_Logements_par_Secteurs.xlsx": 1763,
              "Nombre_de_menages_par_Secteurs.xlsx": 1761
            }
          },
          "decree": {
            "file": "C:\\Users\\barou\\Documents\\Codex\\2026-09-06\\the-android-app-app-currently-allows\\work\\electoral-circle-semantics\\decree2023-590.pdf",
            "sha256": "bfb3fe752b9900eaf873198b009968243f1b0bd2c119836cfd4fbbfc07e1e10f"
          },
          "decreePdfPage": 17,
          "jortPage": 5114,
          "personallyViewedPage": {
            "file": "C:\\Users\\barou\\Documents\\Codex\\2026-09-06\\the-android-app-app-currently-allows\\work\\next-three-interface-source-review\\decree-17.png",
            "sha256": "3bc6e32e18574cc92182937b0f8fe7270bd3bcc21fc72aed9c4aca45953dd13c"
          },
          "circleLabel": "الطيايرة",
          "oneWholeImadaOneCircleOneSeat": true
        },
        "geometryPolicy": "Unmodified complete native ring. No clipping, snapping, repair or invented connecting segments.",
        "officialRegistryNameAr": "الطيايرة",
        "officialRegistryNameFr": "Et-teyaira",
        "id": "osm:relation:7113920",
        "sourceId": "isie-local-sectors-2023-jammel",
        "parentAr": "معتمدية جمّال",
        "parentFr": "Délégation Jammel"
      },
      "geometry": {
        "type": "Polygon",
        "coordinates": [
          [
            [
              10.787728474153862,
              35.575689071577656
            ],
            [
              10.78793192860259,
              35.57560215463536
            ],
            [
              10.788011094952605,
              35.57546675439842
            ],
            [
              10.788172011633735,
              35.57531336079456
            ],
            [
              10.788148158508072,
              35.575162716381946
            ],
            [
              10.78822695483219,
              35.57501054378942
            ],
            [
              10.788203840215267,
              35.57489344383661
            ],
            [
              10.788217354335925,
              35.57457446728447
            ],
            [
              10.788193870645452,
              35.57444059508854
            ],
            [
              10.788272297010476,
              35.574271651664546
            ],
            [
              10.788347399624557,
              35.573951756712724
            ],
            [
              10.788363867271062,
              35.57376695653421
            ],
            [
              10.788319484860647,
              35.57361661776961
            ],
            [
              10.78835795904531,
              35.57349860085568
            ],
            [
              10.788514439805853,
              35.57314394154148
            ],
            [
              10.78853238414676,
              35.573026230253035
            ],
            [
              10.788509639069309,
              35.572925902548995
            ],
            [
              10.788505946230298,
              35.57275818024131
            ],
            [
              10.788544419782939,
              35.57264016327175
            ],
            [
              10.78858252045335,
              35.57250537411181
            ],
            [
              10.78870089469266,
              35.57228550237003
            ],
            [
              10.788923391297084,
              35.57213119078735
            ],
            [
              10.788982393067192,
              35.572012867952054
            ],
            [
              10.788836473346736,
              35.571914374728614
            ],
            [
              10.7888522009728,
              35.571696030007054
            ],
            [
              10.788869036561472,
              35.57152800197199
            ],
            [
              10.788783227471898,
              35.571361503949085
            ],
            [
              10.788676520563255,
              35.57117853930922
            ],
            [
              10.788003725953137,
              35.570467113215095
            ],
            [
              10.787260867781104,
              35.569370840391336
            ],
            [
              10.78702214611103,
              35.568787173855284
            ],
            [
              10.786868857033502,
              35.56835323281242
            ],
            [
              10.786658042622468,
              35.56810470235184
            ],
            [
              10.786572242034174,
              35.56793820384619
            ],
            [
              10.786605553006536,
              35.567585375714685
            ],
            [
              10.78655970255536,
              35.567367946905705
            ],
            [
              10.786431740842511,
              35.56715173920788
            ],
            [
              10.786326520161026,
              35.5670358596916
            ],
            [
              10.786281408375295,
              35.566851978105404
            ],
            [
              10.786175819601349,
              35.566719326165554
            ],
            [
              10.785863110490165,
              35.56650586471456
            ],
            [
              10.78579968414887,
              35.56642291886435
            ],
            [
              10.785693363010957,
              35.56625672185256
            ],
            [
              10.785692625797033,
              35.56622317730285
            ],
            [
              10.784795303385936,
              35.56650495687517
            ],
            [
              10.783957351864471,
              35.566685181597215
            ],
            [
              10.783259406725728,
              35.56669554461696
            ],
            [
              10.782416666216568,
              35.56665771886694
            ],
            [
              10.781370486758243,
              35.566706793067354
            ],
            [
              10.78044967438403,
              35.566854666719216
            ],
            [
              10.779161929937954,
              35.567125412977674
            ],
            [
              10.778466552435289,
              35.567253154660065
            ],
            [
              10.777810390196558,
              35.56729642026222
            ],
            [
              10.776355103710772,
              35.56741861619246
            ],
            [
              10.775723133845135,
              35.56762929334762
            ],
            [
              10.774701859366052,
              35.56787927506573
            ],
            [
              10.772274005737572,
              35.56860300659255
            ],
            [
              10.769940713483617,
              35.5689561877763
            ],
            [
              10.767383406140373,
              35.569396507879034
            ],
            [
              10.76667000984825,
              35.569641890241726
            ],
            [
              10.764844413248625,
              35.569735838103256
            ],
            [
              10.760486322821151,
              35.57047090243051
            ],
            [
              10.756993854137002,
              35.570404596068016
            ],
            [
              10.757060518991718,
              35.57063850906989
            ],
            [
              10.757113183970187,
              35.571174627693104
            ],
            [
              10.757063928364408,
              35.5717457928648
            ],
            [
              10.756989791096842,
              35.57211598806227
            ],
            [
              10.756953447213151,
              35.57233463139629
            ],
            [
              10.757042818878054,
              35.57266888052738
            ],
            [
              10.757260086422429,
              35.573219367310166
            ],
            [
              10.757455375088282,
              35.573703066780816
            ],
            [
              10.75758835131048,
              35.57415411923228
            ],
            [
              10.757982933318345,
              35.575306010954186
            ],
            [
              10.75821183150893,
              35.57639321530048
            ],
            [
              10.758234539326363,
              35.576493549740775
            ],
            [
              10.758438194084112,
              35.57736301142711
            ],
            [
              10.758614060197102,
              35.577897326251275
            ],
            [
              10.758897667837784,
              35.57866494932702
            ],
            [
              10.75940330571165,
              35.58020109648192
            ],
            [
              10.759626061532865,
              35.58100316579254
            ],
            [
              10.759716910704501,
              35.581404500312786
            ],
            [
              10.7596625829827,
              35.58174085073447
            ],
            [
              10.759528670477376,
              35.58219581165122
            ],
            [
              10.75913801188224,
              35.583124311493535
            ],
            [
              10.758785866973083,
              35.583934800103634
            ],
            [
              10.75876824037804,
              35.5840692805486
            ],
            [
              10.758898337424672,
              35.58438615179668
            ],
            [
              10.759212502029298,
              35.58466677256322
            ],
            [
              10.759816670319612,
              35.58506058630612
            ],
            [
              10.760505884799663,
              35.58558737245975
            ],
            [
              10.761031572591698,
              35.58615010808496
            ],
            [
              10.761348298178909,
              35.586548128450296
            ],
            [
              10.76143443271961,
              35.58673142064341
            ],
            [
              10.761443164648414,
              35.58713395770929
            ],
            [
              10.761516770683244,
              35.58768654313202
            ],
            [
              10.761485892623243,
              35.58815677220993
            ],
            [
              10.761371059675206,
              35.58854434380366
            ],
            [
              10.761236783422225,
              35.588982533744066
            ],
            [
              10.76108088148191,
              35.58937070878127
            ],
            [
              10.761515366049144,
              35.58951533628739
            ],
            [
              10.762770841168857,
              35.58963113604456
            ],
            [
              10.762979093457762,
              35.58976229821391
            ],
            [
              10.76304542900989,
              35.58997943524743
            ],
            [
              10.762752350431496,
              35.59067162583135
            ],
            [
              10.764594465930584,
              35.591315678895164
            ],
            [
              10.765661151044627,
              35.59124966675791
            ],
            [
              10.766646428742286,
              35.591218398322795
            ],
            [
              10.76737689667109,
              35.59080498407712
            ],
            [
              10.76766291384318,
              35.59073366620064
            ],
            [
              10.767958059706427,
              35.591081651179664
            ],
            [
              10.76810362547238,
              35.59116339676473
            ],
            [
              10.76851467511216,
              35.59117412176056
            ],
            [
              10.768984036539331,
              35.591032986724166
            ],
            [
              10.76937089423988,
              35.59087629060909
            ],
            [
              10.76979699037063,
              35.59063512346127
            ],
            [
              10.770119684285898,
              35.59036192354696
            ],
            [
              10.770179092051103,
              35.59026038142614
            ],
            [
              10.770586479199405,
              35.590103376012
            ],
            [
              10.770993131238825,
              35.58991282460277
            ],
            [
              10.771236242628753,
              35.58975823951487
            ],
            [
              10.77147423144239,
              35.58936884402715
            ],
            [
              10.7724653690985,
              35.5886663338542
            ],
            [
              10.77351149313351,
              35.58766100585433
            ],
            [
              10.773691529336778,
              35.58744023643174
            ],
            [
              10.774482065220626,
              35.58601923275482
            ],
            [
              10.774790425849996,
              35.5850919034518
            ],
            [
              10.77499501990706,
              35.5841157737615
            ],
            [
              10.775439395357235,
              35.5837736505383
            ],
            [
              10.775698979370901,
              35.58343425944029
            ],
            [
              10.77653969508944,
              35.58337149319834
            ],
            [
              10.77735473772746,
              35.583074212731496
            ],
            [
              10.777617246765745,
              35.58286899478961
            ],
            [
              10.778024948722793,
              35.58272873925763
            ],
            [
              10.77837105169699,
              35.58258939306268
            ],
            [
              10.778964639922712,
              35.582496713569135
            ],
            [
              10.779254655185081,
              35.58260986161332
            ],
            [
              10.779914617119584,
              35.58273430462735
            ],
            [
              10.780097198515044,
              35.58263093225277
            ],
            [
              10.78031900464346,
              35.58244308952494
            ],
            [
              10.780725592508624,
              35.58225250826364
            ],
            [
              10.781072425912217,
              35.58214669901333
            ],
            [
              10.781424777377104,
              35.582292472830204
            ],
            [
              10.78168837888106,
              35.58213756314394
            ],
            [
              10.781911280471302,
              35.58200003446694
            ],
            [
              10.782034838865934,
              35.58201497895813
            ],
            [
              10.78222146488149,
              35.582096098373185
            ],
            [
              10.782508909273846,
              35.58209183262405
            ],
            [
              10.783132871340614,
              35.58151212935714
            ],
            [
              10.7830657525819,
              35.58126145996112
            ],
            [
              10.783410364936293,
              35.58105501211751
            ],
            [
              10.783404471639079,
              35.580786656040694
            ],
            [
              10.78344148277317,
              35.580601552921635
            ],
            [
              10.783415794840048,
              35.58036704620575
            ],
            [
              10.783453542427036,
              35.58021548616846
            ],
            [
              10.783592840895466,
              35.58001208636489
            ],
            [
              10.783731770259742,
              35.579791912737555
            ],
            [
              10.783956139056215,
              35.57972146947984
            ],
            [
              10.784097646132656,
              35.579618701233045
            ],
            [
              10.784365655831294,
              35.57966505303463
            ],
            [
              10.784467574288959,
              35.57962998481906
            ],
            [
              10.784585597529066,
              35.57939334311838
            ],
            [
              10.784725628876027,
              35.57922348517734
            ],
            [
              10.78480443545163,
              35.57907131603891
            ],
            [
              10.784937093407182,
              35.578566014347814
            ],
            [
              10.785058066424682,
              35.57846355015547
            ],
            [
              10.785432665234334,
              35.5777533192559
            ],
            [
              10.785630596256574,
              35.57741482375811
            ],
            [
              10.785172657878098,
              35.57713640948033
            ],
            [
              10.78539296237902,
              35.57688146903681
            ],
            [
              10.785655063634604,
              35.576659463709156
            ],
            [
              10.786179627141284,
              35.57623222231869
            ],
            [
              10.786545481552082,
              35.5760590039061
            ],
            [
              10.787728474153862,
              35.575689071577656
            ]
          ]
        ]
      }
    }
  ]
}
