{
  "type": "FeatureCollection",
  "status": "REVIEWED_NATIVE_SOURCE_WITH_PRESERVED_GEOMETRIES",
  "features": [
    {
      "type": "Feature",
      "id": "osm:relation:7117889",
      "properties": {
        "id": "osm:relation:7117889",
        "officialCode": "116952",
        "nameAr": "حلق الوادي الكازينو",
        "nameFr": "La Goulette Casino",
        "governorateCode": "11",
        "delegationCode": "1169",
        "parentAr": "حلق الوادي",
        "expectedOriginalTags": {
          "admin_level": "6",
          "boundary": "administrative",
          "name": "حلق الوادي الكازينو",
          "name:ar": "حلق الوادي الكازينو",
          "name:fr": "La Goulette Casino",
          "ref:tn:codegeo": "116952"
        },
        "originalGeometrySha256": "84906ae2f8175ad5140b66ed4c806c493f0a7ec1d44b627d2e78ffad54940cb2",
        "currentAliases": [
          "La Goulette Casino"
        ],
        "sourcePdfURL": "https://www.isie.tn/wp-content/uploads/2023/CartesCirconscriptionsElectoralesLocales2023/%D8%AA%D9%88%D9%86%D8%B3%202/%D8%AD%D9%84%D9%82%20%D8%A7%D9%84%D9%88%D8%A7%D8%AF%D9%8A/%D8%AD%D9%84%D9%82%20%D8%A7%D9%84%D9%88%D8%A7%D8%AF%D9%8A%20%D9%83%D8%A7%D8%B2%D9%8A%D9%86%D9%88.pdf",
        "sourcePdfSha256": "ed9adadddd1d5e8426897d580287ec9ba2b298033271e1276457cb8d6c30e2f1",
        "sourceDrawingIndices": [
          284
        ],
        "sourceVectorLayer": "circonscription_isie2023",
        "sourceCrsEpsg": 32632,
        "sourceGeometrySha256": "e81688c93870906b4d624a61da077498ec2f299fffc6041b0791d5fbb2b98e21",
        "sourceControlPointMaxResidualMeters": 0.16125904660964235,
        "sourceExtraction": {
          "file": "outputs\\la-goulette-three-geopdf-source-data.json",
          "sha256": "8884028fcc6c0342196ad9a4fa7c62b60d0984996e9ae4cc50dd7c7ef3300c0e"
        },
        "rawNativePath": {
          "file": "work\\la-goulette-three-native-source-review\\la-goulette-casino-raw-native-path.json",
          "sha256": "1307affd77f8a35a78f8e56689c57377785eddc9c3390526d98337d4ad0c786d"
        },
        "administrativeScope": {
          "conclusion": "whole_imada",
          "pdfPage": 40,
          "jortPage": 5137,
          "imadaName": "حلق الوادي كازينو",
          "circleName": "حلق الوادي كازينو",
          "decree": {
            "file": "work\\electoral-circle-semantics\\decree2023-590.pdf",
            "sha256": "bfb3fe752b9900eaf873198b009968243f1b0bd2c119836cfd4fbbfc07e1e10f"
          },
          "render": {
            "file": "work\\la-goulette-three-native-source-review\\decree-40.png",
            "sha256": "ea2f5fdef67776e1babdc8d331b8ed642ad97ad6ac1a57808438f615153a2804"
          },
          "personallyViewed": true
        },
        "officialRegistryIdentity": {
          "governorateCode": "11",
          "governorateFr": "Tunis",
          "governorateAr": "تونس",
          "delegationCode": "1169",
          "delegationFr": "La goulette",
          "delegationAr": "حلق الوادي",
          "sectorCode": "116952",
          "sectorFr": "La goulette casino",
          "sectorAr": "حلق الوادي كازينو",
          "sourceRows": {
            "Population_Secteur_Age_Sexe_Dynamique.xlsx": 4829,
            "Nombre_de_Logements_par_Secteurs.xlsx": 152,
            "Nombre_de_menages_par_Secteurs.xlsx": 152
          }
        },
        "geometryPolicy": "Exact whole closed native outline; no clipping, repair, snap, buffer or invented connecting border.",
        "officialRegistryNameAr": "حلق الوادي كازينو",
        "officialRegistryNameFr": "La goulette casino",
        "sourceId": "isie-local-sectors-2023-la-goulette",
        "parentFr": "La Goulette"
      },
      "geometry": {
        "type": "Polygon",
        "coordinates": [
          [
            [
              10.308527789669197,
              36.826261555415485
            ],
            [
              10.308527637751302,
              36.826252588379496
            ],
            [
              10.309462914847298,
              36.82547963749357
            ],
            [
              10.310400302976355,
              36.824832220814955
            ],
            [
              10.312342263700616,
              36.82355454023742
            ],
            [
              10.312375424084822,
              36.82353622567091
            ],
            [
              10.31223912772192,
              36.82339427008959
            ],
            [
              10.312779315222334,
              36.82301144183299
            ],
            [
              10.313098536346622,
              36.82275668630047
            ],
            [
              10.313295510512802,
              36.82253022569254
            ],
            [
              10.31406583422565,
              36.821247885118964
            ],
            [
              10.313909212403077,
              36.821222758006556
            ],
            [
              10.313299652415363,
              36.82211760840327
            ],
            [
              10.312500324184205,
              36.82235090997228
            ],
            [
              10.312466708674702,
              36.822342322896745
            ],
            [
              10.31239917013561,
              36.82230721412243
            ],
            [
              10.312263791404435,
              36.82221906179452
            ],
            [
              10.312173640162973,
              36.82216627151092
            ],
            [
              10.31202741031386,
              36.82209618017305
            ],
            [
              10.312026344173917,
              36.82203340982385
            ],
            [
              10.312079528944281,
              36.82188033439157
            ],
            [
              10.312222862782985,
              36.8217800492811
            ],
            [
              10.312255108467316,
              36.821707932009964
            ],
            [
              10.312187115038121,
              36.82164592142292
            ],
            [
              10.3120662418267,
              36.821754920306326
            ],
            [
              10.311824494387585,
              36.82197291828918
            ],
            [
              10.311656413820197,
              36.82192998074052
            ],
            [
              10.311599878548483,
              36.82188577788594
            ],
            [
              10.311520730689764,
              36.821823893483405
            ],
            [
              10.311385047933767,
              36.82171780606219
            ],
            [
              10.311550845581225,
              36.82162623565966
            ],
            [
              10.311482394644706,
              36.82153732300453
            ],
            [
              10.311415315370674,
              36.82152911529613
            ],
            [
              10.311261130570626,
              36.821647460054834
            ],
            [
              10.311148214567472,
              36.821568020367266
            ],
            [
              10.311012380594272,
              36.82145296546294
            ],
            [
              10.310965936941592,
              36.821345865374525
            ],
            [
              10.311506724399521,
              36.820998911083564
            ],
            [
              10.311449734633605,
              36.820927806448715
            ],
            [
              10.311294331944799,
              36.8209744144125
            ],
            [
              10.311117686487515,
              36.82108404502317
            ],
            [
              10.31082016620657,
              36.82130267359489
            ],
            [
              10.310481421787108,
              36.821064353436604
            ],
            [
              10.310288753116318,
              36.82088715897705
            ],
            [
              10.310243527561827,
              36.82085179658485
            ],
            [
              10.309971561137354,
              36.82060374919343
            ],
            [
              10.309733365684956,
              36.82037325602759
            ],
            [
              10.309438181557004,
              36.82007165672119
            ],
            [
              10.309403807420242,
              36.820018232398205
            ],
            [
              10.309335664383797,
              36.81994725306156
            ],
            [
              10.309245213866825,
              36.81987652635919
            ],
            [
              10.310530143494692,
              36.819332798486656
            ],
            [
              10.310357810760749,
              36.81903877784435
            ],
            [
              10.309901856324295,
              36.81912466574155
            ],
            [
              10.309690229562483,
              36.8191450012963
            ],
            [
              10.309354993747009,
              36.819112924151234
            ],
            [
              10.308963987589257,
              36.81908147649486
            ],
            [
              10.30892991668306,
              36.81904598668812
            ],
            [
              10.308817462681029,
              36.81899344690775
            ],
            [
              10.308704401209878,
              36.818905037120835
            ],
            [
              10.308556967050638,
              36.81876320375899
            ],
            [
              10.308420686344588,
              36.818621243382154
            ],
            [
              10.308120960760148,
              36.81805062385706
            ],
            [
              10.308099107741056,
              36.81807777861461
            ],
            [
              10.307734969269537,
              36.818315091548605
            ],
            [
              10.307216490030433,
              36.818661775371496
            ],
            [
              10.3065875258223,
              36.819072489055905
            ],
            [
              10.306444188655286,
              36.81917276746938
            ],
            [
              10.306355712122075,
              36.81921861248519
            ],
            [
              10.305879716393472,
              36.81943924531545
            ],
            [
              10.305381863457741,
              36.81968703056423
            ],
            [
              10.30482793237332,
              36.81991750932425
            ],
            [
              10.304440103096727,
              36.820074358509274
            ],
            [
              10.304107740989423,
              36.82021264304117
            ],
            [
              10.302895725941445,
              36.821114237523226
            ],
            [
              10.300744005676643,
              36.82319236139323
            ],
            [
              10.298622923149903,
              36.82577236233571
            ],
            [
              10.29857920672995,
              36.825826666784714
            ],
            [
              10.301455022632897,
              36.82632348109176
            ],
            [
              10.303120948133548,
              36.826528930823386
            ],
            [
              10.304796219178048,
              36.82662662478658
            ],
            [
              10.305398456691572,
              36.82661085516745
            ],
            [
              10.307048081916351,
              36.82651149093993
            ],
            [
              10.308527789669197,
              36.826261555415485
            ]
          ]
        ]
      }
    },
    {
      "type": "Feature",
      "id": "osm:relation:7117890",
      "properties": {
        "id": "osm:relation:7117890",
        "officialCode": "116953",
        "nameAr": "خير الدين",
        "nameFr": "Kheredine",
        "governorateCode": "11",
        "delegationCode": "1169",
        "parentAr": "حلق الوادي",
        "expectedOriginalTags": {
          "admin_level": "6",
          "boundary": "administrative",
          "name": "خير الدين",
          "name:ar": "خير الدين",
          "name:fr": "Kheredine",
          "ref:tn:codegeo": "116953",
          "wikidata": "Q12211002"
        },
        "originalGeometrySha256": "5c4c260eb6299ad502f7de03eb7884ae5629f1589fa832dd7672a16d47a047cd",
        "currentAliases": [
          "Kheredine"
        ],
        "sourcePdfURL": "https://www.isie.tn/wp-content/uploads/2023/CartesCirconscriptionsElectoralesLocales2023/%D8%AA%D9%88%D9%86%D8%B3%202/%D8%AD%D9%84%D9%82%20%D8%A7%D9%84%D9%88%D8%A7%D8%AF%D9%8A/%D8%AE%D9%8A%D8%B1%20%D8%A7%D9%84%D8%AF%D9%8A%D9%86%20-%20%28%D8%AD%D9%84%D9%82%20%D8%A7%D9%84%D9%88%D8%A7%D8%AF%D9%8A%29.pdf",
        "sourcePdfSha256": "db709281f39db9c10cfd75aca8c37a6b407db212653369dbb9c6c8e9355eeba2",
        "sourceDrawingIndices": [
          425
        ],
        "sourceVectorLayer": "circonscription_isie2023",
        "sourceCrsEpsg": 32632,
        "sourceGeometrySha256": "7ba5b219f070bd7837fb6aa008620d8882504a42bfadb0a65b02691bc970161e",
        "sourceControlPointMaxResidualMeters": 0.19833316597717726,
        "sourceExtraction": {
          "file": "outputs\\la-goulette-three-geopdf-source-data.json",
          "sha256": "8884028fcc6c0342196ad9a4fa7c62b60d0984996e9ae4cc50dd7c7ef3300c0e"
        },
        "rawNativePath": {
          "file": "work\\la-goulette-three-native-source-review\\kheireddine-raw-native-path.json",
          "sha256": "bfd9b878c9959c8279dd80265086a27d0b2508df971ceaaf47aa69c7f64e196a"
        },
        "administrativeScope": {
          "conclusion": "whole_imada",
          "pdfPage": 40,
          "jortPage": 5137,
          "imadaName": "خير الدين",
          "circleName": "خير الدين - (حلق الوادي)",
          "decree": {
            "file": "work\\electoral-circle-semantics\\decree2023-590.pdf",
            "sha256": "bfb3fe752b9900eaf873198b009968243f1b0bd2c119836cfd4fbbfc07e1e10f"
          },
          "render": {
            "file": "work\\la-goulette-three-native-source-review\\decree-40.png",
            "sha256": "ea2f5fdef67776e1babdc8d331b8ed642ad97ad6ac1a57808438f615153a2804"
          },
          "personallyViewed": true
        },
        "officialRegistryIdentity": {
          "governorateCode": "11",
          "governorateFr": "Tunis",
          "governorateAr": "تونس",
          "delegationCode": "1169",
          "delegationFr": "La goulette",
          "delegationAr": "حلق الوادي",
          "sectorCode": "116953",
          "sectorFr": "Kheireddine",
          "sectorAr": "خير الدين",
          "sourceRows": {
            "Population_Secteur_Age_Sexe_Dynamique.xlsx": 4863,
            "Nombre_de_Logements_par_Secteurs.xlsx": 153,
            "Nombre_de_menages_par_Secteurs.xlsx": 153
          }
        },
        "geometryPolicy": "Exact whole closed native outline; no clipping, repair, snap, buffer or invented connecting border.",
        "officialRegistryNameAr": "خير الدين",
        "officialRegistryNameFr": "Kheireddine",
        "sourceId": "isie-local-sectors-2023-la-goulette",
        "parentFr": "La Goulette"
      },
      "geometry": {
        "type": "Polygon",
        "coordinates": [
          [
            [
              10.302445838525337,
              36.837267342379896
            ],
            [
              10.302505624367363,
              36.837254635855075
            ],
            [
              10.303773483544466,
              36.83683090959422
            ],
            [
              10.304771182080357,
              36.83639805105432
            ],
            [
              10.305337005756261,
              36.83615074508154
            ],
            [
              10.305945380124143,
              36.83575828293118
            ],
            [
              10.30753336938919,
              36.8347522687283
            ],
            [
              10.308348420832061,
              36.834164620303426
            ],
            [
              10.310274743268957,
              36.83276903767355
            ],
            [
              10.31248061565185,
              36.83105686876152
            ],
            [
              10.312464396630995,
              36.83098470041817
            ],
            [
              10.31285102098641,
              36.83078755030918
            ],
            [
              10.312865608839646,
              36.830763275467916
            ],
            [
              10.313798703810246,
              36.83006578093568
            ],
            [
              10.313872865341374,
              36.830016738486464
            ],
            [
              10.314006192571624,
              36.829918817655184
            ],
            [
              10.31502037175832,
              36.8295821533612
            ],
            [
              10.31567649393585,
              36.829357924292516
            ],
            [
              10.316779400424384,
              36.828947927554346
            ],
            [
              10.317241800630363,
              36.82879816121618
            ],
            [
              10.3176894083863,
              36.82866061314445
            ],
            [
              10.317719398943867,
              36.82866028382018
            ],
            [
              10.31770317559785,
              36.82858811625081
            ],
            [
              10.317687156958819,
              36.828528004050135
            ],
            [
              10.317605836238878,
              36.82815511280112
            ],
            [
              10.317659267651809,
              36.82776868326094
            ],
            [
              10.318268535830049,
              36.827436436920046
            ],
            [
              10.31859019023211,
              36.82783080236356
            ],
            [
              10.318709536649036,
              36.82779331905307
            ],
            [
              10.318492232609223,
              36.82736163355429
            ],
            [
              10.31800461275175,
              36.82690880161854
            ],
            [
              10.317959218535604,
              36.82688518494112
            ],
            [
              10.317928819273485,
              36.82686140356314
            ],
            [
              10.317898420030176,
              36.826837622176924
            ],
            [
              10.317868225513186,
              36.82682589717923
            ],
            [
              10.317838030970538,
              36.826814170130035
            ],
            [
              10.317792841538628,
              36.82680260876185
            ],
            [
              10.317747859333759,
              36.82680310272386
            ],
            [
              10.317717866958562,
              36.82680343206895
            ],
            [
              10.317658094492234,
              36.82681614602866
            ],
            [
              10.317613314401743,
              36.82682869636576
            ],
            [
              10.317583733831743,
              36.826853135379935
            ],
            [
              10.317389822850359,
              36.82691555242542
            ],
            [
              10.317330047695194,
              36.82692826625066
            ],
            [
              10.317300057808925,
              36.826928595463414
            ],
            [
              10.317240078034922,
              36.826929253866226
            ],
            [
              10.317195297771253,
              36.82694180200464
            ],
            [
              10.317150108370246,
              36.82693024141375
            ],
            [
              10.317120118481045,
              36.82693057058113
            ],
            [
              10.317090128591353,
              36.826930899740944
            ],
            [
              10.317044939194071,
              36.826919338087784
            ],
            [
              10.317014744750859,
              36.82690761184969
            ],
            [
              10.31696955537785,
              36.82689605016733
            ],
            [
              10.316939156409942,
              36.826872268530295
            ],
            [
              10.316908962000774,
              36.826860542264534
            ],
            [
              10.316878563082875,
              36.82683676163305
            ],
            [
              10.316863159072463,
              36.82681281440169
            ],
            [
              10.316832760170389,
              36.82678903273582
            ],
            [
              10.316664955604988,
              36.826622068276784
            ],
            [
              10.316495104495326,
              36.8263345487435
            ],
            [
              10.316687992292447,
              36.82621185625723
            ],
            [
              10.316657184713263,
              36.82616396479603
            ],
            [
              10.316418290220787,
              36.82622687379778
            ],
            [
              10.315833977438711,
              36.82537719265617
            ],
            [
              10.315996057197681,
              36.82520660959431
            ],
            [
              10.315980040673736,
              36.82514649708976
            ],
            [
              10.315695963076882,
              36.82519784246813
            ],
            [
              10.315450533172106,
              36.82487497701867
            ],
            [
              10.315342711404124,
              36.82470735306006
            ],
            [
              10.315535392785673,
              36.82457260706475
            ],
            [
              10.31547459761702,
              36.824525042976745
            ],
            [
              10.315281916242556,
              36.82465978887429
            ],
            [
              10.315115138418596,
              36.82455309797928
            ],
            [
              10.315053935074008,
              36.824481423906015
            ],
            [
              10.314959883878657,
              36.82424130186346
            ],
            [
              10.315151747832305,
              36.82405833491376
            ],
            [
              10.315717854301917,
              36.82383509330098
            ],
            [
              10.316075266012026,
              36.823686482644966
            ],
            [
              10.316164005539946,
              36.82361316466962
            ],
            [
              10.316087398929627,
              36.82351754376715
            ],
            [
              10.315209070157081,
              36.823900958514066
            ],
            [
              10.314984154667334,
              36.82390342323896
            ],
            [
              10.31495396172211,
              36.82389169644185
            ],
            [
              10.314938558939959,
              36.82386774994774
            ],
            [
              10.314862157762953,
              36.82378418362997
            ],
            [
              10.314800751081892,
              36.82370045298269
            ],
            [
              10.314678346474631,
              36.8235571033974
            ],
            [
              10.31458532095258,
              36.823377257937025
            ],
            [
              10.314431499909132,
              36.82314984775121
            ],
            [
              10.314263093836756,
              36.82294671439099
            ],
            [
              10.314140487366997,
              36.82279130776774
            ],
            [
              10.314109886845513,
              36.82275546994034
            ],
            [
              10.314094280494155,
              36.82271946792119
            ],
            [
              10.31407867415788,
              36.82268346589948
            ],
            [
              10.314093056091217,
              36.82264713551174
            ],
            [
              10.314107438011426,
              36.822610805122316
            ],
            [
              10.314122023989325,
              36.822586530132845
            ],
            [
              10.314136405885261,
              36.82255019974006
            ],
            [
              10.314150991842983,
              36.82252592474719
            ],
            [
              10.31418036781056,
              36.82248943015793
            ],
            [
              10.314194953743277,
              36.82246515515994
            ],
            [
              10.314224533753102,
              36.82244071596179
            ],
            [
              10.31425390965385,
              36.822404221355185
            ],
            [
              10.314283285527,
              36.822367726741646
            ],
            [
              10.314312661372552,
              36.822331232121186
            ],
            [
              10.314357235352974,
              36.82230662868026
            ],
            [
              10.314667415068454,
              36.82202590758223
            ],
            [
              10.314888238823897,
              36.821782335606045
            ],
            [
              10.31482703795651,
              36.82171066031363
            ],
            [
              10.313559185511696,
              36.823002651582144
            ],
            [
              10.31253600225676,
              36.8236890719649
            ],
            [
              10.312490203944831,
              36.82364134230102
            ],
            [
              10.31238361318008,
              36.8235460468883
            ],
            [
              10.312338834039577,
              36.823558594202616
            ],
            [
              10.310395745076613,
              36.82483381668991
            ],
            [
              10.30947686177092,
              36.82548290020105
            ],
            [
              10.308530208614975,
              36.826264912451464
            ],
            [
              10.308744201818838,
              36.82650373069681
            ],
            [
              10.309157195994352,
              36.826981530539385
            ],
            [
              10.306287105448034,
              36.828435602289254
            ],
            [
              10.302602466107354,
              36.83051338771783
            ],
            [
              10.301607256291053,
              36.8310908935695
            ],
            [
              10.300612233389641,
              36.83168044575284
            ],
            [
              10.299230122613508,
              36.832442987811
            ],
            [
              10.298695709768808,
              36.83277432731925
            ],
            [
              10.298310649903803,
              36.8330678758909
            ],
            [
              10.297913009438771,
              36.83350625093735
            ],
            [
              10.297794853643842,
              36.83361604746433
            ],
            [
              10.297472794333066,
              36.834089776601665
            ],
            [
              10.297282072781032,
              36.83434504775145
            ],
            [
              10.297065788880206,
              36.834865862873485
            ],
            [
              10.296937871315432,
              36.835289261564405
            ],
            [
              10.296396595058058,
              36.83700728885507
            ],
            [
              10.296339024207898,
              36.83715260234751
            ],
            [
              10.296297657887731,
              36.837370085546176
            ],
            [
              10.296193186458245,
              36.838299649560426
            ],
            [
              10.296185035849827,
              36.8387096949791
            ],
            [
              10.296207484300117,
              36.839155584799066
            ],
            [
              10.296276939655298,
              36.839721541063284
            ],
            [
              10.296678649886763,
              36.83952427912657
            ],
            [
              10.298151299160255,
              36.83878490216496
            ],
            [
              10.299238030296802,
              36.83829083845037
            ],
            [
              10.30022077644018,
              36.83785817869297
            ],
            [
              10.302445838525337,
              36.837267342379896
            ]
          ]
        ]
      }
    },
    {
      "type": "Feature",
      "id": "osm:relation:7117933",
      "properties": {
        "id": "osm:relation:7117933",
        "officialCode": "116951",
        "nameAr": "حلق الوادي",
        "nameFr": "La Goulette",
        "governorateCode": "11",
        "delegationCode": "1169",
        "parentAr": "حلق الوادي",
        "expectedOriginalTags": {
          "admin_level": "6",
          "boundary": "administrative",
          "name": "حلق الوادي",
          "name:ar": "حلق الوادي",
          "name:azb": "حلق الوادی",
          "name:de": "Ḥalq al-Wādī",
          "name:es": "La Goleta",
          "name:fr": "La Goulette",
          "ref:tn:codegeo": "116951"
        },
        "originalGeometrySha256": "1b99463754515fcedb5b6f3857548e8e3ad7a7ab78946c7013ba00cc3d9d591a",
        "currentAliases": [
          "La Goleta",
          "La Goletta",
          "La Goulette",
          "Хальк-эль-Уэд",
          "לה גולט",
          "حلق الوادی",
          "Ḥalq al-Wādī"
        ],
        "sourcePdfURL": "https://www.isie.tn/wp-content/uploads/2023/CartesCirconscriptionsElectoralesLocales2023/%D8%AA%D9%88%D9%86%D8%B3%202/%D8%AD%D9%84%D9%82%20%D8%A7%D9%84%D9%88%D8%A7%D8%AF%D9%8A/%D8%AD%D9%84%D9%82%20%D8%A7%D9%84%D9%88%D8%A7%D8%AF%D9%8A.pdf",
        "sourcePdfSha256": "149daef14335b4e07d90f94248acbb807d5b9b6e62fa1d86c8b762e327f13cf6",
        "sourceDrawingIndices": [
          421
        ],
        "sourceVectorLayer": "circonscription_isie2023",
        "sourceCrsEpsg": 32632,
        "sourceGeometrySha256": "1a845d48b8700b53d36a518d527be027fe348c0c0fc709ce3cfffe1863e28df6",
        "sourceControlPointMaxResidualMeters": 0.28633744305712716,
        "sourceExtraction": {
          "file": "outputs\\la-goulette-three-geopdf-source-data.json",
          "sha256": "8884028fcc6c0342196ad9a4fa7c62b60d0984996e9ae4cc50dd7c7ef3300c0e"
        },
        "rawNativePath": {
          "file": "work\\la-goulette-three-native-source-review\\la-goulette-raw-native-path.json",
          "sha256": "8c829be75c8af2985106ba593e25e028b7cdcd5d39800c5db6d8566ab2250b2b"
        },
        "administrativeScope": {
          "conclusion": "whole_imada",
          "pdfPage": 40,
          "jortPage": 5137,
          "imadaName": "حلق الوادي",
          "circleName": "حلق الوادي",
          "decree": {
            "file": "work\\electoral-circle-semantics\\decree2023-590.pdf",
            "sha256": "bfb3fe752b9900eaf873198b009968243f1b0bd2c119836cfd4fbbfc07e1e10f"
          },
          "render": {
            "file": "work\\la-goulette-three-native-source-review\\decree-40.png",
            "sha256": "ea2f5fdef67776e1babdc8d331b8ed642ad97ad6ac1a57808438f615153a2804"
          },
          "personallyViewed": true
        },
        "officialRegistryIdentity": {
          "governorateCode": "11",
          "governorateFr": "Tunis",
          "governorateAr": "تونس",
          "delegationCode": "1169",
          "delegationFr": "La goulette",
          "delegationAr": "حلق الوادي",
          "sectorCode": "116951",
          "sectorFr": "La goulette",
          "sectorAr": "حلق الوادي",
          "sourceRows": {
            "Population_Secteur_Age_Sexe_Dynamique.xlsx": 4795,
            "Nombre_de_Logements_par_Secteurs.xlsx": 150,
            "Nombre_de_menages_par_Secteurs.xlsx": 150
          }
        },
        "geometryPolicy": "Exact whole closed native outline; no clipping, repair, snap, buffer or invented connecting border.",
        "officialRegistryNameAr": "حلق الوادي",
        "officialRegistryNameFr": "La goulette",
        "sourceId": "isie-local-sectors-2023-la-goulette",
        "parentFr": "La Goulette"
      },
      "geometry": {
        "type": "Polygon",
        "coordinates": [
          [
            [
              10.308122795237372,
              36.81805457480451
            ],
            [
              10.3079541880486,
              36.81767719207988
            ],
            [
              10.308026072513092,
              36.81756973540153
            ],
            [
              10.30805535131643,
              36.817557560636224
            ],
            [
              10.308288773457617,
              36.81741276546709
            ],
            [
              10.30890422794545,
              36.8171926412105
            ],
            [
              10.308858592539448,
              36.81711018549614
            ],
            [
              10.308580347876473,
              36.817219922687784
            ],
            [
              10.30843375282851,
              36.817268947875014
            ],
            [
              10.30833097458743,
              36.817293786041866
            ],
            [
              10.308199119547353,
              36.817342647121556
            ],
            [
              10.308036975878425,
              36.81734443783203
            ],
            [
              10.307978216478581,
              36.8173569381445
            ],
            [
              10.30788977445486,
              36.8173579147591
            ],
            [
              10.307860293779342,
              36.817358240282665
            ],
            [
              10.307771046643143,
              36.81731182098297
            ],
            [
              10.307636970479228,
              36.817230341236346
            ],
            [
              10.307428385690866,
              36.817102278071864
            ],
            [
              10.307143274984213,
              36.81680914003643
            ],
            [
              10.306484823566409,
              36.81623568646901
            ],
            [
              10.306304513577649,
              36.81603620078773
            ],
            [
              10.305945106120483,
              36.815708324811034
            ],
            [
              10.305676159758146,
              36.81549796493116
            ],
            [
              10.305585905793901,
              36.815392296857276
            ],
            [
              10.305541081227025,
              36.81535723661516
            ],
            [
              10.304984622032404,
              36.81471154055153
            ],
            [
              10.304604648716282,
              36.81404019616493
            ],
            [
              10.30443747761653,
              36.81374575225582
            ],
            [
              10.304391446394238,
              36.8136395961972
            ],
            [
              10.30434601937062,
              36.813568988794565
            ],
            [
              10.304314526654073,
              36.81345082116298
            ],
            [
              10.304474447293599,
              36.81331869422086
            ],
            [
              10.304648905563461,
              36.81317455650661
            ],
            [
              10.304779947738007,
              36.8130783015569
            ],
            [
              10.304940068240107,
              36.81295802323459
            ],
            [
              10.305100792624465,
              36.81287329237138
            ],
            [
              10.306458454132306,
              36.81208798411864
            ],
            [
              10.306575360399174,
              36.81202743744347
            ],
            [
              10.307785597496235,
              36.811243740229635
            ],
            [
              10.30800446412503,
              36.8111109587798
            ],
            [
              10.310031966811268,
              36.809844154949054
            ],
            [
              10.310438992249066,
              36.80950781451911
            ],
            [
              10.310769890144966,
              36.809030095803216
            ],
            [
              10.310827226531885,
              36.808934650811544
            ],
            [
              10.31099336702122,
              36.80830468677596
            ],
            [
              10.31093640478688,
              36.80755867823077
            ],
            [
              10.310904297788253,
              36.807404964762405
            ],
            [
              10.310873809443567,
              36.80734604693704
            ],
            [
              10.310674119070077,
              36.80687419872975
            ],
            [
              10.310567919490541,
              36.806697602013045
            ],
            [
              10.310416289803806,
              36.80645040108004
            ],
            [
              10.310312717743482,
              36.80642784386464
            ],
            [
              10.310283241287209,
              36.8064281699067
            ],
            [
              10.31023902660191,
              36.80642865895609
            ],
            [
              10.310224692781322,
              36.806452520390835
            ],
            [
              10.310210358952006,
              36.80647638182394
            ],
            [
              10.310211167761448,
              36.80652377866759
            ],
            [
              10.310226512589248,
              36.80655916127963
            ],
            [
              10.310256393550436,
              36.80658253568044
            ],
            [
              10.310271536233143,
              36.80660607108394
            ],
            [
              10.310301417157788,
              36.80662944145527
            ],
            [
              10.31033190480156,
              36.8066883614573
            ],
            [
              10.310377333011962,
              36.806758967628525
            ],
            [
              10.310437904091229,
              36.806853109159306
            ],
            [
              10.31045345136978,
              36.80690034295447
            ],
            [
              10.310483332499729,
              36.80692371528427
            ],
            [
              10.310498677571465,
              36.8069590998635
            ],
            [
              10.310513820405102,
              36.806982635231755
            ],
            [
              10.310529165503338,
              36.807018019806186
            ],
            [
              10.310544712874046,
              36.80706525358637
            ],
            [
              10.310559855743502,
              36.807088788947674
            ],
            [
              10.310575200885431,
              36.807124173514715
            ],
            [
              10.31057560541186,
              36.80714787193054
            ],
            [
              10.3105909505736,
              36.807183256494824
            ],
            [
              10.310606495519242,
              36.80723049029188
            ],
            [
              10.310621843177746,
              36.807265872814774
            ],
            [
              10.310637185920788,
              36.80730125940785
            ],
            [
              10.31063779270887,
              36.807336805020924
            ],
            [
              10.310653137939363,
              36.80737218957478
            ],
            [
              10.31065354249345,
              36.807395887988875
            ],
            [
              10.310669092522907,
              36.80744312171918
            ],
            [
              10.31068463757368,
              36.80749035550203
            ],
            [
              10.310685244422153,
              36.80752590312197
            ],
            [
              10.310700589714704,
              36.80756128766744
            ],
            [
              10.310701196572115,
              36.80759683528673
            ],
            [
              10.310716541887105,
              36.80763221982929
            ],
            [
              10.31071694646455,
              36.80765591824173
            ],
            [
              10.31071775562086,
              36.807703315066355
            ],
            [
              10.310733100966162,
              36.80773869960558
            ],
            [
              10.31073391013486,
              36.80778609642923
            ],
            [
              10.310734719305449,
              36.80783349325248
            ],
            [
              10.310735326184632,
              36.80786904086965
            ],
            [
              10.310735730771345,
              36.80789273928099
            ],
            [
              10.31075107614818,
              36.80792812281154
            ],
            [
              10.310752492223767,
              36.80801106724942
            ],
            [
              10.310740585831615,
              36.80817711920491
            ],
            [
              10.310687298158635,
              36.80850954822766
            ],
            [
              10.310661055000605,
              36.80869946167916
            ],
            [
              10.309741820355907,
              36.809254793294315
            ],
            [
              10.309333380989644,
              36.809508187898956
            ],
            [
              10.309275234013466,
              36.8095562363738
            ],
            [
              10.309202146051593,
              36.80959259850986
            ],
            [
              10.308812067866382,
              36.80919396102265
            ],
            [
              10.308592806604484,
              36.8093030464167
            ],
            [
              10.309071719007642,
              36.809724404815775
            ],
            [
              10.308910803616723,
              36.809797291664665
            ],
            [
              10.308476309977747,
              36.8093872934166
            ],
            [
              10.308330941252636,
              36.80950741352867
            ],
            [
              10.308721624607905,
              36.809941599220934
            ],
            [
              10.308604117277238,
              36.80996660029679
            ],
            [
              10.308228779018657,
              36.80956779807264
            ],
            [
              10.30802425219379,
              36.80967671869429
            ],
            [
              10.308443806791978,
              36.810075034165195
            ],
            [
              10.30832751079231,
              36.81017113024722
            ],
            [
              10.307817302529841,
              36.80964345039221
            ],
            [
              10.307728667530382,
              36.809632577497034
            ],
            [
              10.307563515352086,
              36.809456629963925
            ],
            [
              10.30753242321348,
              36.80936216160495
            ],
            [
              10.307443384979848,
              36.80932759005297
            ],
            [
              10.307412898419017,
              36.8092686693127
            ],
            [
              10.308245737676193,
              36.80883282320669
            ],
            [
              10.308081794952761,
              36.80872797168563
            ],
            [
              10.307337993790485,
              36.80919838734626
            ],
            [
              10.306902702511533,
              36.80874098621699
            ],
            [
              10.306827798851492,
              36.808670702899335
            ],
            [
              10.306678193668105,
              36.80854198834854
            ],
            [
              10.308442988867126,
              36.807432176892334
            ],
            [
              10.308938638671732,
              36.807106714030056
            ],
            [
              10.30917404842246,
              36.80708040968507
            ],
            [
              10.309455693961294,
              36.807172108261746
            ],
            [
              10.30949829230966,
              36.807076825790844
            ],
            [
              10.309054121258924,
              36.80696322054673
            ],
            [
              10.308904919833662,
              36.80685820619786
            ],
            [
              10.308784993429091,
              36.806741016768825
            ],
            [
              10.309090659086843,
              36.806512463742635
            ],
            [
              10.308866757371892,
              36.80634901756935
            ],
            [
              10.30788777620657,
              36.80685758925347
            ],
            [
              10.307433917247133,
              36.80704037113904
            ],
            [
              10.306731920835395,
              36.80736810622087
            ],
            [
              10.305766038552186,
              36.807781704475914
            ],
            [
              10.305543552876664,
              36.80770119659649
            ],
            [
              10.30522578526188,
              36.807218790835456
            ],
            [
              10.304886197648456,
              36.807186977743115
            ],
            [
              10.304638664976611,
              36.807367476020325
            ],
            [
              10.304685296558374,
              36.80750917785628
            ],
            [
              10.303956022878104,
              36.80796756306928
            ],
            [
              10.303533234288519,
              36.80824479775487
            ],
            [
              10.303022812574484,
              36.80857040277981
            ],
            [
              10.302876833365943,
              36.808654968653045
            ],
            [
              10.302833220513625,
              36.80869100269838
            ],
            [
              10.30276033126485,
              36.80873921016469
            ],
            [
              10.302643828890703,
              36.80882345056165
            ],
            [
              10.302352272862334,
              36.80901627969025
            ],
            [
              10.301958947833036,
              36.80929318589041
            ],
            [
              10.301929671126782,
              36.80930535912792
            ],
            [
              10.301594497532337,
              36.80953421916326
            ],
            [
              10.301024701555828,
              36.80983676417854
            ],
            [
              10.300893456665039,
              36.80992116580333
            ],
            [
              10.300485184479916,
              36.81018638087722
            ],
            [
              10.300149598838512,
              36.810391538492745
            ],
            [
              10.299770395997287,
              36.81063272814916
            ],
            [
              10.299522441464708,
              36.810789517592724
            ],
            [
              10.298953431147728,
              36.811139450966884
            ],
            [
              10.298515865123173,
              36.811416830020754
            ],
            [
              10.298034279640932,
              36.811706543337095
            ],
            [
              10.29699860178068,
              36.812357864845886
            ],
            [
              10.29673629557576,
              36.81253850858593
            ],
            [
              10.296313054078873,
              36.81279202087966
            ],
            [
              10.296225617362218,
              36.8128522350381
            ],
            [
              10.295977645835238,
              36.813009016335485
            ],
            [
              10.295335905552426,
              36.81341898455614
            ],
            [
              10.295110812207474,
              36.81318441787657
            ],
            [
              10.295065993618,
              36.813149353553435
            ],
            [
              10.294901260608,
              36.812997085661564
            ],
            [
              10.294676169839208,
              36.812762518092775
            ],
            [
              10.294601472954758,
              36.81270407725269
            ],
            [
              10.294226792808832,
              36.8123407776499
            ],
            [
              10.29413655816236,
              36.81223510044885
            ],
            [
              10.293945544696284,
              36.81227274164037
            ],
            [
              10.293621078451649,
              36.81226443426509
            ],
            [
              10.293031501817548,
              36.812270871831416
            ],
            [
              10.292075234907854,
              36.81238797020219
            ],
            [
              10.291561148720033,
              36.81250024012328
            ],
            [
              10.29150219071121,
              36.812500882995025
            ],
            [
              10.291384674627794,
              36.81252586721242
            ],
            [
              10.290678574019456,
              36.812616523721296
            ],
            [
              10.290192967384614,
              36.812669220101704
            ],
            [
              10.289089095823261,
              36.81277605076916
            ],
            [
              10.288529192248248,
              36.81279399354922
            ],
            [
              10.288440755415476,
              36.812794955590874
            ],
            [
              10.288190183220932,
              36.81279768103094
            ],
            [
              10.287703380753978,
              36.812779271475556
            ],
            [
              10.287570724548168,
              36.81278071360188
            ],
            [
              10.287068387973457,
              36.81271506544677
            ],
            [
              10.285237312709587,
              36.81253347350604
            ],
            [
              10.281160106531182,
              36.81203247927385
            ],
            [
              10.281102335165487,
              36.812104211996214
            ],
            [
              10.27991760675064,
              36.81355104575632
            ],
            [
              10.279962814007789,
              36.81360981359012
            ],
            [
              10.28063974385388,
              36.81442024587507
            ],
            [
              10.28135912752926,
              36.81512355157216
            ],
            [
              10.281494161554383,
              36.81526430824411
            ],
            [
              10.28173277294242,
              36.81542764584202
            ],
            [
              10.281792326773191,
              36.81546255575334
            ],
            [
              10.282045679578431,
              36.81562573417488
            ],
            [
              10.28280594118031,
              36.81612711337406
            ],
            [
              10.283683739636471,
              36.816603511819515
            ],
            [
              10.28469361604976,
              36.817042916710925
            ],
            [
              10.292542746498022,
              36.82001518475909
            ],
            [
              10.300690513655296,
              36.8231732713324
            ],
            [
              10.300734939004395,
              36.823184634867786
            ],
            [
              10.302896607117722,
              36.821110582757655
            ],
            [
              10.304105011982124,
              36.82020842846361
            ],
            [
              10.3044418372556,
              36.82007435364125
            ],
            [
              10.30482247846147,
              36.81991609332614
            ],
            [
              10.305378800982986,
              36.819684786136136
            ],
            [
              10.30587595298028,
              36.81944227832809
            ],
            [
              10.306358565301155,
              36.819211780250775
            ],
            [
              10.306446404366199,
              36.819175257123085
            ],
            [
              10.306592197408005,
              36.819078837493805
            ],
            [
              10.307219181548112,
              36.818668971827385
            ],
            [
              10.30772924690723,
              36.81831965096062
            ],
            [
              10.30810845869378,
              36.818078435994295
            ],
            [
              10.308122795237372,
              36.81805457480451
            ]
          ]
        ]
      }
    }
  ],
  "sourceId": "isie-local-sectors-2023-la-goulette"
}
