{
  "type": "FeatureCollection",
  "features": [
    {
      "type": "Feature",
      "id": "osm:relation:7119796",
      "properties": {
        "officialCode": "165553",
        "governorateCode": "16",
        "delegationCode": "1655",
        "nameAr": "صوار",
        "nameFr": "Saouar",
        "currentName": "صوار",
        "currentAliases": [
          "Saouar",
          "Souar"
        ],
        "acceptedNameRecommendation": {
          "nameAr": "صوار",
          "nameFr": "Saouar",
          "aliases": [
            "Saouar",
            "Souar"
          ]
        },
        "sourcePdfURL": "https://www.isie.tn/wp-content/uploads/2023/CartesCirconscriptionsElectoralesLocales2023/%D8%B2%D8%BA%D9%88%D8%A7%D9%86/%D8%A7%D9%84%D9%86%D8%A7%D8%B8%D9%88%D8%B1/%D8%B5%D9%88%D8%A7%D8%B1.pdf",
        "sourcePdfSha256": "2634c2a42e2e4241e5a2aa66981d23c90788464a4a68e0c7efffaa354dca8ddd",
        "sourceDrawingIndices": [
          519
        ],
        "sourceVectorLayer": "circonscription_isie2023",
        "sourceCrsEpsg": 32632,
        "sourceGeometrySha256": "03e66589cad80c31e791a3082687d564b130f7dd5414a4ebdef6d246153d2d9b",
        "sourceControlPointMaxResidualMeters": 0.06530848844276611,
        "rawNativePath": {
          "file": "C:\\Users\\barou\\Documents\\Codex\\2026-09-06\\the-android-app-app-currently-allows\\work\\next-three-interface-source-review\\souar-raw-native-path.json",
          "sha256": "b93bc788cb68052712eb0931b0b7712464044c3c14885cca4941994eb36a7e9d"
        },
        "administrativeScope": {
          "decision": "whole_imada",
          "officialIdentity": {
            "governorateCode": "16",
            "governorateFr": "Zaghouan",
            "governorateAr": "زغوان",
            "delegationCode": "1655",
            "delegationFr": "En-nadhour",
            "delegationAr": "الناظور",
            "sectorCode": "165553",
            "sectorFr": "Saouar",
            "sectorAr": "صوار",
            "sourceRows": {
              "Population_Secteur_Age_Sexe_Dynamique.xlsx": 16150,
              "Nombre_de_Logements_par_Secteurs.xlsx": 689,
              "Nombre_de_menages_par_Secteurs.xlsx": 688
            }
          },
          "decree": {
            "file": "C:\\Users\\barou\\Documents\\Codex\\2026-09-06\\the-android-app-app-currently-allows\\work\\electoral-circle-semantics\\decree2023-590.pdf",
            "sha256": "bfb3fe752b9900eaf873198b009968243f1b0bd2c119836cfd4fbbfc07e1e10f"
          },
          "decreePdfPage": 45,
          "jortPage": 5142,
          "personallyViewedPage": {
            "file": "C:\\Users\\barou\\Documents\\Codex\\2026-09-06\\the-android-app-app-currently-allows\\work\\next-three-interface-source-review\\decree-45.png",
            "sha256": "51457865bf01bdd20693c8fa20967d1cdc58a3eabdddbf386d5a9af65abebf9a"
          },
          "circleLabel": "صوار",
          "oneWholeImadaOneCircleOneSeat": true
        },
        "geometryPolicy": "Unmodified complete native ring. No clipping, snapping, repair or invented connecting segments.",
        "officialRegistryNameAr": "صوار",
        "officialRegistryNameFr": "Saouar",
        "id": "osm:relation:7119796",
        "sourceId": "isie-local-sectors-2023-nadhour-souar",
        "parentAr": "معتمدية الناظور",
        "parentFr": "Délégation Ennadhour"
      },
      "geometry": {
        "type": "Polygon",
        "coordinates": [
          [
            [
              9.996369095559265,
              36.22244976581492
            ],
            [
              9.99672646448489,
              36.221550247136165
            ],
            [
              9.99717316460148,
              36.220425859942154
            ],
            [
              9.99798954460665,
              36.21937308329621
            ],
            [
              9.99826420081795,
              36.21922136622754
            ],
            [
              9.998537905316429,
              36.21899494491534
            ],
            [
              9.99899407597585,
              36.21861757470624
            ],
            [
              9.999724891656271,
              36.218088482458775
            ],
            [
              10.000458554733836,
              36.21778349665235
            ],
            [
              10.001284379760278,
              36.217477734253336
            ],
            [
              10.001739574721869,
              36.21702565024565
            ],
            [
              10.002103536144046,
              36.21664904111264
            ],
            [
              10.002559675999171,
              36.216271657644874
            ],
            [
              10.00274022180537,
              36.21597130931301
            ],
            [
              10.002737358063131,
              36.21574718594066
            ],
            [
              10.003102263871781,
              36.215445290091665
            ],
            [
              10.003375941267262,
              36.215218857995794
            ],
            [
              10.003652483189017,
              36.21521653596448
            ],
            [
              10.004021205702147,
              36.21521343892888
            ],
            [
              10.004296791565656,
              36.215136411864385
            ],
            [
              10.004846048636018,
              36.214832948787475
            ],
            [
              10.005580618167,
              36.21460263572579
            ],
            [
              10.005855242845659,
              36.21445090160434
            ],
            [
              10.00613178185442,
              36.2144485738861
            ],
            [
              10.006499542431847,
              36.21437076576656
            ],
            [
              10.007782381866182,
              36.213762262878866
            ],
            [
              10.008425698120332,
              36.213607413439966
            ],
            [
              10.008609095310934,
              36.21353115430665
            ],
            [
              10.008792492140566,
              36.213454894896884
            ],
            [
              10.008975888609228,
              36.21337863521066
            ],
            [
              10.00934268046364,
              36.21322611500892
            ],
            [
              10.009892865537969,
              36.212997332633066
            ],
            [
              10.010349908137652,
              36.212694623602516
            ],
            [
              10.011081553875409,
              36.21224016697613
            ],
            [
              10.011907293767225,
              36.2119343387501
            ],
            [
              10.012368176478805,
              36.211930435788965
            ],
            [
              10.01264277845964,
              36.211778686377016
            ],
            [
              10.012823275282564,
              36.211478310716835
            ],
            [
              10.013095946377712,
              36.21117715351056
            ],
            [
              10.013186193421534,
              36.21102696538162
            ],
            [
              10.013091125383117,
              36.21080363654988
            ],
            [
              10.012902918962194,
              36.21050638541657
            ],
            [
              10.012993165639054,
              36.21035619742298
            ],
            [
              10.013084376139686,
              36.21028071276477
            ],
            [
              10.013359935432346,
              36.21020366517756
            ],
            [
              10.01363451394039,
              36.21005192003689
            ],
            [
              10.014090559822078,
              36.209674493682556
            ],
            [
              10.014364185249256,
              36.20944803705774
            ],
            [
              10.014638774706164,
              36.20929628320185
            ],
            [
              10.014822155676688,
              36.209220014746556
            ],
            [
              10.014912397232717,
              36.2090698253553
            ],
            [
              10.015094811374684,
              36.208918853119236
            ],
            [
              10.015186984296703,
              36.20891807026972
            ],
            [
              10.015464469421456,
              36.20899042465811
            ],
            [
              10.015832194651292,
              36.20891258833599
            ],
            [
              10.029740430519677,
              36.20804645847918
            ],
            [
              10.040332175732132,
              36.20735705459258
            ],
            [
              10.043002897941255,
              36.19328805287721
            ],
            [
              10.042905784789696,
              36.19291534860338
            ],
            [
              10.04272048636271,
              36.19284225339466
            ],
            [
              10.042535188274782,
              36.19276915789252
            ],
            [
              10.042442043642167,
              36.19269525856542
            ],
            [
              10.042348899184555,
              36.192621359162075
            ],
            [
              10.042256746152152,
              36.19262216262052
            ],
            [
              10.042072440076403,
              36.19262376932462
            ],
            [
              10.04197929604535,
              36.19254986962568
            ],
            [
              10.04197731408087,
              36.192400463733634
            ],
            [
              10.041700855716462,
              36.1924028730254
            ],
            [
              10.042432129517767,
              36.19194822919517
            ],
            [
              10.030431803518757,
              36.1834604445893
            ],
            [
              10.030339660869878,
              36.18346123870124
            ],
            [
              10.025737415584729,
              36.18387436462441
            ],
            [
              10.011428108029929,
              36.17473201805223
            ],
            [
              10.009844570233119,
              36.17340059253713
            ],
            [
              10.008714066427103,
              36.17146762781086
            ],
            [
              10.006854257459992,
              36.17013848516456
            ],
            [
              10.006471415280531,
              36.169021032882064
            ],
            [
              10.004517668162364,
              36.167543219033504
            ],
            [
              10.00201506427892,
              36.1663688279468
            ],
            [
              9.999301720225063,
              36.16310420265833
            ],
            [
              9.998443236595051,
              36.16079529987832
            ],
            [
              10.00052484343281,
              36.15786413557917
            ],
            [
              9.984777614744894,
              36.136253550648675
            ],
            [
              9.984497610809841,
              36.13595701121915
            ],
            [
              9.9850258328719,
              36.13401013909599
            ],
            [
              9.985210005047394,
              36.13400862233385
            ],
            [
              9.98530115598241,
              36.13393315885738
            ],
            [
              9.985390436290482,
              36.13370828533416
            ],
            [
              9.985386695426888,
              36.133409465364444
            ],
            [
              9.98547597493126,
              36.13318459177102
            ],
            [
              9.985563383220802,
              36.13281030811682
            ],
            [
              9.985741003933917,
              36.13228585559185
            ],
            [
              9.985829345642102,
              36.131986276726366
            ],
            [
              9.985825603429463,
              36.13168746304209
            ],
            [
              9.985824667785785,
              36.131612751703614
            ],
            [
              9.986192057193142,
              36.13153501700948
            ],
            [
              9.986374351362356,
              36.13138408855037
            ],
            [
              9.986463625872972,
              36.13115921422488
            ],
            [
              9.986552899887695,
              36.13093433983243
            ],
            [
              9.986643109714757,
              36.13078417037234
            ],
            [
              9.986733319203196,
              36.130634000845895
            ],
            [
              9.986916546832697,
              36.130557776584915
            ],
            [
              9.987098837372272,
              36.130406847055355
            ],
            [
              9.987189045569368,
              36.130256677196506
            ],
            [
              9.987279253427854,
              36.130106507271314
            ],
            [
              9.987459668129018,
              36.12980616722198
            ],
            [
              9.985512879173058,
              36.12877624950495
            ],
            [
              9.98342926433109,
              36.12416121632768
            ],
            [
              9.983027391183008,
              36.121474856930035
            ],
            [
              9.982534419130419,
              36.11886396856809
            ],
            [
              9.982874723772923,
              36.11661978612025
            ],
            [
              9.983137858730101,
              36.11557165584084
            ],
            [
              9.985975019689896,
              36.11420347572577
            ],
            [
              9.985606775725774,
              36.11420650982983
            ],
            [
              9.984777275067298,
              36.11413862732258
            ],
            [
              9.9836687884215,
              36.113848894272074
            ],
            [
              9.98228133589951,
              36.113337302644844
            ],
            [
              9.981817301165298,
              36.11304225960067
            ],
            [
              9.981719653259034,
              36.11259478302943
            ],
            [
              9.980616778866075,
              36.112753253275365
            ],
            [
              9.98006998729338,
              36.11320601145716
            ],
            [
              9.979154947310246,
              36.11366178144044
            ],
            [
              9.97897175077876,
              36.11373799354974
            ],
            [
              9.978329168301858,
              36.113892675667685
            ],
            [
              9.97768936500881,
              36.11427147059574
            ],
            [
              9.977692146817656,
              36.11449558680951
            ],
            [
              9.976963051393188,
              36.11509924646338
            ],
            [
              9.976684087479606,
              36.11487738514638
            ],
            [
              9.97575696937664,
              36.114361959058535
            ],
            [
              9.97436308047031,
              36.11332733682516
            ],
            [
              9.972888246739945,
              36.11318991257738
            ],
            [
              9.9701245494952,
              36.113062927787595
            ],
            [
              9.968378125335727,
              36.113301215084334
            ],
            [
              9.966723760546374,
              36.11353873316404
            ],
            [
              9.965718398037305,
              36.11414455696522
            ],
            [
              9.964706615144426,
              36.11422743266449
            ],
            [
              9.963612827431108,
              36.11513280415255
            ],
            [
              9.961781568680383,
              36.11596938349266
            ],
            [
              9.961419689282115,
              36.11649527094914
            ],
            [
              9.9613367415855,
              36.11724306812519
            ],
            [
              9.960977588360455,
              36.11799308411733
            ],
            [
              9.961166283157699,
              36.11836513350849
            ],
            [
              9.96154185393382,
              36.11895981984168
            ],
            [
              9.962375953745685,
              36.119401391154035
            ],
            [
              9.962750625367994,
              36.1199213677137
            ],
            [
              9.963126215662472,
              36.120516048633036
            ],
            [
              9.963682298029635,
              36.12081042248556
            ],
            [
              9.96377711205962,
              36.12103378501072
            ],
            [
              9.963413395982776,
              36.121410292271314
            ],
            [
              9.96313992108605,
              36.12163662062194
            ],
            [
              9.962502720396234,
              36.12223945293108
            ],
            [
              9.962044180980394,
              36.12239256729004
            ],
            [
              9.961583815180102,
              36.122396268596354
            ],
            [
              9.961027729102554,
              36.122101885128835
            ],
            [
              9.96074968760832,
              36.12195469239799
            ],
            [
              9.96038140468661,
              36.12195764951146
            ],
            [
              9.960107008344105,
              36.122109278046736
            ],
            [
              9.95992741612499,
              36.122484284287374
            ],
            [
              9.959562764326469,
              36.122786061782506
            ],
            [
              9.959012141916537,
              36.12293990315936
            ],
            [
              9.95828282425901,
              36.12354345161736
            ],
            [
              9.957923622252348,
              36.12429345848179
            ],
            [
              9.957928166678705,
              36.12466698705782
            ],
            [
              9.958211659885102,
              36.12526241415059
            ],
            [
              9.958215296639986,
              36.12556123693969
            ],
            [
              9.957849715346489,
              36.12578830368244
            ],
            [
              9.957298168046067,
              36.125867431700605
            ],
            [
              9.957300893070858,
              36.1260915488311
            ],
            [
              9.957398421331668,
              36.12653904616178
            ],
            [
              9.958238936774245,
              36.12750357836482
            ],
            [
              9.95861453079763,
              36.12809827265701
            ],
            [
              9.958525179615915,
              36.12832312749013
            ],
            [
              9.958070233639313,
              36.1287750497592
            ],
            [
              9.957800361696922,
              36.12930020149192
            ],
            [
              9.957624377926994,
              36.12997402686161
            ],
            [
              9.957537747952484,
              36.13042299158155
            ],
            [
              9.957543200302313,
              36.13087122546092
            ],
            [
              9.957454751742903,
              36.13117078512768
            ],
            [
              9.957183043183134,
              36.13154652422935
            ],
            [
              9.956452725315433,
              36.13207535011819
            ],
            [
              9.956087109035211,
              36.13230241176784
            ],
            [
              9.95599683878417,
              36.13245255908236
            ],
            [
              9.955999560765095,
              36.13267667605124
            ],
            [
              9.956093460934785,
              36.13282535134787
            ],
            [
              9.956738967372983,
              36.13289490292421
            ],
            [
              9.957295114961218,
              36.13318930487417
            ],
            [
              9.95766618528811,
              36.13341047323311
            ],
            [
              9.957667094225716,
              36.1334851788419
            ],
            [
              9.957668912110963,
              36.13363459005665
            ],
            [
              9.95748837441611,
              36.13393488689293
            ],
            [
              9.957306926743264,
              36.1341604778556
            ],
            [
              9.957126386497581,
              36.134460774159024
            ],
            [
              9.957130928835374,
              36.13483430218686
            ],
            [
              9.956676845993059,
              36.13536091863525
            ],
            [
              9.95548604451985,
              36.135893427069554
            ],
            [
              9.954936229093168,
              36.13612195017126
            ],
            [
              9.954202239066229,
              36.136351952839455
            ],
            [
              9.952919315084038,
              36.13688516443601
            ],
            [
              9.95264485267749,
              36.137036776497204
            ],
            [
              9.951997507979586,
              36.13681779197636
            ],
            [
              9.951171411890748,
              36.13704850287122
            ],
            [
              9.95099174442703,
              36.13742349593623
            ],
            [
              9.950904166735738,
              36.13779775662599
            ],
            [
              9.9509086801359,
              36.13817128512302
            ],
            [
              9.950821101298228,
              36.138545545724185
            ],
            [
              9.950457243365861,
              36.13892200202722
            ],
            [
              9.949909195521897,
              36.13929992020384
            ],
            [
              9.950098793671334,
              36.139746685107795
            ],
            [
              9.950473484959964,
              36.14026669809461
            ],
            [
              9.9517790622971,
              36.141601140503056
            ],
            [
              9.952337062407231,
              36.14204497565794
            ],
            [
              9.952338870754712,
              36.14219438689116
            ],
            [
              9.952156493475913,
              36.14234526457071
            ],
            [
              9.951885625821864,
              36.14279569753328
            ],
            [
              9.951524464200933,
              36.1433962738836
            ],
            [
              9.950521313826709,
              36.14422609147827
            ],
            [
              9.949790834801156,
              36.14475488439344
            ],
            [
              9.94933664659176,
              36.14528147373557
            ],
            [
              9.948977264355012,
              36.146031447500974
            ],
            [
              9.948802972664867,
              36.146854671001726
            ],
            [
              9.949089184947935,
              36.147674240543274
            ],
            [
              9.949007002999151,
              36.148496733123885
            ],
            [
              9.948641289605687,
              36.14872377288478
            ],
            [
              9.948002861509272,
              36.149251818340794
            ],
            [
              9.946720585122785,
              36.149859678116314
            ],
            [
              9.94644516697768,
              36.14993657085039
            ],
            [
              9.945801332657732,
              36.15001637718654
            ],
            [
              9.94543560284477,
              36.15024340734182
            ],
            [
              9.944609338794093,
              36.15047407489853
            ],
            [
              9.94396549012383,
              36.15055386517865
            ],
            [
              9.943504957370545,
              36.15055749943465
            ],
            [
              9.94267957946762,
              36.15086286583815
            ],
            [
              9.941672671161248,
              36.15139378179245
            ],
            [
              9.941126282558473,
              36.151921072371834
            ],
            [
              9.940947428315324,
              36.15237075639164
            ],
            [
              9.940861575000625,
              36.15289442122772
            ],
            [
              9.940868724265338,
              36.15349206703711
            ],
            [
              9.940597754583665,
              36.15394247516173
            ],
            [
              9.940145238558095,
              36.15461844197859
            ],
            [
              9.939596140134702,
              36.15492160859731
            ],
            [
              9.938954933126306,
              36.155225495973795
            ],
            [
              9.938404042944988,
              36.15537923939983
            ],
            [
              9.938130379345633,
              36.15560552485008
            ],
            [
              9.937761038109196,
              36.15553370902809
            ],
            [
              9.937391697597885,
              36.15546189838806
            ],
            [
              9.937021467577642,
              36.155315374484296
            ],
            [
              9.936650349191831,
              36.15509414361962
            ],
            [
              9.936465243358278,
              36.15502088057915
            ],
            [
              9.936279240689549,
              36.15487291150473
            ],
            [
              9.936092341729411,
              36.15465023637883
            ],
            [
              9.93581334816661,
              36.15442828167521
            ],
            [
              9.935626459401044,
              36.15420560570975
            ],
            [
              9.935531682551563,
              36.15398221519602
            ],
            [
              9.935622015906377,
              36.153832082901154
            ],
            [
              9.93552723946733,
              36.153608686031255
            ],
            [
              9.935614906364405,
              36.15323443622653
            ],
            [
              9.93552013070256,
              36.153011039318095
            ],
            [
              9.93524113682351,
              36.15278908317313
            ],
            [
              9.934686704876096,
              36.15264399230826
            ],
            [
              9.934134936683687,
              36.15272301647528
            ],
            [
              9.933403381291257,
              36.15317700557829
            ],
            [
              9.932765707653463,
              36.15377968359636
            ],
            [
              9.932400807718407,
              36.15408137416713
            ],
            [
              9.932037675789383,
              36.15453248811418
            ],
            [
              9.931767536716137,
              36.1550575765349
            ],
            [
              9.93177284731162,
              36.15550581190199
            ],
            [
              9.93187204156547,
              36.156102734886616
            ],
            [
              9.932152809066684,
              36.15647411047256
            ],
            [
              9.933178463399454,
              36.15751208957233
            ],
            [
              9.933739144357208,
              36.15818012751938
            ],
            [
              9.933931353256357,
              36.15885104112584
            ],
            [
              9.934306920221012,
              36.15944580275531
            ],
            [
              9.934406139344715,
              36.160042729229595
            ],
            [
              9.934411465927868,
              36.16049096388543
            ],
            [
              9.934413241481716,
              36.16064037542976
            ],
            [
              9.934415904836984,
              36.160864492739094
            ],
            [
              9.934139548259814,
              36.16086665199854
            ],
            [
              9.933678953899237,
              36.160870249347234
            ],
            [
              9.933402597243727,
              36.160872406906186
            ],
            [
              9.933217472729433,
              36.16079913279824
            ],
            [
              9.933033242915151,
              36.160800570468346
            ],
            [
              9.9328454601729,
              36.16050319103029
            ],
            [
              9.932751569303118,
              36.16035449802151
            ],
            [
              9.932562902636345,
              36.15998240593813
            ],
            [
              9.932468127030386,
              36.15975900685487
            ],
            [
              9.932374237785444,
              36.15961031350848
            ],
            [
              9.932097885448957,
              36.15961246799204
            ],
            [
              9.931729415621374,
              36.159615339644844
            ],
            [
              9.931453063216495,
              36.15961749264053
            ],
            [
              9.931173172102138,
              36.1593208215793
            ],
            [
              9.930802934920619,
              36.159174278635966
            ],
            [
              9.930245822040854,
              36.15880505653732
            ],
            [
              9.93005893816301,
              36.15858237196395
            ],
            [
              9.930237868268629,
              36.158132703552866
            ],
            [
              9.930416788571236,
              36.1576830349316
            ],
            [
              9.930683408759439,
              36.15685911960666
            ],
            [
              9.930956214045475,
              36.15655814495188
            ],
            [
              9.930859678771695,
              36.15618533254024
            ],
            [
              9.930671915482801,
              36.15588794285338
            ],
            [
              9.93048504533171,
              36.155665258693496
            ],
            [
              9.930299935857738,
              36.15559198612477
            ],
            [
              9.930023597458867,
              36.15559413561667
            ],
            [
              9.929197230100685,
              36.15582469809841
            ],
            [
              9.928554202486486,
              36.15597911858806
            ],
            [
              9.927725182716133,
              36.155985553124694
            ],
            [
              9.92616190299169,
              36.15622180954237
            ],
            [
              9.92524428220499,
              36.15652776438944
            ],
            [
              9.925073236135177,
              36.15764977991933
            ],
            [
              9.925637359890791,
              36.158616680794466
            ],
            [
              9.927305146246931,
              36.15942559312723
            ],
            [
              9.92962838531354,
              36.161125940786455
            ],
            [
              9.92880990148344,
              36.16202885408976
            ],
            [
              9.920803941714723,
              36.17068271280093
            ],
            [
              9.920713561225167,
              36.17083283418803
            ],
            [
              9.902307094978283,
              36.17269155836829
            ],
            [
              9.900925951969356,
              36.172776680647864
            ],
            [
              9.893655893649516,
              36.17357837300784
            ],
            [
              9.895340700445555,
              36.17588185719881
            ],
            [
              9.89543624689805,
              36.17617999266227
            ],
            [
              9.895718617228763,
              36.176700866680186
            ],
            [
              9.896093134250362,
              36.177221049295554
            ],
            [
              9.896465095444611,
              36.17751711159806
            ],
            [
              9.896930908440158,
              36.177961887745155
            ],
            [
              9.897766995261422,
              36.17855331369561
            ],
            [
              9.897952983758358,
              36.178701342261476
            ],
            [
              9.898140680827563,
              36.17899878312796
            ],
            [
              9.898235383935805,
              36.17922220973418
            ],
            [
              9.89823965415678,
              36.1795957412015
            ],
            [
              9.898067325242959,
              36.18064300743445
            ],
            [
              9.897621973709926,
              36.18199118073382
            ],
            [
              9.89753153608808,
              36.18214128514776
            ],
            [
              9.89753409647962,
              36.18236540396478
            ],
            [
              9.897537510306623,
              36.182664222708745
            ],
            [
              9.897539217275133,
              36.18281363524106
            ],
            [
              9.897449631989886,
              36.18303844585228
            ],
            [
              9.895446271082092,
              36.185145417769334
            ],
            [
              9.8952653840352,
              36.18544562327488
            ],
            [
              9.895174934141066,
              36.185595725970714
            ],
            [
              9.895273898294018,
              36.186192686015666
            ],
            [
              9.89612113730017,
              36.187755296480404
            ],
            [
              9.896962442526696,
              36.188794962981525
            ],
            [
              9.897242309740651,
              36.189091712959566
            ],
            [
              9.897337876577996,
              36.18938984595617
            ],
            [
              9.896791785031716,
              36.18999163868864
            ],
            [
              9.896797756118248,
              36.19051458200057
            ],
            [
              9.896806286508635,
              36.191261643793865
            ],
            [
              9.89671583703553,
              36.19141174753313
            ],
            [
              9.896351477733022,
              36.19178803695819
            ],
            [
              9.896354035736843,
              36.192012161817914
            ],
            [
              9.896451308438934,
              36.19245970138074
            ],
            [
              9.896734603139688,
              36.193055276810675
            ],
            [
              9.897017048885226,
              36.193576145310246
            ],
            [
              9.897583655599782,
              36.19476728594599
            ],
            [
              9.897863550772055,
              36.195064033817
            ],
            [
              9.89832776842415,
              36.19535939580664
            ],
            [
              9.898699825130505,
              36.195655448950475
            ],
            [
              9.898977161909958,
              36.195728075845395
            ],
            [
              9.899623997714535,
              36.195872634049756
            ],
            [
              9.900086514027697,
              36.19601857691729
            ],
            [
              9.900271692324011,
              36.19609189476469
            ],
            [
              9.900550741650662,
              36.19631393007007
            ],
            [
              9.900828939347463,
              36.19646125230636
            ],
            [
              9.901015833802175,
              36.196683981017756
            ],
            [
              9.901108852844857,
              36.19675799857877
            ],
            [
              9.90129574482672,
              36.19698072051832
            ],
            [
              9.90139134110014,
              36.19727884950774
            ],
            [
              9.901763418375534,
              36.19757489274257
            ],
            [
              9.902506730459226,
              36.19809226954904
            ],
            [
              9.902878819682565,
              36.19838830913299
            ],
            [
              9.903343931243775,
              36.19875835693946
            ],
            [
              9.903531701859539,
              36.19905578103838
            ],
            [
              9.903993379917296,
              36.19912700246115
            ],
            [
              9.904824577746163,
              36.19927013766015
            ],
            [
              9.906577425728798,
              36.19940627978019
            ],
            [
              9.907039112264295,
              36.19947748935109
            ],
            [
              9.907962483825688,
              36.19961990314104
            ],
            [
              9.909072787548107,
              36.1999850252976
            ],
            [
              9.909535344969155,
              36.20013093095597
            ],
            [
              9.909904002966321,
              36.20012812493665
            ],
            [
              9.910638727209085,
              36.199898392093544
            ],
            [
              9.911006517187888,
              36.199820876917286
            ],
            [
              9.91192903553199,
              36.199888554144025
            ],
            [
              9.91266635652555,
              36.19988292619743
            ],
            [
              9.913404542501613,
              36.19995199946279
            ],
            [
              9.914415745146112,
              36.19972013027643
            ],
            [
              9.915427816565742,
              36.199562958278335
            ],
            [
              9.916172979270467,
              36.20022965981484
            ],
            [
              9.916728584665822,
              36.20044953661488
            ],
            [
              9.917654603074123,
              36.20081599207909
            ],
            [
              9.918953671788575,
              36.20155312783533
            ],
            [
              9.919695378673149,
              36.20192098426792
            ],
            [
              9.920531891907306,
              36.20251224274347
            ],
            [
              9.920448478788723,
              36.2032600080032
            ],
            [
              9.920177229846812,
              36.20371036402146
            ],
            [
              9.9201833594818,
              36.20423330273636
            ],
            [
              9.9203720787928,
              36.204605410923484
            ],
            [
              9.920464245332273,
              36.20460470112822
            ],
            [
              9.920740756653895,
              36.20460257122637
            ],
            [
              9.921199855493125,
              36.204449608965895
            ],
            [
              9.921659829592613,
              36.2043713504611
            ],
            [
              9.922028510129865,
              36.204368506782885
            ],
            [
              9.922766745275142,
              36.204437521521086
            ],
            [
              9.923503227854697,
              36.20435712074541
            ],
            [
              9.923872783410003,
              36.20442897686774
            ],
            [
              9.923965832833971,
              36.20450296979432
            ],
            [
              9.924151052750908,
              36.204576249981045
            ],
            [
              9.924338911922355,
              36.20487364617504
            ],
            [
              9.924432842048029,
              36.20502234414825
            ],
            [
              9.924525012878314,
              36.2050216311887
            ],
            [
              9.924985866981178,
              36.205018065326435
            ],
            [
              9.925815400254764,
              36.20501164233363
            ],
            [
              9.926367543322206,
              36.20493265173692
            ],
            [
              9.926827514654464,
              36.2048543734085
            ],
            [
              9.928024840864076,
              36.20477037016805
            ],
            [
              9.928392639118265,
              36.20469280150845
            ],
            [
              9.928852606863181,
              36.20461451544265
            ],
            [
              9.929310804944315,
              36.204386816957665
            ],
            [
              9.929584660979101,
              36.20416055064401
            ],
            [
              9.929951569797508,
              36.204008271923044
            ],
            [
              9.930135023666697,
              36.20393213214703
            ],
            [
              9.930318477175877,
              36.203855992093985
            ],
            [
              9.93068891786896,
              36.20400253245834
            ],
            [
              9.931152423466964,
              36.20422305883973
            ],
            [
              9.931522875217572,
              36.20436959650483
            ],
            [
              9.93180204500922,
              36.20459155690243
            ],
            [
              9.932172499678252,
              36.20473809250455
            ],
            [
              9.93226378280437,
              36.20466266832353
            ],
            [
              9.932537631131966,
              36.20443639537234
            ],
            [
              9.932902759783694,
              36.204134697151915
            ],
            [
              9.93336094302143,
              36.20390698335322
            ],
            [
              9.933820900812451,
              36.20382867831989
            ],
            [
              9.934094733911245,
              36.203602401943286
            ],
            [
              9.93446163117873,
              36.203450115877914
            ],
            [
              9.935105032529398,
              36.20329565935216
            ],
            [
              9.935287589590441,
              36.2031448065436
            ],
            [
              9.935558753152115,
              36.20269441116254
            ],
            [
              9.936655846153652,
              36.20193869666492
            ],
            [
              9.949591676495908,
              36.204526252245245
            ],
            [
              9.95524491406259,
              36.20702140601267
            ],
            [
              9.959540529353376,
              36.21154441262114
            ],
            [
              9.961519273097082,
              36.21503996182323
            ],
            [
              9.96256899986549,
              36.21794526074068
            ],
            [
              9.971957028921638,
              36.21667388662723
            ],
            [
              9.972144163969258,
              36.21689649983492
            ],
            [
              9.972329456582749,
              36.216969704181246
            ],
            [
              9.972606933179424,
              36.2170421580342
            ],
            [
              9.973621879914582,
              36.217108605356486
            ],
            [
              9.974177764261688,
              36.217328210557376
            ],
            [
              9.974458026827069,
              36.21762477263614
            ],
            [
              9.974741075469092,
              36.218145446534976
            ],
            [
              9.975118162322202,
              36.21881477587828
            ],
            [
              9.97521313335963,
              36.219038136099364
            ],
            [
              9.975217775739937,
              36.21941165684411
            ],
            [
              9.975313676403962,
              36.219709721089984
            ],
            [
              9.975133945099891,
              36.22008474639647
            ],
            [
              9.975137658838117,
              36.22038356294887
            ],
            [
              9.974956076477477,
              36.22060917964886
            ],
            [
              9.974866665479151,
              36.22083404419995
            ],
            [
              9.975051041528426,
              36.22083253997018
            ],
            [
              9.975508266369568,
              36.22052996165639
            ],
            [
              9.9761498622401,
              36.22022587573275
            ],
            [
              9.976609868758464,
              36.220147405631344
            ],
            [
              9.97688550017216,
              36.22007044108742
            ],
            [
              9.976977687247029,
              36.220069687466385
            ],
            [
              9.977624850452889,
              36.22021381836255
            ],
            [
              9.977717045492076,
              36.22021306410543
            ],
            [
              9.97790141211082,
              36.220211555570046
            ],
            [
              9.978085786532315,
              36.22021004668668
            ],
            [
              9.978820488277906,
              36.219979896140124
            ],
            [
              9.97937174481512,
              36.21982595631919
            ],
            [
              9.979740491672485,
              36.219822933765236
            ],
            [
              9.980017051779479,
              36.219820666104226
            ],
            [
              9.980109238474942,
              36.219819910075216
            ],
            [
              9.98029547851129,
              36.21996780585859
            ],
            [
              9.980391399074842,
              36.22026586570157
            ],
            [
              9.980397933187565,
              36.22078879382073
            ],
            [
              9.980591645158874,
              36.221534308454345
            ],
            [
              9.980599114599245,
              36.222131940423886
            ],
            [
              9.980600981993694,
              36.22228134840672
            ],
            [
              9.98051065965657,
              36.22243151284165
            ],
            [
              9.980513460531714,
              36.222655624809164
            ],
            [
              9.980422204064341,
              36.22273108518957
            ],
            [
              9.980514394163631,
              36.222730328796416
            ],
            [
              9.980606584259489,
              36.22272957233227
            ],
            [
              9.980698774351909,
              36.22272881579711
            ],
            [
              9.980976278682096,
              36.222801249741586
            ],
            [
              9.98106846103171,
              36.2228004929845
            ],
            [
              9.981253783510612,
              36.22287368303367
            ],
            [
              9.98153034641451,
              36.222871411775806
            ],
            [
              9.981900042283955,
              36.22294308630578
            ],
            [
              9.98245318407559,
              36.22293854002777
            ],
            [
              9.983098516009232,
              36.222933232805744
            ],
            [
              9.983375086786287,
              36.22293095721684
            ],
            [
              9.983741974358553,
              36.22277851427847
            ],
            [
              9.984110726773475,
              36.22277547811049
            ],
            [
              9.984478549546232,
              36.2226977368442
            ],
            [
              9.984939499251025,
              36.22269393854614
            ],
            [
              9.985399510592957,
              36.22261543459474
            ],
            [
              9.985676080059754,
              36.222613153704835
            ],
            [
              9.985860459687022,
              36.22261163275651
            ],
            [
              9.986319530399197,
              36.22245842142528
            ],
            [
              9.98687172837443,
              36.222379150922684
            ],
            [
              9.98742392517706,
              36.2222998778876
            ],
            [
              9.988162373348624,
              36.22236848554733
            ],
            [
              9.988900830520896,
              36.22243708856379
            ],
            [
              9.990189597829108,
              36.2222769936764
            ],
            [
              9.99046710878708,
              36.222349405501966
            ],
            [
              9.991571484945961,
              36.222190823893776
            ],
            [
              9.992671138403937,
              36.22165871347179
            ],
            [
              9.99368048115961,
              36.221276767122674
            ],
            [
              9.993956099017629,
              36.22119977612775
            ],
            [
              9.994233609251372,
              36.221272166571076
            ],
            [
              9.994604255208069,
              36.22141850548943
            ],
            [
              9.995162106112051,
              36.22178741913555
            ],
            [
              9.996369095559265,
              36.22244976581492
            ]
          ]
        ]
      }
    }
  ]
}
