{
  "type": "FeatureCollection",
  "status": "REVIEWED_SOURCE_PROPOSAL_NOT_GENERATED_OR_INSTALLED",
  "features": [
    {
      "type": "Feature",
      "id": "osm:relation:7119798",
      "properties": {
        "officialCode": "165551",
        "nameAr": "الناظور",
        "nameFr": "Ennadhour",
        "governorateCode": "16",
        "delegationCode": "1655",
        "expectedOriginalTags": {
          "admin_level": "6",
          "boundary": "administrative",
          "name": "الناظور",
          "name:ar": "الناظور",
          "name:fr": "Ennadhour",
          "ref:tn:codegeo": "165551"
        },
        "currentAliases": [
          "Ennadhour",
          "Nadour"
        ],
        "acceptedNamePlan": {
          "nameAr": "الناظور",
          "nameFr": "Ennadhour",
          "preserveCurrentAliases": [
            "Ennadhour",
            "Nadour"
          ],
          "addAliases": []
        },
        "sourcePdfURL": "https://www.isie.tn/wp-content/uploads/2023/CartesCirconscriptionsElectoralesLocales2023/%D8%B2%D8%BA%D9%88%D8%A7%D9%86/%D8%A7%D9%84%D9%86%D8%A7%D8%B8%D9%88%D8%B1/%D8%A7%D9%84%D9%86%D8%A7%D8%B8%D9%88%D8%B1%20-%20%28%D8%A7%D9%84%D9%86%D8%A7%D8%B8%D9%88%D8%B1%29.pdf",
        "sourcePdfSha256": "9d24ad1218e2a1069eab768a8f819bb2aef8fdf7836c2246cf02e986ba0c7bb4",
        "sourceDrawingIndices": [
          408
        ],
        "sourceVectorLayer": "circonscription_isie2023",
        "sourceCrsEpsg": 32632,
        "sourceGeometrySha256": "c7d8a3be6669875388199903e9db2228731580bfb926f818bed1ac186223fb9b",
        "sourceControlPointMaxResidualMeters": 0.13104515116671883,
        "sourceExtraction": {
          "file": "C:\\Users\\barou\\Documents\\Codex\\2026-09-06\\the-android-app-app-currently-allows\\outputs\\zeramdine-nadhour-interface-geopdf-source-data.json",
          "sha256": "3ef88da8a10fc823ef16ba8c732a120afe31362701ee22398f8365724860baec"
        },
        "rawNativePath": {
          "file": "C:\\Users\\barou\\Documents\\Codex\\2026-09-06\\the-android-app-app-currently-allows\\work\\zeramdine-nadhour-interface-source-review\\nadhour-raw-native-path.json",
          "sha256": "9762cd65f59cb9c8c49b4ed3214e92254fc7c07ef9c82484012e2f75d87b5e88"
        },
        "administrativeScope": {
          "conclusion": "whole_imada",
          "officialIdentity": {
            "governorateCode": "16",
            "governorateFr": "Zaghouan",
            "governorateAr": "زغوان",
            "delegationCode": "1655",
            "delegationFr": "En-nadhour",
            "delegationAr": "الناظور",
            "sectorCode": "165551",
            "sectorFr": "En nadhour",
            "sectorAr": "الناظور",
            "sourceRows": {
              "Population_Secteur_Age_Sexe_Dynamique.xlsx": 16082,
              "Nombre_de_Logements_par_Secteurs.xlsx": 685,
              "Nombre_de_menages_par_Secteurs.xlsx": 684
            }
          },
          "pdfPage": 45,
          "jortPage": 5142,
          "decree": {
            "file": "C:\\Users\\barou\\Documents\\Codex\\2026-09-06\\the-android-app-app-currently-allows\\work\\electoral-circle-semantics\\decree2023-590.pdf",
            "sha256": "bfb3fe752b9900eaf873198b009968243f1b0bd2c119836cfd4fbbfc07e1e10f"
          },
          "render": {
            "file": "C:\\Users\\barou\\Documents\\Codex\\2026-09-06\\the-android-app-app-currently-allows\\work\\zeramdine-nadhour-interface-source-review\\decree-45.png",
            "sha256": "d7b85750693b8c85f6637977e0667b9575275e201d953c5cfe0d5930522ac181"
          },
          "personallyViewed": true,
          "circleLabel": "الناظور - (الناظور)",
          "oneCircleAndOneSeatForOneImada": true
        },
        "geometryPolicy": "Exact whole native array; no clipping, snap, repair, buffer or invented connecting border.",
        "officialRegistryNameAr": "الناظور",
        "officialRegistryNameFr": "En nadhour",
        "id": "osm:relation:7119798",
        "sourceId": "isie-local-sectors-2023-nadhour",
        "parentAr": "معتمدية الناظور",
        "parentFr": "Délégation Ennadhour"
      },
      "geometry": {
        "type": "Polygon",
        "coordinates": [
          [
            [
              10.05919480681969,
              36.144207468416624
            ],
            [
              10.059265005754217,
              36.14409042184191
            ],
            [
              10.059409323491476,
              36.14414736278821
            ],
            [
              10.059478740337028,
              36.14397210922956
            ],
            [
              10.059477170827154,
              36.14385569555501
            ],
            [
              10.059833651872786,
              36.14367791428629
            ],
            [
              10.060047384472254,
              36.14355960068375
            ],
            [
              10.060403080418379,
              36.14332360596681
            ],
            [
              10.06068779275972,
              36.14314645081588
            ],
            [
              10.060972503813439,
              36.14296929500416
            ],
            [
              10.06125878261585,
              36.14290855218661
            ],
            [
              10.061545064003118,
              36.142847808664506
            ],
            [
              10.062119982384884,
              36.14290094000849
            ],
            [
              10.062479603737943,
              36.14295597321936
            ],
            [
              10.062982756461992,
              36.14300973520016
            ],
            [
              10.063414148900218,
              36.14306413040873
            ],
            [
              10.063844747853139,
              36.14306031734379
            ],
            [
              10.06420358278743,
              36.143057138584886
            ],
            [
              10.064419669059928,
              36.143113437592525
            ],
            [
              10.064849482484743,
              36.1430514141372
            ],
            [
              10.065064783357462,
              36.14304950520508
            ],
            [
              10.065281662247054,
              36.14316400935684
            ],
            [
              10.065568730442727,
              36.14316146298533
            ],
            [
              10.066359747430912,
              36.143270870344494
            ],
            [
              10.066646809830171,
              36.14326832143653
            ],
            [
              10.066862111169703,
              36.14326640926359
            ],
            [
              10.06714838918862,
              36.14320565239905
            ],
            [
              10.067362109206172,
              36.14308732593629
            ],
            [
              10.06750485241125,
              36.14302784365192
            ],
            [
              10.067720943852878,
              36.143084136637064
            ],
            [
              10.06793624461379,
              36.143082222541594
            ],
            [
              10.068221729884907,
              36.14296325645164
            ],
            [
              10.068580563866032,
              36.14296006458635
            ],
            [
              10.068940981229035,
              36.143073284979785
            ],
            [
              10.069157859555064,
              36.14318778206888
            ],
            [
              10.06944730370889,
              36.14335984143556
            ],
            [
              10.06959163025126,
              36.14341677492197
            ],
            [
              10.069807724161924,
              36.14347306409459
            ],
            [
              10.069953635996624,
              36.14364640055431
            ],
            [
              10.070098755948033,
              36.14376153511691
            ],
            [
              10.070243083617374,
              36.143818462860445
            ],
            [
              10.070746249373437,
              36.14387219200273
            ],
            [
              10.0711050871983,
              36.1438689925046
            ],
            [
              10.07139373844728,
              36.14398284540888
            ],
            [
              10.071680809054092,
              36.14398028433765
            ],
            [
              10.07197026158615,
              36.14415234237506
            ],
            [
              10.071900875610925,
              36.14432760267885
            ],
            [
              10.071830695438798,
              36.144444656345044
            ],
            [
              10.071620953528265,
              36.14485402364826
            ],
            [
              10.071551560107364,
              36.14502928380718
            ],
            [
              10.071481378812434,
              36.145146337274426
            ],
            [
              10.071624128557978,
              36.145086850034836
            ],
            [
              10.071911991055629,
              36.145142494988114
            ],
            [
              10.072056322535282,
              36.14519942046846
            ],
            [
              10.072343397512567,
              36.14519685773488
            ],
            [
              10.072560292637379,
              36.14531134838524
            ],
            [
              10.072848162581051,
              36.145366986072915
            ],
            [
              10.073279570831131,
              36.14542134541309
            ],
            [
              10.073423108671141,
              36.14542006265949
            ],
            [
              10.074214947672463,
              36.145587629054276
            ],
            [
              10.07478989606198,
              36.14564069409966
            ],
            [
              10.075437410941285,
              36.14575132521171
            ],
            [
              10.075869619770453,
              36.14586388166083
            ],
            [
              10.076156696809981,
              36.1458613097462
            ],
            [
              10.076443767727833,
              36.14585873719814
            ],
            [
              10.076805006771167,
              36.14603013994179
            ],
            [
              10.077165449480498,
              36.14614333508522
            ],
            [
              10.07738155598235,
              36.14619961034613
            ],
            [
              10.077598460994356,
              36.14631409168081
            ],
            [
              10.077742798576018,
              36.14637101018989
            ],
            [
              10.078102445544618,
              36.14642599599649
            ],
            [
              10.078462092988522,
              36.14648098071383
            ],
            [
              10.078749165946677,
              36.1464784026018
            ],
            [
              10.079182182607097,
              36.146649153371264
            ],
            [
              10.080047421427743,
              36.14693244368636
            ],
            [
              10.080478842580018,
              36.146986776844265
            ],
            [
              10.080767524355021,
              36.147100601681295
            ],
            [
              10.081200542572757,
              36.1472713450564
            ],
            [
              10.08170453800962,
              36.14738323400187
            ],
            [
              10.08199242159149,
              36.1474388593151
            ],
            [
              10.082136764225915,
              36.14749576749436
            ],
            [
              10.082281908841969,
              36.14761088679597
            ],
            [
              10.082348869010445,
              36.1472610018105
            ],
            [
              10.082630336925991,
              36.14685097465584
            ],
            [
              10.083970675859634,
              36.1451506905867
            ],
            [
              10.084393254507468,
              36.14456474480243
            ],
            [
              10.084820647767593,
              36.14432803075213
            ],
            [
              10.103312205975913,
              36.147535952156005
            ],
            [
              10.10756426078252,
              36.14365473389811
            ],
            [
              10.107634386632421,
              36.14353766020253
            ],
            [
              10.107633566314394,
              36.143479454290066
            ],
            [
              10.107702045170045,
              36.1432459737185
            ],
            [
              10.107914061386603,
              36.143011159167976
            ],
            [
              10.108621868023615,
              36.1423060706341
            ],
            [
              10.109399783428275,
              36.14148389843058
            ],
            [
              10.111098262894751,
              36.139780010757555
            ],
            [
              10.112300935110456,
              36.13854639994381
            ],
            [
              10.112725737946466,
              36.138134970484884
            ],
            [
              10.113010304831587,
              36.13795769319375
            ],
            [
              10.11329405225694,
              36.13772221426406
            ],
            [
              10.113648734067318,
              36.137427858518485
            ],
            [
              10.114074348743298,
              36.13707463027956
            ],
            [
              10.120128730767073,
              36.13888114249284
            ],
            [
              10.125253906847805,
              36.13592256517962
            ],
            [
              10.125540109595164,
              36.13586166989696
            ],
            [
              10.126834273257373,
              36.136024174792595
            ],
            [
              10.12963704487654,
              36.13628891220948
            ],
            [
              10.130715107587145,
              36.136395194036766
            ],
            [
              10.13351874225063,
              36.13671804559918
            ],
            [
              10.135243492039475,
              36.13687639451006
            ],
            [
              10.139484887343881,
              36.13736014655611
            ],
            [
              10.141640221222529,
              36.137514311871385
            ],
            [
              10.1427174679408,
              36.13756227975565
            ],
            [
              10.145953444454888,
              36.13799715122943
            ],
            [
              10.148541907123091,
              36.138321702925204
            ],
            [
              10.150554611122717,
              36.13853528956967
            ],
            [
              10.15105608420344,
              36.13847227073645
            ],
            [
              10.153128593642283,
              36.13787025530997
            ],
            [
              10.15355830011973,
              36.13780791514087
            ],
            [
              10.15492601564889,
              36.13808583546917
            ],
            [
              10.156797776587842,
              36.138475312135526
            ],
            [
              10.158021980449503,
              36.13875457922636
            ],
            [
              10.159965532345739,
              36.13914330879923
            ],
            [
              10.160901864364984,
              36.13936711339612
            ],
            [
              10.163422108983323,
              36.13992485449727
            ],
            [
              10.163925302667305,
              36.13997819143542
            ],
            [
              10.16435673519428,
              36.14003222208898
            ],
            [
              10.165142663888977,
              36.139791746314785
            ],
            [
              10.165856826357524,
              36.13955196219429
            ],
            [
              10.166214769389807,
              36.139490273329606
            ],
            [
              10.166429189477105,
              36.139429977596926
            ],
            [
              10.166786267577914,
              36.139310082282606
            ],
            [
              10.169999908373606,
              36.138230982380776
            ],
            [
              10.170644881550785,
              36.138166483399786
            ],
            [
              10.171292455100037,
              36.13827659498343
            ],
            [
              10.17201352588487,
              36.13850241198209
            ],
            [
              10.172658487156738,
              36.13843790226616
            ],
            [
              10.174090212021621,
              36.13819105983734
            ],
            [
              10.17401758297674,
              36.13813355682174
            ],
            [
              10.17379535140846,
              36.13767002437247
            ],
            [
              10.173577466695209,
              36.13749751459626
            ],
            [
              10.172853796075959,
              36.13709709293995
            ],
            [
              10.171914869341315,
              36.136698772639456
            ],
            [
              10.170833290051862,
              36.13636004402654
            ],
            [
              10.170111375991898,
              36.13607601470021
            ],
            [
              10.16902635093618,
              36.1355044504813
            ],
            [
              10.16794134153645,
              36.13493288102158
            ],
            [
              10.167148569998032,
              36.13470773586368
            ],
            [
              10.166931571712562,
              36.134593418290855
            ],
            [
              10.16649757701153,
              36.13436478192444
            ],
            [
              10.166281443946884,
              36.13430866794646
            ],
            [
              10.164984651818672,
              36.13397197575713
            ],
            [
              10.163618698545513,
              36.133810579224956
            ],
            [
              10.162397995583873,
              36.13376418769383
            ],
            [
              10.161604378673482,
              36.13348080048682
            ],
            [
              10.161317355106991,
              36.13348357639966
            ],
            [
              10.161029472126728,
              36.133428151626006
            ],
            [
              10.160668974471443,
              36.13331520980204
            ],
            [
              10.160595500468668,
              36.1331994933951
            ],
            [
              10.16037937453049,
              36.133143368618576
            ],
            [
              10.16001802038075,
              36.132972219833796
            ],
            [
              10.159153522457997,
              36.13274771409766
            ],
            [
              10.158147233683936,
              36.132640996061916
            ],
            [
              10.157643245482191,
              36.132529428725434
            ],
            [
              10.157642388566027,
              36.13247122371387
            ],
            [
              10.157569776635784,
              36.132413710352836
            ],
            [
              10.156629255758508,
              36.13189885258575
            ],
            [
              10.15626877110007,
              36.131785897244846
            ],
            [
              10.155405151453447,
              36.13161956903411
            ],
            [
              10.155045524776726,
              36.13156481995592
            ],
            [
              10.152526456696874,
              36.13106510098978
            ],
            [
              10.150220113474457,
              36.130388651578535
            ],
            [
              10.149787891171488,
              36.13027636357947
            ],
            [
              10.14935396861836,
              36.13004766358601
            ],
            [
              10.149136157794661,
              36.12987511270141
            ],
            [
              10.148626235752618,
              36.12935607037933
            ],
            [
              10.14847933062838,
              36.12912462181229
            ],
            [
              10.148405878394964,
              36.12900889745206
            ],
            [
              10.148037782985723,
              36.12837206951887
            ],
            [
              10.147600478592919,
              36.12791054672069
            ],
            [
              10.147380129918066,
              36.12756337166914
            ],
            [
              10.147307529926167,
              36.12750585182217
            ],
            [
              10.146866839460191,
              36.126811500047374
            ],
            [
              10.146649043023158,
              36.126638939354514
            ],
            [
              10.146068257256093,
              36.126178780395975
            ],
            [
              10.145630128812593,
              36.125659039554996
            ],
            [
              10.14548408729317,
              36.12548579221883
            ],
            [
              10.14519285369232,
              36.125197502300864
            ],
            [
              10.144682988263547,
              36.12467844177683
            ],
            [
              10.144244877497128,
              36.124158700358976
            ],
            [
              10.143879366342743,
              36.123696474372444
            ],
            [
              10.143292696250942,
              36.12282885836279
            ],
            [
              10.143217565744024,
              36.1225967196537
            ],
            [
              10.141648448412386,
              36.123251992086715
            ],
            [
              10.141148752149878,
              36.12343138095128
            ],
            [
              10.140574774024055,
              36.1234368327515
            ],
            [
              10.139999952135463,
              36.12338407634151
            ],
            [
              10.139063866132862,
              36.123160103241915
            ],
            [
              10.138560794107319,
              36.123106659453285
            ],
            [
              10.138059407038785,
              36.12316962454492
            ],
            [
              10.138055196228366,
              36.122878597025185
            ],
            [
              10.137682162480246,
              36.121892506432836
            ],
            [
              10.137820590499743,
              36.12154191424214
            ],
            [
              10.138032458965782,
              36.12130705309988
            ],
            [
              10.138099163712276,
              36.12095714008823
            ],
            [
              10.138166685815674,
              36.12066543771899
            ],
            [
              10.138089900506463,
              36.120316884230924
            ],
            [
              10.137868773450444,
              36.119911484578736
            ],
            [
              10.13772107609862,
              36.11962181603158
            ],
            [
              10.137644281727532,
              36.11927326225991
            ],
            [
              10.137711816343018,
              36.11898155501355
            ],
            [
              10.137709291005772,
              36.11880693836
            ],
            [
              10.13749153682366,
              36.11863436496459
            ],
            [
              10.13727378352298,
              36.11846178621782
            ],
            [
              10.13698260604997,
              36.11817347499951
            ],
            [
              10.136979241190629,
              36.117940652703105
            ],
            [
              10.136614642778932,
              36.117536608378714
            ],
            [
              10.136326834019563,
              36.1174811177864
            ],
            [
              10.135315726665466,
              36.117024974865124
            ],
            [
              10.1341577920743,
              36.116337350432765
            ],
            [
              10.13306910315973,
              36.115474420673266
            ],
            [
              10.13184115796665,
              36.11490386578179
            ],
            [
              10.131116229482435,
              36.11438677145466
            ],
            [
              10.130898501803268,
              36.114214180539136
            ],
            [
              10.130464721860257,
              36.11398540894679
            ],
            [
              10.13017191369848,
              36.11358066871635
            ],
            [
              10.129880780232604,
              36.11329233921838
            ],
            [
              10.129300190554966,
              36.11283209443949
            ],
            [
              10.1277803580128,
              36.111914953806306
            ],
            [
              10.126411519889048,
              36.11152030076913
            ],
            [
              10.126122906720006,
              36.11140657922991
            ],
            [
              10.126469924762066,
              36.110588339389764
            ],
            [
              10.126757701937711,
              36.110643854300434
            ],
            [
              10.127109712223836,
              36.11017484287061
            ],
            [
              10.127177279087547,
              36.10988314057436
            ],
            [
              10.127172276819474,
              36.10953391039011
            ],
            [
              10.126878668994772,
              36.1090709553572
            ],
            [
              10.126147996471575,
              36.10814639269819
            ],
            [
              10.125927798771622,
              36.107799174389264
            ],
            [
              10.125779336144356,
              36.10745128345702
            ],
            [
              10.125769344817815,
              36.106752812580034
            ],
            [
              10.125763516702625,
              36.10634537119633
            ],
            [
              10.126048779495994,
              36.10622627040047
            ],
            [
              10.126334874408833,
              36.10616537484282
            ],
            [
              10.126689367707378,
              36.105870982323914
            ],
            [
              10.12675609965709,
              36.10552107912839
            ],
            [
              10.126607637962744,
              36.10517318908147
            ],
            [
              10.126530075213312,
              36.1047664203215
            ],
            [
              10.126669370581443,
              36.104474050421615
            ],
            [
              10.12665520668241,
              36.103484549798324
            ],
            [
              10.127148977861758,
              36.10289778105136
            ],
            [
              10.12727826489069,
              36.1019069393615
            ],
            [
              10.127769520095597,
              36.10114555038173
            ],
            [
              10.12798053178022,
              36.10085250075227
            ],
            [
              10.128048910353076,
              36.100619008689804
            ],
            [
              10.128112308031934,
              36.10003627586528
            ],
            [
              10.128182353831148,
              36.09991919063954
            ],
            [
              10.128253245806523,
              36.09986031118756
            ],
            [
              10.12853931592268,
              36.09979941074197
            ],
            [
              10.128750321246155,
              36.09950635980673
            ],
            [
              10.128888764817912,
              36.099155776529756
            ],
            [
              10.128960490301717,
              36.09915510259409
            ],
            [
              10.129103106438976,
              36.099095548676694
            ],
            [
              10.129102271618173,
              36.099037342758855
            ],
            [
              10.129173162117775,
              36.09897846278029
            ],
            [
              10.12910060198374,
              36.09892093092141
            ],
            [
              10.12909809755003,
              36.09874631316085
            ],
            [
              10.12916731808571,
              36.09857102134495
            ],
            [
              10.129309098060856,
              36.098453261277825
            ],
            [
              10.129523437446801,
              36.098393032705445
            ],
            [
              10.129739447034785,
              36.09844921557808
            ],
            [
              10.130098906651256,
              36.09850404888488
            ],
            [
              10.13038580608323,
              36.098501350029125
            ],
            [
              10.130528419930457,
              36.09844179444874
            ],
            [
              10.130598472917391,
              36.09832470775428
            ],
            [
              10.130811138799825,
              36.098148065113755
            ],
            [
              10.131097200675017,
              36.098087163622196
            ],
            [
              10.13116976137808,
              36.0981446893338
            ],
            [
              10.131313210392653,
              36.09814333872137
            ],
            [
              10.131384098492678,
              36.09808446240309
            ],
            [
              10.131454986416056,
              36.09802558111064
            ],
            [
              10.131741883974403,
              36.09802287903887
            ],
            [
              10.131884495899314,
              36.09796332187314
            ],
            [
              10.132240606206654,
              36.09778532529682
            ],
            [
              10.132455778665573,
              36.09778329740826
            ],
            [
              10.132815224668873,
              36.0978381177721
            ],
            [
              10.133102133573711,
              36.09783541234097
            ],
            [
              10.133460742284539,
              36.09783202984445
            ],
            [
              10.133745962598859,
              36.09771291624256
            ],
            [
              10.134317239079746,
              36.09753288300175
            ],
            [
              10.134956041175977,
              36.09706114049026
            ],
            [
              10.135026086423423,
              36.09694405625306
            ],
            [
              10.135094453055425,
              36.09671055540391
            ],
            [
              10.135088578940966,
              36.09630311464926
            ],
            [
              10.13508354407948,
              36.09595387969394
            ],
            [
              10.13508102668119,
              36.09577926220839
            ],
            [
              10.135078509304536,
              36.09560464471761
            ],
            [
              10.135005109065506,
              36.09548891059172
            ],
            [
              10.13493170904517,
              36.09537317641482
            ],
            [
              10.134785748553012,
              36.095199913749234
            ],
            [
              10.134710671463942,
              36.09496776773351
            ],
            [
              10.134707316158519,
              36.094734944349774
            ],
            [
              10.134705638520225,
              36.0946185326544
            ],
            [
              10.134703960891546,
              36.0945021209567
            ],
            [
              10.134630562265027,
              36.09438638655223
            ],
            [
              10.134485442950677,
              36.09427132930363
            ],
            [
              10.134411206351077,
              36.094097393825884
            ],
            [
              10.13469054027925,
              36.093570832224586
            ],
            [
              10.13504578551912,
              36.09333462672655
            ],
            [
              10.13525842808692,
              36.09315797646517
            ],
            [
              10.135541950030577,
              36.09292244221478
            ],
            [
              10.135755429912251,
              36.09280399694558
            ],
            [
              10.136181547895125,
              36.09250889945484
            ],
            [
              10.136394185691199,
              36.09233224723905
            ],
            [
              10.136535103601945,
              36.09215627305718
            ],
            [
              10.136672660154936,
              36.09174747537461
            ],
            [
              10.136740177584505,
              36.091455767717164
            ],
            [
              10.13680937506949,
              36.0912804716943
            ],
            [
              10.136806854283769,
              36.09110585417698
            ],
            [
              10.136873530504227,
              36.09075594552374
            ],
            [
              10.136869329050771,
              36.090464916306246
            ],
            [
              10.136649136156056,
              36.0901177166587
            ],
            [
              10.136208756341212,
              36.08942332091968
            ],
            [
              10.136202038292895,
              36.088957673953345
            ],
            [
              10.136196160126925,
              36.08855023282719
            ],
            [
              10.136402908358097,
              36.08796613952579
            ],
            [
              10.136824797415299,
              36.087380010637496
            ],
            [
              10.137036579928386,
              36.08714515153143
            ],
            [
              10.137105773231925,
              36.08696985529306
            ],
            [
              10.137103252259092,
              36.086795242601404
            ],
            [
              10.137029857628594,
              36.08667950945523
            ],
            [
              10.136953942540277,
              36.086389158611915
            ],
            [
              10.136806314612944,
              36.08609948616038
            ],
            [
              10.136800434014129,
              36.08569204985859
            ],
            [
              10.136793713392796,
              36.08522640269747
            ],
            [
              10.13686038534343,
              36.08487648886875
            ],
            [
              10.1369996089368,
              36.08458410238279
            ],
            [
              10.137067959988489,
              36.0843506002308
            ],
            [
              10.136918655416155,
              36.083944515948424
            ],
            [
              10.136988686539055,
              36.08382742563923
            ],
            [
              10.13698532588313,
              36.08359460200598
            ],
            [
              10.137055356681023,
              36.083477516592
            ],
            [
              10.137052835999064,
              36.083302893928234
            ],
            [
              10.137194577219987,
              36.083185129869634
            ],
            [
              10.137262074090055,
              36.08289342178964
            ],
            [
              10.13733127558023,
              36.08271812525961
            ],
            [
              10.13754136336584,
              36.08236685351106
            ],
            [
              10.13746711976137,
              36.082192914688925
            ],
            [
              10.137465438894955,
              36.08207650779456
            ],
            [
              10.13746123659296,
              36.0817854782146
            ],
            [
              10.137454513034976,
              36.08131983085633
            ],
            [
              10.137522872331182,
              36.08108632827964
            ],
            [
              10.137304384492353,
              36.08085554074225
            ],
            [
              10.135935205299281,
              36.08040277977751
            ],
            [
              10.135647533106159,
              36.08034728478214
            ],
            [
              10.13507051259273,
              36.08011988073334
            ],
            [
              10.134998804552088,
              36.080120558018876
            ],
            [
              10.13456687971992,
              36.080008208845975
            ],
            [
              10.133703871253648,
              36.079841711769646
            ],
            [
              10.133487910314692,
              36.07978553501418
            ],
            [
              10.132695777128555,
              36.07956014818413
            ],
            [
              10.132412293418202,
              36.079795675509445
            ],
            [
              10.132127983708296,
              36.07997299602811
            ],
            [
              10.132059621407999,
              36.08020649572307
            ],
            [
              10.13156351644346,
              36.080618665570356
            ],
            [
              10.131068242021714,
              36.08108903948176
            ],
            [
              10.131069077743998,
              36.08114724553475
            ],
            [
              10.128796071824198,
              36.08268217474897
            ],
            [
              10.128724361301444,
              36.082682848321625
            ],
            [
              10.128298266770376,
              36.08297791931707
            ],
            [
              10.12815651242833,
              36.08309567801903
            ],
            [
              10.127518624748532,
              36.08362558511984
            ],
            [
              10.127517791638219,
              36.08356738395315
            ],
            [
              10.127373535775977,
              36.08351051851704
            ],
            [
              10.127019976089482,
              36.08386311841833
            ],
            [
              10.126738125224618,
              36.08421504494619
            ],
            [
              10.126305356482925,
              36.084044460139985
            ],
            [
              10.12543899286279,
              36.08364507958303
            ],
            [
              10.125076278611214,
              36.08335741123426
            ],
            [
              10.123631259686997,
              36.082614149848276
            ],
            [
              10.123199336188435,
              36.082501759698594
            ],
            [
              10.122769073171753,
              36.082505780381155
            ],
            [
              10.122199547329647,
              36.08280216985502
            ],
            [
              10.121916020257814,
              36.08303767298394
            ],
            [
              10.121702544962424,
              36.083156093683385
            ],
            [
              10.12170420272878,
              36.08327250612408
            ],
            [
              10.121634977933855,
              36.08344778919019
            ],
            [
              10.121421501110987,
              36.08356620940801
            ],
            [
              10.121137140502936,
              36.0837435045297
            ],
            [
              10.120781894993021,
              36.08397967406512
            ],
            [
              10.120642611830851,
              36.08427204278188
            ],
            [
              10.120503327661712,
              36.08456441134094
            ],
            [
              10.120431615225488,
              36.08456507998171
            ],
            [
              10.120432443213321,
              36.08462328621399
            ],
            [
              10.120433271203527,
              36.084681492445704
            ],
            [
              10.120364870432432,
              36.084914985973114
            ],
            [
              10.120153871128503,
              36.0852080227015
            ],
            [
              10.115893948108207,
              36.083210170785314
            ],
            [
              10.113951162425385,
              36.08276248290879
            ],
            [
              10.113732737569476,
              36.08253165131717
            ],
            [
              10.113083228152915,
              36.08224659878891
            ],
            [
              10.112437833453866,
              36.082252574721124
            ],
            [
              10.112148525944715,
              36.08208061524788
            ],
            [
              10.112003461776466,
              36.08196552955982
            ],
            [
              10.111349863132544,
              36.08138943517165
            ],
            [
              10.111277332213197,
              36.081331891839426
            ],
            [
              10.11077208101317,
              36.08110370659433
            ],
            [
              10.11027913870598,
              36.08174861614766
            ],
            [
              10.109917307440766,
              36.08151910223159
            ],
            [
              10.109630467710222,
              36.08152175100727
            ],
            [
              10.109272743745022,
              36.081583267438916
            ],
            [
              10.108705617722093,
              36.08205421316249
            ],
            [
              10.1084921246049,
              36.08217261064552
            ],
            [
              10.10603026920684,
              36.08050708474264
            ],
            [
              10.104257945926467,
              36.08197873436454
            ],
            [
              10.101343863594536,
              36.083868315353044
            ],
            [
              10.09650025429798,
              36.0811183375675
            ],
            [
              10.096490531539743,
              36.08041985666625
            ],
            [
              10.096625846943295,
              36.079836480668796
            ],
            [
              10.092222569727321,
              36.077780876597025
            ],
            [
              10.091727880647095,
              36.078309298736585
            ],
            [
              10.090860137067745,
              36.07779324990621
            ],
            [
              10.090787624127854,
              36.07773569382199
            ],
            [
              10.090425866672364,
              36.07750611959919
            ],
            [
              10.089992404754259,
              36.07727719455303
            ],
            [
              10.088978863854095,
              36.076587811283275
            ],
            [
              10.087822727625253,
              36.07595793396884
            ],
            [
              10.087027549204947,
              36.075499414232056
            ],
            [
              10.085822201233336,
              36.07649994143691
            ],
            [
              10.083765955248793,
              36.078206712761244
            ],
            [
              10.078134535164915,
              36.0754630829207
            ],
            [
              10.077705100207151,
              36.07552514832581
            ],
            [
              10.077208740360067,
              36.07593708789958
            ],
            [
              10.076854190196693,
              36.076231336317285
            ],
            [
              10.07600087399479,
              36.07676290683641
            ],
            [
              10.07443048297093,
              36.07730088333991
            ],
            [
              10.073433723734546,
              36.077833717852485
            ],
            [
              10.07293335706445,
              36.07795461400911
            ],
            [
              10.072431410064267,
              36.07795909357956
            ],
            [
              10.072217871793706,
              36.078077427249575
            ],
            [
              10.072076040692485,
              36.07819512098178
            ],
            [
              10.07193658534705,
              36.07848743626736
            ],
            [
              10.071651336708141,
              36.078606408442894
            ],
            [
              10.071586754831369,
              36.07913091292937
            ],
            [
              10.071448087692405,
              36.079481425029684
            ],
            [
              10.07130704471803,
              36.07965733499177
            ],
            [
              10.07095482978148,
              36.08012617827974
            ],
            [
              10.069746048995905,
              36.08089372848757
            ],
            [
              10.069321318507747,
              36.08130500795796
            ],
            [
              10.069255139008355,
              36.08171309674054
            ],
            [
              10.069330801272777,
              36.08200349504006
            ],
            [
              10.069695682061445,
              36.08246596244387
            ],
            [
              10.070062148720542,
              36.083044838155345
            ],
            [
              10.070285986328955,
              36.0836832020358
            ],
            [
              10.070293105323223,
              36.08420706204793
            ],
            [
              10.07029547838445,
              36.084381683686054
            ],
            [
              10.070155209044195,
              36.084615789740376
            ],
            [
              10.069873104686987,
              36.08496758678191
            ],
            [
              10.069374267983193,
              36.08520488322757
            ],
            [
              10.068876218254328,
              36.08550038486602
            ],
            [
              10.06823236653661,
              36.085622537663276
            ],
            [
              10.067659444476915,
              36.08568584269024
            ],
            [
              10.067157441388341,
              36.08569030104976
            ],
            [
              10.066512796957486,
              36.085754237407876
            ],
            [
              10.06622672577237,
              36.0858149898344
            ],
            [
              10.066084871953038,
              36.08593267670993
            ],
            [
              10.065800381365559,
              36.08610984263756
            ],
            [
              10.065445743039984,
              36.08640405335973
            ],
            [
              10.065162817836246,
              36.08669763243749
            ],
            [
              10.065020960846109,
              36.08681531808968
            ],
            [
              10.064880677646793,
              36.08704941815742
            ],
            [
              10.06467103827819,
              36.087458775249445
            ],
            [
              10.064604043332405,
              36.087808649321786
            ],
            [
              10.064540195466535,
              36.08839135741347
            ],
            [
              10.064477920503903,
              36.08909047998537
            ],
            [
              10.064341565705188,
              36.089615615801996
            ],
            [
              10.064136636936242,
              36.09037421557291
            ],
            [
              10.06399870769374,
              36.09078293146797
            ],
            [
              10.063931704338115,
              36.09113281003116
            ],
            [
              10.063935637000476,
              36.0914238463589
            ],
            [
              10.064086943516731,
              36.09200464408979
            ],
            [
              10.064237465637117,
              36.09252723922309
            ],
            [
              10.06438641600197,
              36.092933419608386
            ],
            [
              10.064389563675594,
              36.09316624856718
            ],
            [
              10.064321776462183,
              36.093457919953174
            ],
            [
              10.06418226664919,
              36.09375022641675
            ],
            [
              10.063971820070705,
              36.09410137495835
            ],
            [
              10.063619501857533,
              36.094570202292644
            ],
            [
              10.06355171071309,
              36.09486187324359
            ],
            [
              10.063554069718053,
              36.09503649002102
            ],
            [
              10.063632870838799,
              36.095559720345676
            ],
            [
              10.063569797380294,
              36.09620063462778
            ],
            [
              10.063505936652453,
              36.09678334160657
            ],
            [
              10.063581593718355,
              36.09707374293023
            ],
            [
              10.06379912595231,
              36.097246460024074
            ],
            [
              10.064088390682466,
              36.09741854157024
            ],
            [
              10.06423498629409,
              36.09765010010842
            ],
            [
              10.064309859876055,
              36.09788228874384
            ],
            [
              10.064026890315581,
              36.09817586534695
            ],
            [
              10.063743921634378,
              36.09846943634224
            ],
            [
              10.063460161552952,
              36.09870480938259
            ],
            [
              10.063319853373198,
              36.09893890266383
            ],
            [
              10.063183475485395,
              36.09946403672694
            ],
            [
              10.062835059330697,
              36.10022390274661
            ],
            [
              10.062693960876075,
              36.10039979304731
            ],
            [
              10.06240861634468,
              36.100518744380224
            ],
            [
              10.06190573579974,
              36.10046497507321
            ],
            [
              10.061473014172439,
              36.1002941556372
            ],
            [
              10.060822753893124,
              36.099950612665715
            ],
            [
              10.060320662006847,
              36.09995504386774
            ],
            [
              10.060036102297385,
              36.100132196815856
            ],
            [
              10.059825620782917,
              36.10048333829904
            ],
            [
              10.05968686609434,
              36.10083384692858
            ],
            [
              10.05947873181624,
              36.10135960957231
            ],
            [
              10.059487350785297,
              36.10199988437111
            ],
            [
              10.059437560092862,
              36.103630314506034
            ],
            [
              10.059587292006036,
              36.10409470740377
            ],
            [
              10.059956141810165,
              36.104848238099166
            ],
            [
              10.05981816435067,
              36.105256949020806
            ],
            [
              10.059535152051568,
              36.10555051537972
            ],
            [
              10.058250223435989,
              36.10602754625556
            ],
            [
              10.058179272790445,
              36.106086390132624
            ],
            [
              10.057466634019656,
              36.10644194340529
            ],
            [
              10.05739881095175,
              36.10673361085507
            ],
            [
              10.057051872163902,
              36.10760987508108
            ],
            [
              10.056629275934013,
              36.10819573299638
            ],
            [
              10.055568083475725,
              36.109311122968464
            ],
            [
              10.055288166711845,
              36.10983750856545
            ],
            [
              10.055221113601114,
              36.110187382047556
            ],
            [
              10.055154059867544,
              36.11053725054824
            ],
            [
              10.054946651679176,
              36.11112121264832
            ],
            [
              10.054667501851752,
              36.11170580408049
            ],
            [
              10.053041669997365,
              36.113524695413616
            ],
            [
              10.052902084443565,
              36.11381698906186
            ],
            [
              10.052835796710445,
              36.11422506352893
            ],
            [
              10.052551947865163,
              36.114460406669984
            ],
            [
              10.052122282012903,
              36.114522383828
            ],
            [
              10.05118886727115,
              36.11447233942748
            ],
            [
              10.050543198836795,
              36.114477986360605
            ],
            [
              10.0484681342141,
              36.114903609726085
            ],
            [
              10.04746530307978,
              36.11502878432574
            ],
            [
              10.045675630774909,
              36.11533544302417
            ],
            [
              10.04467201613617,
              36.11540238700664
            ],
            [
              10.044532393124305,
              36.11569467140341
            ],
            [
              10.04439586642271,
              36.11621978021588
            ],
            [
              10.044257016786036,
              36.11657027165445
            ],
            [
              10.043972361027807,
              36.116747387543825
            ],
            [
              10.043544219685703,
              36.11692574901596
            ],
            [
              10.042756582443808,
              36.11704901525339
            ],
            [
              10.042184177443444,
              36.11717040967288
            ],
            [
              10.040750071699016,
              36.11724105412555
            ],
            [
              10.039888373736687,
              36.117190300649916
            ],
            [
              10.038809143178659,
              36.11696677943881
            ],
            [
              10.038308474644893,
              36.11708753516075
            ],
            [
              10.037952827333417,
              36.11732346441515
            ],
            [
              10.037812411026971,
              36.11755753382603
            ],
            [
              10.037962812839753,
              36.1180801569064
            ],
            [
              10.038183425489876,
              36.11848574980452
            ],
            [
              10.0381185946727,
              36.11901023701791
            ],
            [
              10.037764475815306,
              36.11936258073613
            ],
            [
              10.037552309225193,
              36.11959726948074
            ],
            [
              10.037194345614415,
              36.11965857414907
            ],
            [
              10.037049317996011,
              36.11954339773752
            ],
            [
              10.036760032833167,
              36.11937125184757
            ],
            [
              10.036614239202803,
              36.11919786738153
            ],
            [
              10.036469214799329,
              36.11908269021806
            ],
            [
              10.036108185416396,
              36.11891116156847
            ],
            [
              10.035753289803736,
              36.11920529198098
            ],
            [
              10.0356128667325,
              36.11943935887576
            ],
            [
              10.035548016633319,
              36.11996384492026
            ],
            [
              10.03555184862409,
              36.12025487756268
            ],
            [
              10.03569917502495,
              36.120544678315596
            ],
            [
              10.03606327835346,
              36.12094903803943
            ],
            [
              10.03620907260165,
              36.121122423106215
            ],
            [
              10.036425848216153,
              36.12123698161979
            ],
            [
              10.036642625975889,
              36.12135153971546
            ],
            [
              10.036859402839152,
              36.121466097419464
            ],
            [
              10.03693268725561,
              36.12158189318103
            ],
            [
              10.03693729206856,
              36.12193113308916
            ],
            [
              10.037014413272098,
              36.122337966138204
            ],
            [
              10.037164052111489,
              36.12280238722176
            ],
            [
              10.03732060301536,
              36.123790670164325
            ],
            [
              10.03732597781886,
              36.12419812227704
            ],
            [
              10.037548141149617,
              36.124720130581856
            ],
            [
              10.037552749281769,
              36.125069375172124
            ],
            [
              10.0374879083468,
              36.12559385671235
            ],
            [
              10.037420764343638,
              36.12594372083776
            ],
            [
              10.037567342157715,
              36.12617531130302
            ],
            [
              10.037930710259927,
              36.12652145700955
            ],
            [
              10.038149041889502,
              36.1267524268151
            ],
            [
              10.038226174661842,
              36.12715925858191
            ],
            [
              10.03823386055142,
              36.12774132759099
            ],
            [
              10.038236934994964,
              36.1279741571518
            ],
            [
              10.038385822264171,
              36.12838036861585
            ],
            [
              10.038317913017503,
              36.12867202566431
            ],
            [
              10.038179784229474,
              36.12908071751926
            ],
            [
              10.03811340922103,
              36.12948878427338
            ],
            [
              10.037831768351733,
              36.1298987156762
            ],
            [
              10.037762316184086,
              36.13007395766514
            ],
            [
              10.03776385283609,
              36.130190372418724
            ],
            [
              10.037980657426983,
              36.13030492749004
            ],
            [
              10.038196693988814,
              36.13036127479015
            ],
            [
              10.038340974783628,
              36.13041824189176
            ],
            [
              10.038771509633195,
              36.130414520079604
            ],
            [
              10.039132597921661,
              36.130586039420436
            ],
            [
              10.039205121941466,
              36.1306436211719
            ],
            [
              10.039280725512418,
              36.130934037166
            ],
            [
              10.039215893829738,
              36.131458523947046
            ],
            [
              10.039007547937928,
              36.1319842519301
            ],
            [
              10.038729748640677,
              36.13268521708097
            ],
            [
              10.03859699716255,
              36.13350136054838
            ],
            [
              10.038676447034607,
              36.134082813396084
            ],
            [
              10.038606225758004,
              36.13419984844933
            ],
            [
              10.03839556221755,
              36.13455095335579
            ],
            [
              10.038397100056214,
              36.13466736799876
            ],
            [
              10.038326877796123,
              36.13478439795857
            ],
            [
              10.038475010270744,
              36.13513240132317
            ],
            [
              10.038693367953671,
              36.13536336939336
            ],
            [
              10.03876820690509,
              36.13559557812395
            ],
            [
              10.038556769920396,
              36.13588847599123
            ],
            [
              10.038128511418437,
              36.1360668194559
            ],
            [
              10.037844539236996,
              36.13630212891628
            ],
            [
              10.037418581523813,
              36.136655086912526
            ],
            [
              10.036850631552266,
              36.13712570186481
            ],
            [
              10.036494124762154,
              36.137303420215254
            ],
            [
              10.036139918352603,
              36.137655759528386
            ],
            [
              10.035926931767884,
              36.1378322382349
            ],
            [
              10.035929233335708,
              36.13800686023936
            ],
            [
              10.036002529341076,
              36.1381226560527
            ],
            [
              10.035859773187285,
              36.138182096116616
            ],
            [
              10.035359731116348,
              36.13836104871234
            ],
            [
              10.034427576354206,
              36.13842729792791
            ],
            [
              10.034070290681695,
              36.13854679692811
            ],
            [
              10.03378630042996,
              36.13878209698534
            ],
            [
              10.033431308329435,
              36.13907622115205
            ],
            [
              10.033363372436954,
              36.13936787532591
            ],
            [
              10.033077843830966,
              36.139486759040466
            ],
            [
              10.032650317903755,
              36.13972329070282
            ],
            [
              10.032435788546323,
              36.13978334859965
            ],
            [
              10.032221260374687,
              36.1398434061038
            ],
            [
              10.032078496714654,
              36.1399028466868
            ],
            [
              10.031936495613541,
              36.14002049450367
            ],
            [
              10.031867786074695,
              36.14025393559311
            ],
            [
              10.03180442878454,
              36.14089483323459
            ],
            [
              10.031663188119527,
              36.141070688138846
            ],
            [
              10.031521949872019,
              36.14124654285552
            ],
            [
              10.031523477931904,
              36.141362957621325
            ],
            [
              10.031671593650913,
              36.14171096931236
            ],
            [
              10.031673886114534,
              36.141885591438395
            ],
            [
              10.031531118362661,
              36.14194503141554
            ],
            [
              10.031172286265598,
              36.14194811219012
            ],
            [
              10.030595862277517,
              36.141778417031404
            ],
            [
              10.030233979998327,
              36.14154866536664
            ],
            [
              10.030015629143428,
              36.141317681981974
            ],
            [
              10.029868282749089,
              36.14102787551895
            ],
            [
              10.029794992858942,
              36.14091207590392
            ],
            [
              10.029650697064449,
              36.14085509882883
            ],
            [
              10.029507165524134,
              36.14085632898744
            ],
            [
              10.029294919214431,
              36.1410910035979
            ],
            [
              10.028870419782905,
              36.14156035175047
            ],
            [
              10.02851463640637,
              36.141796254263156
            ],
            [
              10.028015317138859,
              36.142033384149244
            ],
            [
              10.027871783378554,
              36.1420346123825
            ],
            [
              10.027727489884565,
              36.14197763298514
            ],
            [
              10.027586239640135,
              36.14215348321478
            ],
            [
              10.027588523022528,
              36.14232810061882
            ],
            [
              10.027738147465888,
              36.14279253223723
            ],
            [
              10.027813720189865,
              36.14308295539921
            ],
            [
              10.027821333694806,
              36.14366502970581
            ],
            [
              10.027826663278042,
              36.144072481685875
            ],
            [
              10.027759463975457,
              36.144422335333594
            ],
            [
              10.027620493275398,
              36.14477280786435
            ],
            [
              10.027479999075585,
              36.145006865392865
            ],
            [
              10.027481521373028,
              36.145123280233555
            ],
            [
              10.027485327154794,
              36.145414317325155
            ],
            [
              10.027487610650022,
              36.14558893957313
            ],
            [
              10.027349399399698,
              36.14599761917476
            ],
            [
              10.027072207217241,
              36.146756765580704
            ],
            [
              10.026859938080486,
              36.146991436021054
            ],
            [
              10.026649187356327,
              36.14734252093735
            ],
            [
              10.02629489133554,
              36.14769482706126
            ],
            [
              10.026155149930199,
              36.1479870904728
            ],
            [
              10.026084896463834,
              36.14810411842986
            ],
            [
              10.025943634135931,
              36.148279966761315
            ],
            [
              10.025800848138662,
              36.14833940012002
            ],
            [
              10.02573059612141,
              36.148456427856466
            ],
            [
              10.025735915823617,
              36.14886387977732
            ],
            [
              10.025665661738826,
              36.14898090748766
            ],
            [
              10.0255954089699,
              36.14909793514489
            ],
            [
              10.025453381757563,
              36.14921557551921
            ],
            [
              10.025167808460887,
              36.14933444092228
            ],
            [
              10.024594379543595,
              36.14939754744922
            ],
            [
              10.024165255861744,
              36.14951762991355
            ],
            [
              10.023881196695891,
              36.14975290716934
            ],
            [
              10.023597135833556,
              36.14998818376941
            ],
            [
              10.023597894250527,
              36.15004639121242
            ],
            [
              10.02360016951447,
              36.15022101353794
            ],
            [
              10.02360092794013,
              36.15027922097861
            ],
            [
              10.023458895603598,
              36.15039685904644
            ],
            [
              10.023245847064258,
              36.150573315834315
            ],
            [
              10.02281671490964,
              36.15069339851201
            ],
            [
              10.022673922891192,
              36.15075282822
            ],
            [
              10.022604421824802,
              36.15092806163709
            ],
            [
              10.022536433439301,
              36.151219705001914
            ],
            [
              10.022685289394026,
              36.151625935010856
            ],
            [
              10.022688320561073,
              36.151858764782006
            ],
            [
              10.022618060862499,
              36.15197579074923
            ],
            [
              10.022621091869553,
              36.152208620511644
            ],
            [
              10.051393675141894,
              36.156617291463085
            ],
            [
              10.051609793335878,
              36.15667361297234
            ],
            [
              10.051675338218423,
              36.15620732953995
            ],
            [
              10.052237875950853,
              36.155329196906344
            ],
            [
              10.052867494888133,
              36.15410119135504
            ],
            [
              10.053427663214558,
              36.15304844256815
            ],
            [
              10.053848947930199,
              36.152346182219496
            ],
            [
              10.054760149845043,
              36.15070820435126
            ],
            [
              10.055459903132952,
              36.149363141451964
            ],
            [
              10.056511447388019,
              36.14749106168846
            ],
            [
              10.057987289802726,
              36.145149530783826
            ],
            [
              10.058130044067552,
              36.145090059515226
            ],
            [
              10.058129260275843,
              36.14503185266371
            ],
            [
              10.058272798113649,
              36.14503058807941
            ],
            [
              10.058485752696853,
              36.14485407034268
            ],
            [
              10.058840671839608,
              36.14455987332387
            ],
            [
              10.059052839425041,
              36.14432514776485
            ],
            [
              10.05919480681969,
              36.144207468416624
            ]
          ]
        ]
      }
    }
  ],
  "sourceId": "isie-local-sectors-2023-nadhour"
}
