{
  "type": "FeatureCollection",
  "status": "REVIEWED_SOURCE_PROPOSAL_NOT_GENERATED_OR_INSTALLED",
  "features": [
    {
      "type": "Feature",
      "id": "osm:relation:7114249",
      "properties": {
        "officialCode": "325455",
        "nameAr": "زرمدين الجنوبية",
        "nameFr": "Zéramdine Sud",
        "governorateCode": "32",
        "delegationCode": "3254",
        "expectedOriginalTags": {
          "admin_level": "6",
          "boundary": "administrative",
          "name": "زرميدين الجنوبية",
          "name:ar": "زرميدين الجنوبية",
          "name:fr": "Zéramdine Sud",
          "ref:tn:codegeo": "325455"
        },
        "currentAliases": [
          "Zéramdine Sud"
        ],
        "acceptedNamePlan": {
          "nameAr": "زرمدين الجنوبية",
          "nameFr": "Zéramdine Sud",
          "preserveCurrentAliases": [
            "Zéramdine Sud"
          ],
          "addAliases": [
            "زرميدين الجنوبية"
          ]
        },
        "sourcePdfURL": "https://www.isie.tn/wp-content/uploads/2023/CartesCirconscriptionsElectoralesLocales2023/%D8%A7%D9%84%D9%85%D9%86%D8%B3%D8%AA%D9%8A%D8%B1/%D8%B2%D8%B1%D9%85%D8%AF%D9%8A%D9%86/%D8%B2%D8%B1%D9%85%D8%AF%D9%8A%D9%86%20%D8%A7%D9%84%D8%AC%D9%86%D9%88%D8%A8%D9%8A%D8%A9.pdf",
        "sourcePdfSha256": "04467fab5e6ab3588285c954d923a2a925ea3042bb1d0bd2d112e0886572a674",
        "sourceDrawingIndices": [
          681
        ],
        "sourceVectorLayer": "circonscription_isie2023",
        "sourceCrsEpsg": 32632,
        "sourceGeometrySha256": "4eba465317fe86e8c16b08f0e8d7633c19c3edd59352aedba24dbdd15a98f90b",
        "sourceControlPointMaxResidualMeters": 0.18633389271929834,
        "sourceExtraction": {
          "file": "C:\\Users\\barou\\Documents\\Codex\\2026-09-06\\the-android-app-app-currently-allows\\outputs\\zeramdine-nadhour-interface-geopdf-source-data.json",
          "sha256": "3ef88da8a10fc823ef16ba8c732a120afe31362701ee22398f8365724860baec"
        },
        "rawNativePath": {
          "file": "C:\\Users\\barou\\Documents\\Codex\\2026-09-06\\the-android-app-app-currently-allows\\work\\zeramdine-nadhour-interface-source-review\\zeramdine-sud-raw-native-path.json",
          "sha256": "4a07f074a53ee5c04267521622fbdcbe8055d65641e96dadcb21c43993c2b4cb"
        },
        "administrativeScope": {
          "conclusion": "whole_imada",
          "officialIdentity": {
            "governorateCode": "32",
            "governorateFr": "Monastir",
            "governorateAr": "المنستير",
            "delegationCode": "3254",
            "delegationFr": "Zeramdine",
            "delegationAr": "زرمدين",
            "sectorCode": "325455",
            "sectorFr": "Zeramdine sud",
            "sectorAr": "زرمدين الجنوبية",
            "sourceRows": {
              "Population_Secteur_Age_Sexe_Dynamique.xlsx": 36753,
              "Nombre_de_Logements_par_Secteurs.xlsx": 1737,
              "Nombre_de_menages_par_Secteurs.xlsx": 1735
            }
          },
          "pdfPage": 17,
          "jortPage": 5114,
          "decree": {
            "file": "C:\\Users\\barou\\Documents\\Codex\\2026-09-06\\the-android-app-app-currently-allows\\work\\electoral-circle-semantics\\decree2023-590.pdf",
            "sha256": "bfb3fe752b9900eaf873198b009968243f1b0bd2c119836cfd4fbbfc07e1e10f"
          },
          "render": {
            "file": "C:\\Users\\barou\\Documents\\Codex\\2026-09-06\\the-android-app-app-currently-allows\\work\\beni-hassan-five-native-source-review\\decree-17.png",
            "sha256": "2210a9242033464ee345d78db8f683995fd659381e26d81cc92f589b8be90c10"
          },
          "personallyViewed": true,
          "circleLabel": "زرمدين الجنوبية",
          "oneCircleAndOneSeatForOneImada": true
        },
        "geometryPolicy": "Exact whole native array; no clipping, snap, repair, buffer or invented connecting border.",
        "officialRegistryNameAr": "زرمدين الجنوبية",
        "officialRegistryNameFr": "Zeramdine sud",
        "id": "osm:relation:7114249",
        "sourceId": "isie-local-sectors-2023-zeramdine-south",
        "parentAr": "معتمدية زرمدين",
        "parentFr": "Délégation Zeramdine"
      },
      "geometry": {
        "type": "Polygon",
        "coordinates": [
          [
            [
              10.755497937603609,
              35.59190876108021
            ],
            [
              10.756124014861218,
              35.5913787947737
            ],
            [
              10.756347895656466,
              35.591896387813954
            ],
            [
              10.756779205422768,
              35.59217946932523
            ],
            [
              10.757423009034376,
              35.59245945337662
            ],
            [
              10.757997253630737,
              35.59279832024497
            ],
            [
              10.758572770331218,
              35.59319502842288
            ],
            [
              10.759507509766395,
              35.5938179938184
            ],
            [
              10.760300611791761,
              35.594443018875204
            ],
            [
              10.759924886853748,
              35.59346466972078
            ],
            [
              10.760562137585044,
              35.59021452065557
            ],
            [
              10.761110994061331,
              35.589396298408616
            ],
            [
              10.761243764017301,
              35.58898925237778
            ],
            [
              10.76137526348437,
              35.58852435714807
            ],
            [
              10.761509300248857,
              35.58817516481758
            ],
            [
              10.761499145067491,
              35.58771233305466
            ],
            [
              10.761415625988413,
              35.5871348275321
            ],
            [
              10.761406741003837,
              35.58672984965117
            ],
            [
              10.761332108285202,
              35.586557321864426
            ],
            [
              10.761039925717276,
              35.58615648503735
            ],
            [
              10.760531467494188,
              35.5855851815951
            ],
            [
              10.759811813764866,
              35.58507482963911
            ],
            [
              10.759236350851127,
              35.58467811557521
            ],
            [
              10.758875897415683,
              35.58439401389389
            ],
            [
              10.758797470623174,
              35.5840479219841
            ],
            [
              10.758794936092713,
              35.58393221379871
            ],
            [
              10.759131304829438,
              35.58311709800283
            ],
            [
              10.759535952764256,
              35.5821852353121
            ],
            [
              10.759667452638883,
              35.58172033657794
            ],
            [
              10.759731934226117,
              35.58143003307263
            ],
            [
              10.759650971833043,
              35.580968238295
            ],
            [
              10.759422033297247,
              35.580219233802396
            ],
            [
              10.758892084767812,
              35.57866440618405
            ],
            [
              10.758592343302029,
              35.57791643193068
            ],
            [
              10.758438053305508,
              35.57733995467263
            ],
            [
              10.758206604869523,
              35.57647524336387
            ],
            [
              10.758205338380396,
              35.57641738918029
            ],
            [
              10.757968830415262,
              35.57532126034814
            ],
            [
              10.757589435053845,
              35.57416933491854
            ],
            [
              10.757437680136533,
              35.57370856426623
            ],
            [
              10.757285927170559,
              35.57324779824313
            ],
            [
              10.757060831990819,
              35.572672349850286
            ],
            [
              10.756982426555966,
              35.57232625556589
            ],
            [
              10.75697736491497,
              35.572094838516165
            ],
            [
              10.757040584720274,
              35.57174668659017
            ],
            [
              10.757098742116842,
              35.5711671126534
            ],
            [
              10.757016542157338,
              35.57064745544758
            ],
            [
              10.7570114807309,
              35.57041603833753
            ],
            [
              10.760483733202,
              35.57048116777723
            ],
            [
              10.76485873251543,
              35.569722783089865
            ],
            [
              10.766698518257922,
              35.56963798426865
            ],
            [
              10.76740152522336,
              35.56939619755627
            ],
            [
              10.7699417338544,
              35.56895385133187
            ],
            [
              10.772270774716924,
              35.568572426521
            ],
            [
              10.774664198313888,
              35.56790065212883
            ],
            [
              10.775687958996672,
              35.56614941784723
            ],
            [
              10.775743422154008,
              35.565454130906325
            ],
            [
              10.776013857641562,
              35.564871424882135
            ],
            [
              10.77649158747048,
              35.5640541809887
            ],
            [
              10.77668737168615,
              35.563298954867484
            ],
            [
              10.77659866076026,
              35.562490049995475
            ],
            [
              10.776230578303535,
              35.561858870709
            ],
            [
              10.776666082055993,
              35.55913245196795
            ],
            [
              10.776582493168108,
              35.55855496153693
            ],
            [
              10.776358585828449,
              35.55803740444578
            ],
            [
              10.775700941390092,
              35.55712112200548
            ],
            [
              10.776107834107172,
              35.556304921678475
            ],
            [
              10.775890327860287,
              35.556076632392106
            ],
            [
              10.775179796753743,
              35.555971341955676
            ],
            [
              10.774671440728087,
              35.55540009285222
            ],
            [
              10.77459170290645,
              35.55499616180637
            ],
            [
              10.774795151006339,
              35.5545880610744
            ],
            [
              10.774854450462493,
              35.554066334918225
            ],
            [
              10.774483868633071,
              35.553319440159
            ],
            [
              10.774330785484375,
              35.55280084191691
            ],
            [
              10.77375932133201,
              35.552577752367284
            ],
            [
              10.77325099761088,
              35.5520064960534
            ],
            [
              10.773172547063094,
              35.55166041750218
            ],
            [
              10.773236960185999,
              35.5513701074865
            ],
            [
              10.773865165675703,
              35.550955765929125
            ],
            [
              10.7738613360384,
              35.55078220410817
            ],
            [
              10.772211416005877,
              35.54982260917335
            ],
            [
              10.771983749907925,
              35.54913148441298
            ],
            [
              10.771489483452228,
              35.54919661368022
            ],
            [
              10.771278383050022,
              35.54925758505934
            ],
            [
              10.771069831142086,
              35.54943425925815
            ],
            [
              10.770786663550172,
              35.54943841466955
            ],
            [
              10.77057428781818,
              35.54944153079199
            ],
            [
              10.770152083994027,
              35.54956347495874
            ],
            [
              10.769799397317733,
              35.54962652052143
            ],
            [
              10.769310218469968,
              35.54992305243249
            ],
            [
              10.769172453090391,
              35.55009869046668
            ],
            [
              10.769037233224706,
              35.55039003654932
            ],
            [
              10.768899466480567,
              35.55056567429868
            ],
            [
              10.768689633192805,
              35.550684495392126
            ],
            [
              10.768406460840504,
              35.55068864534006
            ],
            [
              10.768052495318695,
              35.550693831840434
            ],
            [
              10.767697257599123,
              35.55064116316705
            ],
            [
              10.767272499049845,
              35.550647384337495
            ],
            [
              10.766493786709594,
              35.55065878575729
            ],
            [
              10.766276322938475,
              35.550430477687485
            ],
            [
              10.76578077220138,
              35.55043772969764
            ],
            [
              10.765354743873253,
              35.55038608987543
            ],
            [
              10.765209347063076,
              35.55021459835187
            ],
            [
              10.764643004541327,
              35.5502228811426
            ],
            [
              10.763931267929241,
              35.550059668118834
            ],
            [
              10.762517949660948,
              35.55019606363112
            ],
            [
              10.761667179007972,
              35.55015061335012
            ],
            [
              10.76159131546357,
              35.54992023433893
            ],
            [
              10.761452265163696,
              35.55003800479305
            ],
            [
              10.760957982790808,
              35.55010309126055
            ],
            [
              10.760743070014188,
              35.54999048140573
            ],
            [
              10.76052689101878,
              35.549820021685086
            ],
            [
              10.760241187041723,
              35.54970844362371
            ],
            [
              10.7600932689691,
              35.54942123679594
            ],
            [
              10.75987202711115,
              35.54901935333036
            ],
            [
              10.759658384980114,
              35.54896459579579
            ],
            [
              10.759652053763771,
              35.54867532377549
            ],
            [
              10.759847966111625,
              35.547920124614166
            ],
            [
              10.759701319203923,
              35.54769077150165
            ],
            [
              10.759338503497485,
              35.54729095108684
            ],
            [
              10.759476286277561,
              35.54711532373843
            ],
            [
              10.759046481549047,
              35.54689009765831
            ],
            [
              10.758490283118618,
              35.54736118649114
            ],
            [
              10.7574979504588,
              35.54731776891903
            ],
            [
              10.757074483429685,
              35.54738180798616
            ],
            [
              10.756649739641121,
              35.54738799124765
            ],
            [
              10.756433576118695,
              35.54721751876143
            ],
            [
              10.756281885202533,
              35.546756743042735
            ],
            [
              10.756280621480254,
              35.546698888513646
            ],
            [
              10.756279357761574,
              35.54664103398396
            ],
            [
              10.756544823310664,
              35.545826954468545
            ],
            [
              10.754831990755983,
              35.54521526970901
            ],
            [
              10.755030467072267,
              35.54457578609444
            ],
            [
              10.754950840215189,
              35.54417183332154
            ],
            [
              10.754098861324858,
              35.544068473182776
            ],
            [
              10.753953499901792,
              35.543896966893776
            ],
            [
              10.754086241193077,
              35.543489926928935
            ],
            [
              10.753554143976226,
              35.541819347615494
            ],
            [
              10.75403954993719,
              35.54134931017601
            ],
            [
              10.75324451340371,
              35.54060851784325
            ],
            [
              10.752956329933461,
              35.54038121174512
            ],
            [
              10.752735149920953,
              35.53997931287215
            ],
            [
              10.752014715580865,
              35.53941104269279
            ],
            [
              10.751558513557157,
              35.537970843034
            ],
            [
              10.751480171821537,
              35.53762474162594
            ],
            [
              10.75097839859051,
              35.53734266158495
            ],
            [
              10.7504804060516,
              35.5372341388416
            ],
            [
              10.750257988583023,
              35.53677437981348
            ],
            [
              10.750106354910127,
              35.536313593988126
            ],
            [
              10.749820713048596,
              35.5362019892022
            ],
            [
              10.749526263358216,
              35.53568539981662
            ],
            [
              10.74924314081135,
              35.53568950326625
            ],
            [
              10.748951212627786,
              35.53528862200226
            ],
            [
              10.748381197543596,
              35.535123260804454
            ],
            [
              10.748155026373851,
              35.534489937451255
            ],
            [
              10.747726589497832,
              35.53432252245798
            ],
            [
              10.747375205457065,
              35.53444335606299
            ],
            [
              10.74673567614094,
              35.53433686636379
            ],
            [
              10.746026624674094,
              35.53428925206329
            ],
            [
              10.745610735821776,
              35.53470037929773
            ],
            [
              10.745122807184464,
              35.53505466866934
            ],
            [
              10.744350497398894,
              35.535355198003735
            ],
            [
              10.743512417027585,
              35.53588816509109
            ],
            [
              10.742607316213762,
              35.536595713521386
            ],
            [
              10.742201423330881,
              35.537469670091504
            ],
            [
              10.741656461021213,
              35.53846137350908
            ],
            [
              10.741384601266965,
              35.538986149458765
            ],
            [
              10.740243296651933,
              35.538597503325384
            ],
            [
              10.739807331797458,
              35.53808292992531
            ],
            [
              10.739587474507303,
              35.53773885986205
            ],
            [
              10.739288079170077,
              35.53699082821267
            ],
            [
              10.73914276195553,
              35.536819302608016
            ],
            [
              10.738710565947082,
              35.53647829012436
            ],
            [
              10.738422437305925,
              35.536250947539685
            ],
            [
              10.738202591160174,
              35.5359068745406
            ],
            [
              10.737909477961683,
              35.53544810963315
            ],
            [
              10.73775666733885,
              35.53492945578692
            ],
            [
              10.737315740727839,
              35.53418345114163
            ],
            [
              10.737237464295916,
              35.53383734332892
            ],
            [
              10.73722871823143,
              35.53343235662443
            ],
            [
              10.737290751098266,
              35.53302635121285
            ],
            [
              10.737285753321961,
              35.5327949302178
            ],
            [
              10.73714044822032,
              35.5326234017494
            ],
            [
              10.736995143745688,
              35.53245187308362
            ],
            [
              10.736562980727594,
              35.532110851740924
            ],
            [
              10.736056298154075,
              35.5315972807978
            ],
            [
              10.735475100912991,
              35.53091116404356
            ],
            [
              10.734968433059569,
              35.53039759292341
            ],
            [
              10.73460582456937,
              35.529997691173406
            ],
            [
              10.733595011149301,
              35.529086239474445
            ],
            [
              10.733232409481174,
              35.52868633323592
            ],
            [
              10.733016345634734,
              35.528515815415126
            ],
            [
              10.732584220682844,
              35.52817477852027
            ],
            [
              10.732081331102421,
              35.527834760306284
            ],
            [
              10.731794491713487,
              35.52766525571353
            ],
            [
              10.731650458891975,
              35.527551575281
            ],
            [
              10.731430666471896,
              35.52720748796609
            ],
            [
              10.729558216990187,
              35.52572962755192
            ],
            [
              10.72828306629394,
              35.52569001689342
            ],
            [
              10.728144006087547,
              35.52580775446993
            ],
            [
              10.728150218902558,
              35.52609703244901
            ],
            [
              10.72817010039975,
              35.52702271697842
            ],
            [
              10.728259514809041,
              35.52788953743257
            ],
            [
              10.728204895278656,
              35.52864266821696
            ],
            [
              10.728149032407426,
              35.529337948256355
            ],
            [
              10.727949130662966,
              35.52991954346591
            ],
            [
              10.727605187637307,
              35.53038745322449
            ],
            [
              10.726985589413173,
              35.53120654129124
            ],
            [
              10.726221933310566,
              35.531911939756796
            ],
            [
              10.725596098562393,
              35.53244174818195
            ],
            [
              10.72511306062763,
              35.53302738606294
            ],
            [
              10.724562951046892,
              35.53378760039226
            ],
            [
              10.724426352254246,
              35.53402104533775
            ],
            [
              10.724292232940295,
              35.53437019650468
            ],
            [
              10.724146951868498,
              35.534198651715165
            ],
            [
              10.724139511627538,
              35.533851522776
            ],
            [
              10.724125871323261,
              35.53321511067494
            ],
            [
              10.724122151314432,
              35.53304154372582
            ],
            [
              10.723978112999532,
              35.53292785427391
            ],
            [
              10.723762056288745,
              35.532757319748015
            ],
            [
              10.723336142654706,
              35.53270552783976
            ],
            [
              10.722979769311783,
              35.53259486845021
            ],
            [
              10.722695414684901,
              35.532541053578164
            ],
            [
              10.722551379237105,
              35.5324273623305
            ],
            [
              10.722406111465151,
              35.53225581510143
            ],
            [
              10.722188821261964,
              35.53202742187636
            ],
            [
              10.721900754049965,
              35.53180003787436
            ],
            [
              10.721883417653496,
              35.53099006249671
            ],
            [
              10.721738147990367,
              35.53081851439631
            ],
            [
              10.721448848506846,
              35.53053327336055
            ],
            [
              10.721224139180443,
              35.529957748443856
            ],
            [
              10.721150887073263,
              35.529843046075236
            ],
            [
              10.721144698523783,
              35.52955376720843
            ],
            [
              10.721139747747644,
              35.529322344104294
            ],
            [
              10.721126133404043,
              35.52868593051895
            ],
            [
              10.72080590952004,
              35.52695429747767
            ],
            [
              10.720726474649336,
              35.52655032053589
            ],
            [
              10.720355288369664,
              35.52574538247421
            ],
            [
              10.719982879142204,
              35.52488258701818
            ],
            [
              10.719620363126108,
              35.52448263713378
            ],
            [
              10.71905047991919,
              35.52431713800094
            ],
            [
              10.718336584637502,
              35.52403793417685
            ],
            [
              10.717980256387266,
              35.52392725858536
            ],
            [
              10.717623929078217,
              35.5238165819112
            ],
            [
              10.717482392266714,
              35.52381859560629
            ],
            [
              10.71720054121043,
              35.523880478618835
            ],
            [
              10.716989461232913,
              35.523941354442144
            ],
            [
              10.716713780581859,
              35.524292511227856
            ],
            [
              10.71621344194527,
              35.524068136075314
            ],
            [
              10.715925420406396,
              35.52384073623565
            ],
            [
              10.715567862620786,
              35.52367219739569
            ],
            [
              10.715282310736018,
              35.523560507931016
            ],
            [
              10.714924755484068,
              35.52339196710354
            ],
            [
              10.714851524653254,
              35.523277265187474
            ],
            [
              10.714919823686685,
              35.52316054300644
            ],
            [
              10.714917357809059,
              35.523044830954326
            ],
            [
              10.714916124980018,
              35.52298697983125
            ],
            [
              10.714626884253457,
              35.52270172051849
            ],
            [
              10.714124096349263,
              35.52236161919107
            ],
            [
              10.713764084667437,
              35.52207736253883
            ],
            [
              10.713548078876231,
              35.52190680799115
            ],
            [
              10.713404075522872,
              35.521793104727564
            ],
            [
              10.712976993794527,
              35.521683418223155
            ],
            [
              10.71247914954889,
              35.52157473396534
            ],
            [
              10.71240714285508,
              35.521517881771004
            ],
            [
              10.711685916983603,
              35.52089150019686
            ],
            [
              10.711399149804917,
              35.52072194490629
            ],
            [
              10.711325920384732,
              35.52060723577289
            ],
            [
              10.711323459896974,
              35.520491523453884
            ],
            [
              10.711390537754845,
              35.520316951802606
            ],
            [
              10.711386847137351,
              35.520143393128485
            ],
            [
              10.711385616660452,
              35.52008552715888
            ],
            [
              10.71109762318032,
              35.51985812466952
            ],
            [
              10.710809631115309,
              35.51963071163074
            ],
            [
              10.710668095147062,
              35.519632717210804
            ],
            [
              10.710455791168458,
              35.51963572526972
            ],
            [
              10.710385023168596,
              35.519636727873035
            ],
            [
              10.710243487158385,
              35.51963873295519
            ],
            [
              10.710101951134185,
              35.51964073787137
            ],
            [
              10.709751804243444,
              35.51981931799575
            ],
            [
              10.709679807026783,
              35.51976246397397
            ],
            [
              10.709111204573626,
              35.519654767552474
            ],
            [
              10.708187535589106,
              35.519494219119444
            ],
            [
              10.708046005667,
              35.51949622153138
            ],
            [
              10.707900786520446,
              35.51932465504042
            ],
            [
              10.707472497275262,
              35.519157092133376
            ],
            [
              10.70697344220367,
              35.518990528236785
            ],
            [
              10.706758685716173,
              35.518877817120156
            ],
            [
              10.70626331334458,
              35.51888481916011
            ],
            [
              10.705694721027628,
              35.51877710630974
            ],
            [
              10.705335986430619,
              35.51855067932237
            ],
            [
              10.705049240519873,
              35.51838110825939
            ],
            [
              10.704834488240657,
              35.51826839358393
            ],
            [
              10.704758819530324,
              35.518037967332816
            ],
            [
              10.704673348557096,
              35.517344689902544
            ],
            [
              10.704589104743452,
              35.51670927850248
            ],
            [
              10.704437772470847,
              35.51624842538956
            ],
            [
              10.703671600210505,
              35.51683797629555
            ],
            [
              10.70339955637909,
              35.51736266834939
            ],
            [
              10.70305062768374,
              35.51759908564777
            ],
            [
              10.703059196982192,
              35.518004080697374
            ],
            [
              10.702566276716464,
              35.51812678029218
            ],
            [
              10.702279537905458,
              35.51795720242595
            ],
            [
              10.701998917445046,
              35.51807690617112
            ],
            [
              10.701791509783504,
              35.51831132473894
            ],
            [
              10.70150599494372,
              35.51819960148665
            ],
            [
              10.701014293610875,
              35.51838015131793
            ],
            [
              10.700586028770072,
              35.518212563298526
            ],
            [
              10.6992609969387,
              35.51915719966003
            ],
            [
              10.697560129555935,
              35.51906537952454
            ],
            [
              10.695239414324854,
              35.519792473183756
            ],
            [
              10.69362147351291,
              35.5202781709086
            ],
            [
              10.692135325939214,
              35.52029900970483
            ],
            [
              10.691327683238638,
              35.51892135552836
            ],
            [
              10.690961687325373,
              35.518347744029235
            ],
            [
              10.690601773009588,
              35.518063415265
            ],
            [
              10.690446877756164,
              35.517428972016056
            ],
            [
              10.69022485770287,
              35.516969089715
            ],
            [
              10.689868596283187,
              35.51685832897105
            ],
            [
              10.689023042668437,
              35.51704379213677
            ],
            [
              10.687957910462226,
              35.516885056702804
            ],
            [
              10.686601224943125,
              35.51632528744036
            ],
            [
              10.685887512098544,
              35.516045885950255
            ],
            [
              10.68530321563834,
              35.51518593479088
            ],
            [
              10.684588300425144,
              35.51484866823116
            ],
            [
              10.684167346398578,
              35.51502816252986
            ],
            [
              10.681243028296425,
              35.51396931301922
            ],
            [
              10.68105369263576,
              35.51507155427764
            ],
            [
              10.68085106551872,
              35.51553736683987
            ],
            [
              10.680433719688542,
              35.5158904198351
            ],
            [
              10.679800449498606,
              35.516072853892304
            ],
            [
              10.679095206219083,
              35.51619841165347
            ],
            [
              10.678537522763827,
              35.51661128375002
            ],
            [
              10.678264110492732,
              35.517078076172076
            ],
            [
              10.677498937904367,
              35.51772531354097
            ],
            [
              10.677009595611787,
              35.51802148125527
            ],
            [
              10.676382325727495,
              35.51849318407501
            ],
            [
              10.675613514113428,
              35.51896684817209
            ],
            [
              10.675340074199493,
              35.51943363451233
            ],
            [
              10.675137400726719,
              35.51989943839525
            ],
            [
              10.674580878272781,
              35.52037015041741
            ],
            [
              10.674102337808478,
              35.52118701256517
            ],
            [
              10.674043602386332,
              35.52176656654898
            ],
            [
              10.672329468633855,
              35.52103796088564
            ],
            [
              10.672057204960792,
              35.52156259766056
            ],
            [
              10.671708156900987,
              35.52179892719068
            ],
            [
              10.670930876558174,
              35.52186756137027
            ],
            [
              10.670080418785322,
              35.521821454868416
            ],
            [
              10.669038050013901,
              35.52276185350799
            ],
            [
              10.667821733924171,
              35.5221420484097
            ],
            [
              10.667753363263948,
              35.522258740910644
            ],
            [
              10.667406696769584,
              35.52261077328525
            ],
            [
              10.66705882868464,
              35.5229049472664
            ],
            [
              10.66671335775934,
              35.52331483519067
            ],
            [
              10.666505832095394,
              35.52354919603401
            ],
            [
              10.66574649128589,
              35.524485654683495
            ],
            [
              10.665333825120502,
              35.525070087877126
            ],
            [
              10.664778403022156,
              35.52559860942574
            ],
            [
              10.664501287743123,
              35.52589180050325
            ],
            [
              10.6641557883173,
              35.52630168164675
            ],
            [
              10.663879867863665,
              35.52665272886372
            ],
            [
              10.66353675457484,
              35.52717832339696
            ],
            [
              10.663263217643799,
              35.52764508439722
            ],
            [
              10.663058062819488,
              35.52799514986978
            ],
            [
              10.662990873418291,
              35.52816969745332
            ],
            [
              10.66299446111505,
              35.52834327003729
            ],
            [
              10.663000440677756,
              35.5286325576654
            ],
            [
              10.663079590189643,
              35.52903658528834
            ],
            [
              10.663086766123545,
              35.52938372548128
            ],
            [
              10.663092746246601,
              35.529673013045816
            ],
            [
              10.663109491044166,
              35.53048301814789
            ],
            [
              10.663122648139165,
              35.5311194506468
            ],
            [
              10.663127432538149,
              35.53135087572465
            ],
            [
              10.663205389703906,
              35.53169704551128
            ],
            [
              10.663286936436469,
              35.532216787656715
            ],
            [
              10.663439265470826,
              35.53273554944109
            ],
            [
              10.663662378360337,
              35.53325334036735
            ],
            [
              10.663665968174918,
              35.533426912745476
            ],
            [
              10.66366955802017,
              35.53360048511828
            ],
            [
              10.663673147896091,
              35.533774057485765
            ],
            [
              10.663608348716396,
              35.53406432025562
            ],
            [
              10.663478749079024,
              35.53464484568865
            ],
            [
              10.663417538123014,
              35.53510868070339
            ],
            [
              10.663285542756098,
              35.535573486116796
            ],
            [
              10.663290328508836,
              35.53580491590828
            ],
            [
              10.663301096550406,
              35.53632562800052
            ],
            [
              10.66330947196353,
              35.53673063007559
            ],
            [
              10.663183455959844,
              35.53748472741962
            ],
            [
              10.663121048386639,
              35.53789070470684
            ],
            [
              10.663062223444525,
              35.53847025432129
            ],
            [
              10.663002207344249,
              35.53899194146563
            ],
            [
              10.662871397512806,
              35.53951460874374
            ],
            [
              10.662806594647716,
              35.53980487097984
            ],
            [
              10.66280898710069,
              35.539920580919606
            ],
            [
              10.662816164845564,
              35.54026772543673
            ],
            [
              10.662753750824612,
              35.54067370250405
            ],
            [
              10.662759732237623,
              35.540962989575064
            ],
            [
              10.662764517429354,
              35.54119441922124
            ],
            [
              10.662697317534326,
              35.54136896659059
            ],
            [
              10.662355333632483,
              35.54195241585297
            ],
            [
              10.662079351307787,
              35.54230345978345
            ],
            [
              10.661527382447641,
              35.5430055409401
            ],
            [
              10.661252588225887,
              35.543414435641324
            ],
            [
              10.660976596237479,
              35.54376547723111
            ],
            [
              10.660838599354385,
              35.543940997806104
            ],
            [
              10.660771396190643,
              35.54411554415929
            ],
            [
              10.660704186746992,
              35.54429009056065
            ],
            [
              10.660648932404348,
              35.545043211230144
            ],
            [
              10.660537217426587,
              35.54649159010149
            ],
            [
              10.660475986126304,
              35.54695541850582
            ],
            [
              10.660412361552432,
              35.547303536968805
            ],
            [
              10.660001933444466,
              35.548003668872106
            ],
            [
              10.66007511604472,
              35.54811841002397
            ],
            [
              10.66151014094806,
              35.549024644973095
            ],
            [
              10.664380286754612,
              35.55083705568493
            ],
            [
              10.665239436665503,
              35.55128819468723
            ],
            [
              10.669680535313324,
              35.553715395891395
            ],
            [
              10.671185363297344,
              35.554562672569396
            ],
            [
              10.671684570949038,
              35.55472937973026
            ],
            [
              10.674036639225411,
              35.555449128967474
            ],
            [
              10.674463854607154,
              35.5555589494023
            ],
            [
              10.678658005382633,
              35.55631091287736
            ],
            [
              10.680507302171572,
              35.55669028518093
            ],
            [
              10.68071970710719,
              35.556687327170124
            ],
            [
              10.682633769662853,
              35.55677640163276
            ],
            [
              10.683910617153533,
              35.55687433879742
            ],
            [
              10.684474605362508,
              35.556750720679716
            ],
            [
              10.68518261777987,
              35.556740835920515
            ],
            [
              10.685678228367868,
              35.55673391408746
            ],
            [
              10.686104251070036,
              35.556785836036646
            ],
            [
              10.68688913935226,
              35.55706423471396
            ],
            [
              10.688242873136883,
              35.557450418548285
            ],
            [
              10.68931341002893,
              35.55784055168566
            ],
            [
              10.690026299688913,
              35.55806205906835
            ],
            [
              10.691168879127334,
              35.558509039956306
            ],
            [
              10.692311464912043,
              35.55895600971299
            ],
            [
              10.694021717017199,
              35.55945287427392
            ],
            [
              10.6947346270565,
              35.55967435798173
            ],
            [
              10.69558915461236,
              35.55989384270085
            ],
            [
              10.696512048005477,
              35.55999661827218
            ],
            [
              10.698147867870194,
              35.5603208497814
            ],
            [
              10.699998561153429,
              35.56075777867717
            ],
            [
              10.702062913364307,
              35.56124953867484
            ],
            [
              10.703558400479615,
              35.56163354862442
            ],
            [
              10.705481183475367,
              35.56212724299371
            ],
            [
              10.706406563289327,
              35.56234565360238
            ],
            [
              10.70804247159979,
              35.56266974814686
            ],
            [
              10.708969100323094,
              35.56294599443785
            ],
            [
              10.709396392471346,
              35.56305568855629
            ],
            [
              10.709896960301373,
              35.56328008929088
            ],
            [
              10.710612413745547,
              35.56361718332806
            ],
            [
              10.711114220371327,
              35.56389943454857
            ],
            [
              10.711614792039919,
              35.564123827921925
            ],
            [
              10.712689229426083,
              35.56468731438241
            ],
            [
              10.712976159710914,
              35.564856860968916
            ],
            [
              10.713407174260809,
              35.5651401073297
            ],
            [
              10.714552439626194,
              35.565702566036386
            ],
            [
              10.714768568896096,
              35.56587311425245
            ],
            [
              10.715127551336572,
              35.566099504744365
            ],
            [
              10.715987140271471,
              35.566550268376695
            ],
            [
              10.716202032983102,
              35.56666295836488
            ],
            [
              10.716416932291246,
              35.56677564786552
            ],
            [
              10.716990824189892,
              35.56711471669097
            ],
            [
              10.718065338055679,
              35.56767815277462
            ],
            [
              10.718854143511942,
              35.56812990324737
            ],
            [
              10.719141098760362,
              35.56829943435313
            ],
            [
              10.71935600643477,
              35.56841211834478
            ],
            [
              10.719785823561716,
              35.568637485121506
            ],
            [
              10.720502603616355,
              35.5690323730753
            ],
            [
              10.720573414650167,
              35.56903136332551
            ],
            [
              10.72078956547421,
              35.56920190004315
            ],
            [
              10.721004471795151,
              35.56931458103169
            ],
            [
              10.721291435692509,
              35.569484106738756
            ],
            [
              10.721720023863158,
              35.56965161088848
            ],
            [
              10.722434341338293,
              35.56993078096221
            ],
            [
              10.722506393612209,
              35.56998762540078
            ],
            [
              10.722936227699728,
              35.57021298039874
            ],
            [
              10.72336357583729,
              35.57032262324374
            ],
            [
              10.723792172555541,
              35.57049011975356
            ],
            [
              10.724506504171295,
              35.57076927219001
            ],
            [
              10.724720183550817,
              35.570824090902136
            ],
            [
              10.725574903838124,
              35.5710433618743
            ],
            [
              10.726360053126104,
              35.57132149518925
            ],
            [
              10.72714521367397,
              35.57159962313663
            ],
            [
              10.727857077303769,
              35.57176304961566
            ],
            [
              10.728355252983294,
              35.5718716601686
            ],
            [
              10.72871180928888,
              35.5719822978659
            ],
            [
              10.728855926294228,
              35.572095978798295
            ],
            [
              10.728926739712174,
              35.57209496406658
            ],
            [
              10.729925602941508,
              35.57242788403664
            ],
            [
              10.730853654110676,
              35.572761806578725
            ],
            [
              10.731139403523054,
              35.57287345275059
            ],
            [
              10.731782966189572,
              35.573153581585814
            ],
            [
              10.732072460874937,
              35.573438790531455
            ],
            [
              10.732359462073882,
              35.57360828869416
            ],
            [
              10.73286140501326,
              35.573890444993
            ],
            [
              10.733293778815632,
              35.57423147153846
            ],
            [
              10.733295027185067,
              35.57428932160859
            ],
            [
              10.733654098013405,
              35.57451565407216
            ],
            [
              10.734013170844731,
              35.57474198540036
            ],
            [
              10.73487670333805,
              35.57536617283684
            ],
            [
              10.735019585242625,
              35.57542199100702
            ],
            [
              10.73544948220021,
              35.57564729935901
            ],
            [
              10.73595144235754,
              35.57592943720935
            ],
            [
              10.736022258883345,
              35.57592841821489
            ],
            [
              10.736309277117748,
              35.57609790641511
            ],
            [
              10.736525479745705,
              35.57626841323285
            ],
            [
              10.736529232434455,
              35.57644197779653
            ],
            [
              10.736746687534866,
              35.57667033901597
            ],
            [
              10.736823760324222,
              35.57695859374168
            ],
            [
              10.736972902616115,
              35.57730368363653
            ],
            [
              10.73704747426273,
              35.57747622849406
            ],
            [
              10.737125800303424,
              35.577822332856755
            ],
            [
              10.737277448676702,
              35.57828313187561
            ],
            [
              10.73742534394404,
              35.578570366206435
            ],
            [
              10.737645311162456,
              35.57891443508894
            ],
            [
              10.737789453184918,
              35.57902810450185
            ],
            [
              10.737790705113616,
              35.57908595929163
            ],
            [
              10.73786277633195,
              35.579142793925556
            ],
            [
              10.737936099693215,
              35.57925748329663
            ],
            [
              10.737941107893514,
              35.579488902425304
            ],
            [
              10.737946116044734,
              35.57972031664069
            ],
            [
              10.738021944350454,
              35.57995071548157
            ],
            [
              10.738172350078482,
              35.58035365819277
            ],
            [
              10.738245675050921,
              35.580468347309655
            ],
            [
              10.738538977083186,
              35.58092710325093
            ],
            [
              10.738763966795666,
              35.581502588604216
            ],
            [
              10.738837293608052,
              35.58161727238283
            ],
            [
              10.739207678690928,
              35.5823642793241
            ],
            [
              10.739356842102227,
              35.58270936539853
            ],
            [
              10.739358095327843,
              35.5827672201047
            ],
            [
              10.73950726019797,
              35.5831123059314
            ],
            [
              10.739581843133903,
              35.5832848487548
            ],
            [
              10.739733516979241,
              35.58374563868901
            ],
            [
              10.739734770523572,
              35.58380349337363
            ],
            [
              10.739885192773647,
              35.58420643325313
            ],
            [
              10.740033109017254,
              35.584493663540535
            ],
            [
              10.74025686639394,
              35.58501129053609
            ],
            [
              10.740258120266805,
              35.58506914028866
            ],
            [
              10.740406039541886,
              35.58535636999618
            ],
            [
              10.740628547644345,
              35.58581614145504
            ],
            [
              10.74062980192799,
              35.58587399609221
            ],
            [
              10.740928156451844,
              35.586564163380636
            ],
            [
              10.741230280564482,
              35.587427888618656
            ],
            [
              10.741528646515874,
              35.58811805394034
            ],
            [
              10.742117861238274,
              35.58915124945436
            ],
            [
              10.743295081115658,
              35.59115978043995
            ],
            [
              10.743660539837185,
              35.59167535200382
            ],
            [
              10.744457273205292,
              35.59247404909333
            ],
            [
              10.745113605462377,
              35.593332644619196
            ],
            [
              10.745769963781502,
              35.59419122607239
            ],
            [
              10.746215096381256,
              35.59511074423845
            ],
            [
              10.746589405720027,
              35.596031286079935
            ],
            [
              10.747043374372815,
              35.59735577090093
            ],
            [
              10.747635251566928,
              35.59850464749166
            ],
            [
              10.753307216469022,
              35.59541296746243
            ],
            [
              10.753369202291626,
              35.59500695871284
            ],
            [
              10.753642420435572,
              35.59454000645919
            ],
            [
              10.753773959822901,
              35.59407511369335
            ],
            [
              10.753968755815741,
              35.59326206572452
            ],
            [
              10.754158503153388,
              35.59221761045512
            ],
            [
              10.755143788261964,
              35.59191391483983
            ],
            [
              10.755497937603609,
              35.59190876108021
            ]
          ]
        ]
      }
    }
  ],
  "sourceId": "isie-local-sectors-2023-zeramdine-south"
}
