{
  "type": "FeatureCollection",
  "features": [
    {
      "type": "Feature",
      "id": "osm:relation:7114248",
      "properties": {
        "officialCode": "325454",
        "governorateCode": "32",
        "delegationCode": "3254",
        "nameAr": "زرمدين الشمالية",
        "nameFr": "Zéramdine Nord",
        "currentName": "زرمدين الشمالية",
        "currentAliases": [
          "Zéramdine Nord"
        ],
        "acceptedNameRecommendation": {
          "nameAr": "زرمدين الشمالية",
          "nameFr": "Zéramdine Nord",
          "aliases": [
            "Zéramdine Nord"
          ]
        },
        "sourcePdfURL": "https://www.isie.tn/wp-content/uploads/2023/CartesCirconscriptionsElectoralesLocales2023/%D8%A7%D9%84%D9%85%D9%86%D8%B3%D8%AA%D9%8A%D8%B1/%D8%B2%D8%B1%D9%85%D8%AF%D9%8A%D9%86/%D8%B2%D8%B1%D9%85%D8%AF%D9%8A%D9%86%20%D8%A7%D9%84%D8%B4%D9%85%D8%A7%D9%84%D9%8A%D8%A9..pdf",
        "sourcePdfSha256": "abb2510f7fdf96f5e44766f19a632e11348f54b4ee2c63253d23f465bbe12148",
        "sourceDrawingIndices": [
          446
        ],
        "sourceVectorLayer": "circonscription_isie2023",
        "sourceCrsEpsg": 32632,
        "sourceGeometrySha256": "70f0a4984fa1844a43bacbb02f02ea851545d7cddf87802411db2fa63cfd4c3a",
        "sourceControlPointMaxResidualMeters": 0.1885543243654452,
        "rawNativePath": {
          "file": "C:\\Users\\barou\\Documents\\Codex\\2026-09-06\\the-android-app-app-currently-allows\\work\\zeramdine-north-native-source-review\\zeramdine-north-raw-native-path.json",
          "sha256": "d44161ca54f7fad6e21d1059c71c4d18a924fa71c000a7761486a0a81c7fabcc"
        },
        "administrativeScope": {
          "decision": "whole_imada",
          "officialIdentity": {
            "governorateCode": "32",
            "governorateFr": "Monastir",
            "governorateAr": "المنستير",
            "delegationCode": "3254",
            "delegationFr": "Zeramdine",
            "delegationAr": "زرمدين",
            "sectorCode": "325454",
            "sectorFr": "Zeramdine nord",
            "sectorAr": "زرمدين الشمالية",
            "sourceRows": {
              "Population_Secteur_Age_Sexe_Dynamique.xlsx": 36719,
              "Nombre_de_Logements_par_Secteurs.xlsx": 1735,
              "Nombre_de_menages_par_Secteurs.xlsx": 1733
            }
          },
          "decree": {
            "file": "C:\\Users\\barou\\Documents\\Codex\\2026-09-06\\the-android-app-app-currently-allows\\work\\electoral-circle-semantics\\decree2023-590.pdf",
            "sha256": "bfb3fe752b9900eaf873198b009968243f1b0bd2c119836cfd4fbbfc07e1e10f"
          },
          "decreePdfPage": 17,
          "jortPage": 5114,
          "circleLabel": "زرمدين الشمالية",
          "oneWholeImadaOneCircleOneSeat": true,
          "visualEvidence": {
            "file": "C:\\Users\\barou\\Documents\\Codex\\2026-09-06\\the-android-app-app-currently-allows\\work\\next-three-interface-source-review\\decree-17.png",
            "sha256": "3bc6e32e18574cc92182937b0f8fe7270bd3bcc21fc72aed9c4aca45953dd13c"
          },
          "visualQualification": "Root personally viewed decree17; existing reviewed whole-imada context reused without a new decree fetch."
        },
        "geometryPolicy": "Exact complete native ring; no clipping, snapping, repair or invented segments.",
        "officialRegistryNameAr": "زرمدين الشمالية",
        "officialRegistryNameFr": "Zeramdine nord",
        "id": "osm:relation:7114248",
        "sourceId": "isie-local-sectors-2023-zeramdine-north",
        "parentAr": "معتمدية زرمدين",
        "parentFr": "Délégation Zeramdine"
      },
      "geometry": {
        "type": "Polygon",
        "coordinates": [
          [
            [
              10.747628937955454,
              35.598519709131104
            ],
            [
              10.747047998967037,
              35.597355824604634
            ],
            [
              10.746602656074014,
              35.59603870345657
            ],
            [
              10.746212647297863,
              35.595136759001036
            ],
            [
              10.74572925332482,
              35.59419835581287
            ],
            [
              10.745109473804499,
              35.59337538292729
            ],
            [
              10.744441788868546,
              35.59247746757522
            ],
            [
              10.743683999926105,
              35.59169430428042
            ],
            [
              10.743302242540768,
              35.59117040508359
            ],
            [
              10.742147991738552,
              35.58918283333547
            ],
            [
              10.741569660362982,
              35.588132335947826
            ],
            [
              10.741230951294895,
              35.58745653641758
            ],
            [
              10.740934431188894,
              35.586591038103876
            ],
            [
              10.740642008640345,
              35.58591456281234
            ],
            [
              10.74059409020158,
              35.58583962229293
            ],
            [
              10.740397509127197,
              35.585313030443835
            ],
            [
              10.740253755904085,
              35.58508820845513
            ],
            [
              10.74025130199582,
              35.584974792063264
            ],
            [
              10.740009261969567,
              35.58448667186197
            ],
            [
              10.739910157082473,
              35.58418557148358
            ],
            [
              10.739763136525292,
              35.583809526853585
            ],
            [
              10.739716037907751,
              35.583772391383626
            ],
            [
              10.73956656629642,
              35.583282929979966
            ],
            [
              10.739470734894292,
              35.583133051059384
            ],
            [
              10.739370816331746,
              35.58279414136898
            ],
            [
              10.739322083578069,
              35.582681394723366
            ],
            [
              10.739176703555612,
              35.58238096013526
            ],
            [
              10.73883639835127,
              35.5816295410917
            ],
            [
              10.738787667113172,
              35.58151679416788
            ],
            [
              10.738497733736985,
              35.58095372866311
            ],
            [
              10.738255717419955,
              35.58046560718799
            ],
            [
              10.738206987760979,
              35.58035285996547
            ],
            [
              10.738012887313236,
              35.57993967636054
            ],
            [
              10.737961715983708,
              35.57971351226923
            ],
            [
              10.737956815615178,
              35.579486679004305
            ],
            [
              10.737951915370637,
              35.57925984893464
            ],
            [
              10.73785690863413,
              35.579147770757984
            ],
            [
              10.737808997045507,
              35.579072828862785
            ],
            [
              10.737761902165955,
              35.57903569249691
            ],
            [
              10.737619801240161,
              35.578886477724794
            ],
            [
              10.737427340519403,
              35.578548904015655
            ],
            [
              10.737328253405321,
              35.578247797544826
            ],
            [
              10.737133346736522,
              35.57779680974726
            ],
            [
              10.73703344553002,
              35.57745789736531
            ],
            [
              10.73698390336417,
              35.577307343916615
            ],
            [
              10.736836910353196,
              35.57693129776704
            ],
            [
              10.736738643745253,
              35.57666799620169
            ],
            [
              10.736547824303651,
              35.57640603189702
            ],
            [
              10.73649909971187,
              35.576293283773836
            ],
            [
              10.736498283770134,
              35.57625547817948
            ],
            [
              10.736309913668526,
              35.57610693022589
            ],
            [
              10.73598189910616,
              35.57592258496144
            ],
            [
              10.735420057713602,
              35.57562816003713
            ],
            [
              10.734998679326461,
              35.5754073395391
            ],
            [
              10.734858228217638,
              35.57533373224938
            ],
            [
              10.734013035670365,
              35.57477867182615
            ],
            [
              10.73363712670954,
              35.5745193729683
            ],
            [
              10.733307495761194,
              35.57425940547865
            ],
            [
              10.732836598099064,
              35.57388802166317
            ],
            [
              10.732368146539,
              35.573630052944914
            ],
            [
              10.73204015090304,
              35.57344569633592
            ],
            [
              10.731802265882282,
              35.57314658490271
            ],
            [
              10.73119419179776,
              35.572852805829
            ],
            [
              10.730867828271748,
              35.572744054090734
            ],
            [
              10.729935830240567,
              35.57245493630973
            ],
            [
              10.728909665068185,
              35.572091527738394
            ],
            [
              10.728862578376644,
              35.57205438762151
            ],
            [
              10.728676668454877,
              35.57201924428965
            ],
            [
              10.728349507341584,
              35.57187267962841
            ],
            [
              10.72834869536149,
              35.57183487384317
            ],
            [
              10.727838054174933,
              35.57176658108517
            ],
            [
              10.727186156650244,
              35.57158686378434
            ],
            [
              10.726347543403746,
              35.57133419324634
            ],
            [
              10.72555439846634,
              35.571043043309636
            ],
            [
              10.724716613631532,
              35.570828163635774
            ],
            [
              10.72448362415359,
              35.570755871854864
            ],
            [
              10.723783848339952,
              35.57050118784863
            ],
            [
              10.723317063728787,
              35.570318797417684
            ],
            [
              10.722990720384404,
              35.57021002370964
            ],
            [
              10.722476856492744,
              35.569990484153735
            ],
            [
              10.72242977393711,
              35.56995334139246
            ],
            [
              10.721682937016066,
              35.56966150186482
            ],
            [
              10.721308708005951,
              35.569477774418786
            ],
            [
              10.721027835233551,
              35.56933052654976
            ],
            [
              10.720793236462345,
              35.569182615499116
            ],
            [
              10.720559446783078,
              35.569072509922044
            ],
            [
              10.720512365636647,
              35.569035366366194
            ],
            [
              10.71976392028448,
              35.56866790263727
            ],
            [
              10.71938889252487,
              35.56844636616896
            ],
            [
              10.719155106836116,
              35.56833625774025
            ],
            [
              10.718827162008242,
              35.56815186034625
            ],
            [
              10.718076319126899,
              35.56767097069723
            ],
            [
              10.716999960689678,
              35.56711908845705
            ],
            [
              10.716437441692252,
              35.56678676487685
            ],
            [
              10.716249936381024,
              35.56667598973375
            ],
            [
              10.716016159981269,
              35.56656587491945
            ],
            [
              10.715172805687452,
              35.5660862873775
            ],
            [
              10.714797802240499,
              35.56586473263386
            ],
            [
              10.714516953713446,
              35.56571747202115
            ],
            [
              10.713393573377488,
              35.56512840982882
            ],
            [
              10.712925233206999,
              35.56487036198379
            ],
            [
              10.712690662026711,
              35.56472243427262
            ],
            [
              10.711613578861636,
              35.56413269530876
            ],
            [
              10.711146053772488,
              35.56391244956489
            ],
            [
              10.710584384183662,
              35.56361790337621
            ],
            [
              10.709883109932644,
              35.56328752613259
            ],
            [
              10.709415594241298,
              35.563067270171516
            ],
            [
              10.708995955936171,
              35.56292196690418
            ],
            [
              10.708019483368448,
              35.562708940852836
            ],
            [
              10.70639203728505,
              35.562353879550486
            ],
            [
              10.70546184700382,
              35.56214017549658
            ],
            [
              10.703552807316129,
              35.56159998222347
            ],
            [
              10.702017938903554,
              35.5612435522583
            ],
            [
              10.700017202777085,
              35.56074242156037
            ],
            [
              10.698157687816533,
              35.560352712135234
            ],
            [
              10.69653112451017,
              35.56003532146891
            ],
            [
              10.695556308554371,
              35.55989780544273
            ],
            [
              10.694718704651589,
              35.55968271147625
            ],
            [
              10.693973645105547,
              35.559466310629105
            ],
            [
              10.692343140584248,
              35.55895982960438
            ],
            [
              10.691130648022545,
              35.55852308456188
            ],
            [
              10.690010706780654,
              35.55808502267502
            ],
            [
              10.689357414836072,
              35.557829481575446
            ],
            [
              10.688239073883059,
              35.55746701601855
            ],
            [
              10.68688782818913,
              35.55703217626641
            ],
            [
              10.686096545762341,
              35.55681637145139
            ],
            [
              10.685678562266983,
              35.55674659821502
            ],
            [
              10.685215104055088,
              35.556715278898906
            ],
            [
              10.684475631844919,
              35.55676346174735
            ],
            [
              10.683922012378865,
              35.55684685440687
            ],
            [
              10.6826249655973,
              35.55678938225173
            ],
            [
              10.680678606723829,
              35.55666534095466
            ],
            [
              10.680493541638315,
              35.55666792842655
            ],
            [
              10.678635780241683,
              35.55635352921695
            ],
            [
              10.674454491075906,
              35.55557985539266
            ],
            [
              10.674082004691856,
              35.55547158997522
            ],
            [
              10.671660467400262,
              35.554748935783444
            ],
            [
              10.671193887417212,
              35.554566333991744
            ],
            [
              10.669695353738646,
              35.55371734961351
            ],
            [
              10.665248555037849,
              35.551283056106946
            ],
            [
              10.664405646755299,
              35.55080309631788
            ],
            [
              10.661545342062704,
              35.548989590406094
            ],
            [
              10.660093275749505,
              35.548139837623395
            ],
            [
              10.65999841349586,
              35.54802769353008
            ],
            [
              10.659870534428642,
              35.548558911803916
            ],
            [
              10.6596940546794,
              35.5489773468636
            ],
            [
              10.65965402327331,
              35.549280443786756
            ],
            [
              10.659521467193965,
              35.54958481806344
            ],
            [
              10.659392024985628,
              35.55004042130882
            ],
            [
              10.659304171442784,
              35.550268535779786
            ],
            [
              10.658867235484863,
              35.551522561088476
            ],
            [
              10.658871908025562,
              35.55174940471827
            ],
            [
              10.658480443617798,
              35.552964976570145
            ],
            [
              10.658085854366778,
              35.5540293245594
            ],
            [
              10.657910911099465,
              35.55452336855601
            ],
            [
              10.657729738355904,
              35.554714957350946
            ],
            [
              10.657415992150147,
              35.555210914840224
            ],
            [
              10.657192440524925,
              35.55559217722749
            ],
            [
              10.656881021671419,
              35.55620155847923
            ],
            [
              10.656860427107043,
              35.55744983320342
            ],
            [
              10.656872096906682,
              35.558016939074456
            ],
            [
              10.656893881528138,
              35.55907554253027
            ],
            [
              10.656916445237643,
              35.56017194663469
            ],
            [
              10.656976720718928,
              35.56085183932046
            ],
            [
              10.657036997449977,
              35.56153173187497
            ],
            [
              10.657199155663147,
              35.562664028789825
            ],
            [
              10.657357426258763,
              35.563607295457835
            ],
            [
              10.657518815897165,
              35.56470178732176
            ],
            [
              10.657579878897836,
              35.565419483005584
            ],
            [
              10.657646395479972,
              35.5664018321469
            ],
            [
              10.657655738790467,
              35.566855515352
            ],
            [
              10.657755292120726,
              35.567194500426744
            ],
            [
              10.657952845972735,
              35.56779686221376
            ],
            [
              10.658293897890353,
              35.5686241511927
            ],
            [
              10.658394236391223,
              35.56900094267122
            ],
            [
              10.658640412118459,
              35.56971608262859
            ],
            [
              10.658883473359154,
              35.570279996499906
            ],
            [
              10.659220649891877,
              35.57091824624522
            ],
            [
              10.659560949515168,
              35.57170772017773
            ],
            [
              10.659707574525568,
              35.57208387426376
            ],
            [
              10.659857319204585,
              35.57261125340655
            ],
            [
              10.659958450655191,
              35.573025853332595
            ],
            [
              10.660153696000926,
              35.57351478880092
            ],
            [
              10.660347385539144,
              35.57392810641295
            ],
            [
              10.660540295052785,
              35.574303619767115
            ],
            [
              10.660838247113968,
              35.57528276382855
            ],
            [
              10.660990348283143,
              35.57592356215871
            ],
            [
              10.661047552351182,
              35.57645222157068
            ],
            [
              10.661101637146057,
              35.57682965258326
            ],
            [
              10.66120199952115,
              35.57720644061234
            ],
            [
              10.661307047847298,
              35.57781007406811
            ],
            [
              10.661361913689428,
              35.57822530870449
            ],
            [
              10.662253722915699,
              35.57881806132352
            ],
            [
              10.663002795003823,
              35.57922369338814
            ],
            [
              10.66394012467757,
              35.57977798211355
            ],
            [
              10.665064935669756,
              35.58044312229807
            ],
            [
              10.665815605302319,
              35.580924346647585
            ],
            [
              10.666661194409784,
              35.58151770628155
            ],
            [
              10.66736638350728,
              35.582037369219606
            ],
            [
              10.668962702327942,
              35.58311192076898
            ],
            [
              10.670600635218323,
              35.58395896850976
            ],
            [
              10.67191069080681,
              35.584621463990956
            ],
            [
              10.67438808130882,
              35.58575931457073
            ],
            [
              10.675790764418734,
              35.586420479266685
            ],
            [
              10.676911036508944,
              35.58685865945384
            ],
            [
              10.677519037470836,
              35.587152714335616
            ],
            [
              10.679914278394143,
              35.5887832253153
            ],
            [
              10.681416743247254,
              35.589783283467604
            ],
            [
              10.683002323215927,
              35.590328346319
            ],
            [
              10.684591091965293,
              35.591024616979404
            ],
            [
              10.685805630350124,
              35.591537026151045
            ],
            [
              10.687020980999183,
              35.592087232233034
            ],
            [
              10.688095894788706,
              35.592563760546454
            ],
            [
              10.68926498454256,
              35.593114593415706
            ],
            [
              10.690248143987384,
              35.593630209645085
            ],
            [
              10.69184181489376,
              35.59455321898274
            ],
            [
              10.692967853851666,
              35.59525588820422
            ],
            [
              10.694283848577149,
              35.59618277326557
            ],
            [
              10.69606277009782,
              35.59710310934633
            ],
            [
              10.69741873476555,
              35.597726857855925
            ],
            [
              10.699149037587048,
              35.59853438156089
            ],
            [
              10.700554539026799,
              35.599308663309934
            ],
            [
              10.703562455485804,
              35.597034823391766
            ],
            [
              10.70465816742886,
              35.596300753703005
            ],
            [
              10.70612095849033,
              35.595410192439175
            ],
            [
              10.706944518681025,
              35.59494468561332
            ],
            [
              10.707993079964535,
              35.594173438510715
            ],
            [
              10.708995337696575,
              35.59340283785335
            ],
            [
              10.710361433061422,
              35.592324514021726
            ],
            [
              10.712585180983144,
              35.59021288600283
            ],
            [
              10.71415127238055,
              35.59200578572722
            ],
            [
              10.715571317015447,
              35.593460395420806
            ],
            [
              10.717220422714234,
              35.59479826162903
            ],
            [
              10.718773781265327,
              35.5959862043901
            ],
            [
              10.721121376441868,
              35.5975031079428
            ],
            [
              10.721342299980208,
              35.597008317358735
            ],
            [
              10.721460120427066,
              35.59602338105211
            ],
            [
              10.721398452951957,
              35.595305737731344
            ],
            [
              10.721612083826404,
              35.594470694697
            ],
            [
              10.721638943587436,
              35.593562695961175
            ],
            [
              10.721613850668383,
              35.59239071978424
            ],
            [
              10.722192901466247,
              35.59132353811667
            ],
            [
              10.72250313460888,
              35.59067619883424
            ],
            [
              10.7226314546342,
              35.59018273318269
            ],
            [
              10.722482890209585,
              35.58973105416725
            ],
            [
              10.722899445210528,
              35.589725082228114
            ],
            [
              10.723128438785466,
              35.58960834646773
            ],
            [
              10.723825139994092,
              35.58971180585075
            ],
            [
              10.723912036458842,
              35.589445837486075
            ],
            [
              10.725821872357962,
              35.58998568336065
            ],
            [
              10.72601268381568,
              35.5902476642808
            ],
            [
              10.725841344751519,
              35.590893017405016
            ],
            [
              10.725296464941673,
              35.591392468028154
            ],
            [
              10.726185622824802,
              35.59183350300127
            ],
            [
              10.726887218011788,
              35.59216377813851
            ],
            [
              10.728145878549736,
              35.592561673211016
            ],
            [
              10.729959980607646,
              35.59295155929297
            ],
            [
              10.731729448783234,
              35.59341769247902
            ],
            [
              10.732010426131753,
              35.59356491191415
            ],
            [
              10.732474914764076,
              35.59363385025233
            ],
            [
              10.73359150249843,
              35.59388246678235
            ],
            [
              10.733996040416915,
              35.595464949521215
            ],
            [
              10.734238080318283,
              35.595953081053416
            ],
            [
              10.734291707869819,
              35.59629266257435
            ],
            [
              10.734216256328052,
              35.597087911330796
            ],
            [
              10.733906911611705,
              35.59777308367584
            ],
            [
              10.735129195064422,
              35.59862523585764
            ],
            [
              10.735900841307322,
              35.60005113913386
            ],
            [
              10.736042978217462,
              35.60020035446626
            ],
            [
              10.73624120479267,
              35.60080256605208
            ],
            [
              10.736577491217151,
              35.60136496456668
            ],
            [
              10.736674974142847,
              35.60159045896244
            ],
            [
              10.736932571630852,
              35.60279688025488
            ],
            [
              10.737117739364997,
              35.60279420314691
            ],
            [
              10.738203402005508,
              35.601606173628085
            ],
            [
              10.738697878326166,
              35.600918308776826
            ],
            [
              10.738879770355283,
              35.60076440750919
            ],
            [
              10.73906329744899,
              35.60068611676229
            ],
            [
              10.739106316514565,
              35.6005342251713
            ],
            [
              10.739872799949147,
              35.59957769750039
            ],
            [
              10.740002668965623,
              35.59915983370587
            ],
            [
              10.740617532823997,
              35.59975599694876
            ],
            [
              10.7408960920805,
              35.59978977834083
            ],
            [
              10.741744869246716,
              35.600496004145256
            ],
            [
              10.742114373831273,
              35.60045282982506
            ],
            [
              10.74239949158209,
              35.600789050247364
            ],
            [
              10.742677235428204,
              35.60078502207374
            ],
            [
              10.743052479049288,
              35.60100648202849
            ],
            [
              10.743237642055874,
              35.601003795633076
            ],
            [
              10.743799691903174,
              35.60129817707196
            ],
            [
              10.743844342510387,
              35.60122189462861
            ],
            [
              10.744449405280488,
              35.60136437991378
            ],
            [
              10.74501063320997,
              35.60162094392481
            ],
            [
              10.745294125445009,
              35.6018815464545
            ],
            [
              10.745573514598018,
              35.60195312200462
            ],
            [
              10.745623910872576,
              35.60214147569334
            ],
            [
              10.745583366491761,
              35.60240678499228
            ],
            [
              10.74581728729985,
              35.60251683770631
            ],
            [
              10.746142970690798,
              35.602587739192444
            ],
            [
              10.74678201557041,
              35.602162461127755
            ],
            [
              10.748379179106465,
              35.60108035576958
            ],
            [
              10.748599119190903,
              35.60054771474369
            ],
            [
              10.747628937955454,
              35.598519709131104
            ]
          ]
        ]
      }
    }
  ]
}
