{
  "type": "FeatureCollection",
  "name": "isie-best-effort-imada-tunis-souk-jedid-five-boundaries-20260924",
  "crs": {
    "type": "name",
    "properties": {
      "name": "urn:ogc:def:crs:OGC:1.3:CRS84"
    }
  },
  "features": [
    {
      "type": "Feature",
      "id": "isie:sector:115653",
      "properties": {
        "sourceId": "isie-best-effort-imada-tunis-souk-jedid-five-boundaries-20260924",
        "sourcePdfURL": "https://www.isie.tn/wp-content/uploads/2023/CartesCirconscriptionsElectoralesLocales2023/%D8%AA%D9%88%D9%86%D8%B3%202/%D8%A7%D9%84%D8%B9%D9%85%D8%B1%D8%A7%D9%86%20%D8%A7%D9%84%D8%A7%D8%B9%D9%84%D9%89/%D8%AD%D9%8A%20%D8%A8%D9%86%20%D8%AE%D9%84%D8%AF%D9%88%D9%86%20%D8%A7%D9%84%D8%AB%D8%A7%D9%86%D9%8A.pdf",
        "sourcePdfSha256": "cfb2dc51603a3b6dd4818f8f37966cef5a9b68ee6f2d0a0a3de026910e4d7f92",
        "officialCode": "115653",
        "delegationCode": "1156",
        "governorateCode": "11",
        "nameAr": "حي بن خلدون الثاني",
        "nameFr": "Cite ibn khaldoun ii",
        "geometryMethod": "Native ISIE GeoPDF red line-only continuous explicitly closed vector path on circonscription_isie2023, georeferenced through embedded GeoPDF controls; no raster tracing or geometry repair.",
        "sourceGeometrySha256": "0c91b0c54028bd68b315a09b639107a6ea0ab219d1af1227772ea72698b1db6d"
      },
      "geometry": {
        "type": "Polygon",
        "coordinates": [
          [
            [
              10.135647696586165,
              36.83543779318696
            ],
            [
              10.136194634171199,
              36.835006001879364
            ],
            [
              10.137645979601983,
              36.83423036126595
            ],
            [
              10.138759253240032,
              36.83365904223323
            ],
            [
              10.139059586815407,
              36.833467252973456
            ],
            [
              10.139292435792514,
              36.83332486053234
            ],
            [
              10.139989008871577,
              36.83276364957037
            ],
            [
              10.140637065069441,
              36.83199573623414
            ],
            [
              10.140887447359928,
              36.83149976750864
            ],
            [
              10.140849381277032,
              36.8314879494702
            ],
            [
              10.139935264627606,
              36.83116775940122
            ],
            [
              10.138549898590643,
              36.82971878487559
            ],
            [
              10.137219327267724,
              36.82890295446059
            ],
            [
              10.136989872126476,
              36.82875893083769
            ],
            [
              10.13701723696436,
              36.82855759278417
            ],
            [
              10.137162260042789,
              36.827593472489944
            ],
            [
              10.135961796332925,
              36.82686167711825
            ],
            [
              10.135946731517611,
              36.8268679154461
            ],
            [
              10.134016269524077,
              36.82803810809376
            ],
            [
              10.133785050687443,
              36.83036792384847
            ],
            [
              10.133785851278528,
              36.83042275484284
            ],
            [
              10.134852354323646,
              36.831838296332535
            ],
            [
              10.13488328683956,
              36.83188065089256
            ],
            [
              10.133852871635389,
              36.83397442865381
            ],
            [
              10.133635399362142,
              36.83517078091228
            ],
            [
              10.133735956539532,
              36.83530995718084
            ],
            [
              10.133767068462179,
              36.83536449561008
            ],
            [
              10.134211309750208,
              36.83516524185726
            ],
            [
              10.134279064798443,
              36.83513412409608
            ],
            [
              10.134731584541978,
              36.83550145269915
            ],
            [
              10.135184198340946,
              36.835874871801174
            ],
            [
              10.135191865280678,
              36.83588089116101
            ],
            [
              10.135647696586165,
              36.83543779318696
            ]
          ]
        ]
      }
    },
    {
      "type": "Feature",
      "id": "osm:relation:7201523",
      "properties": {
        "sourceId": "isie-best-effort-imada-tunis-souk-jedid-five-boundaries-20260924",
        "sourcePdfURL": "https://www.isie.tn/wp-content/uploads/2023/CartesCirconscriptionsElectoralesLocales2023/%D8%AA%D9%88%D9%86%D8%B3%202/%D8%A7%D9%84%D8%B9%D9%85%D8%B1%D8%A7%D9%86%20%D8%A7%D9%84%D8%A7%D8%B9%D9%84%D9%89/%D8%A7%D9%84%D8%B1%D9%85%D8%A7%D9%86%D8%A9.pdf",
        "sourcePdfSha256": "0df1089255ac1bde70a0d24c094fc010dc7093067e77a7f03b13a25b34c26c86",
        "officialCode": "115652",
        "delegationCode": "1156",
        "governorateCode": "11",
        "nameAr": "الرمانة",
        "nameFr": "El Romana",
        "geometryMethod": "Native ISIE GeoPDF red line-only continuous explicitly closed vector path on circonscription_isie2023, georeferenced through embedded GeoPDF controls; no raster tracing or geometry repair.",
        "sourceGeometrySha256": "ff534b3475944439e3ede44add945a986cd7c503e3428f390374aa12133076b8"
      },
      "geometry": {
        "type": "Polygon",
        "coordinates": [
          [
            [
              10.135962515675581,
              36.826862690370824
            ],
            [
              10.136144518802041,
              36.82576037842568
            ],
            [
              10.137522271116197,
              36.8246986180048
            ],
            [
              10.137875697824887,
              36.824578243408865
            ],
            [
              10.138187551592713,
              36.824553591036704
            ],
            [
              10.139206829475755,
              36.82466947645606
            ],
            [
              10.139277210111043,
              36.82469479930726
            ],
            [
              10.139542516513771,
              36.824791912512204
            ],
            [
              10.14049396893246,
              36.82538939571222
            ],
            [
              10.140504868988446,
              36.825397956997605
            ],
            [
              10.14104551046646,
              36.82554441865047
            ],
            [
              10.141952292629034,
              36.82603832782939
            ],
            [
              10.142495249448551,
              36.82633208102137
            ],
            [
              10.14251698418058,
              36.8263448708793
            ],
            [
              10.143129625252913,
              36.8255893758388
            ],
            [
              10.143156131003053,
              36.82556312297928
            ],
            [
              10.143631395158037,
              36.82497359996515
            ],
            [
              10.143620561886195,
              36.82496937129117
            ],
            [
              10.141381769262583,
              36.82329671708904
            ],
            [
              10.141370868502593,
              36.82328815588642
            ],
            [
              10.141360035589795,
              36.82328392699904
            ],
            [
              10.138125122181503,
              36.82159044563098
            ],
            [
              10.13491662213828,
              36.82503984623776
            ],
            [
              10.13359469744607,
              36.82692430591729
            ],
            [
              10.13398767793976,
              36.827960464601304
            ],
            [
              10.134021189035769,
              36.82803813811587
            ],
            [
              10.13595181763498,
              36.826867125640604
            ],
            [
              10.135962515675581,
              36.826862690370824
            ]
          ]
        ]
      }
    },
    {
      "type": "Feature",
      "id": "osm:relation:7201520",
      "properties": {
        "sourceId": "isie-best-effort-imada-tunis-souk-jedid-five-boundaries-20260924",
        "sourcePdfURL": "https://www.isie.tn/wp-content/uploads/2023/CartesCirconscriptionsElectoralesLocales2023/%D8%AA%D9%88%D9%86%D8%B3%202/%D8%A7%D9%84%D8%B9%D9%85%D8%B1%D8%A7%D9%86%20%D8%A7%D9%84%D8%A7%D8%B9%D9%84%D9%89/%D8%A3%D8%AD%D9%85%D8%AF%20%D8%A7%D9%84%D8%AA%D9%84%D9%8A%D9%84%D9%8A.pdf",
        "sourcePdfSha256": "3b86ba4813953951e45c15d49a3d3ad5de5e7b5094d4b7f804a2cb31499c42af",
        "officialCode": "115658",
        "delegationCode": "1156",
        "governorateCode": "11",
        "nameAr": "أحمد التليلي",
        "nameFr": "Ahmed Tlili",
        "geometryMethod": "Native ISIE GeoPDF red line-only continuous explicitly closed vector path on circonscription_isie2023, georeferenced through embedded GeoPDF controls; no raster tracing or geometry repair.",
        "sourceGeometrySha256": "22c7e3ae6539ff6843147e6460fdec89feb645483c7208b6393d62e5faa8aff7"
      },
      "geometry": {
        "type": "Polygon",
        "coordinates": [
          [
            [
              10.133766163796725,
              36.83536472923289
            ],
            [
              10.133730790157776,
              36.835309425684265
            ],
            [
              10.133633710911468,
              36.83517124857185
            ],
            [
              10.133858833534406,
              36.83397289748948
            ],
            [
              10.134884018789949,
              36.83187675756563
            ],
            [
              10.134848843484134,
              36.83183536202073
            ],
            [
              10.133782493075694,
              36.83041972976672
            ],
            [
              10.133790349631203,
              36.83036401704666
            ],
            [
              10.134016669987796,
              36.828032024433014
            ],
            [
              10.13398964907541,
              36.82795577741299
            ],
            [
              10.13359446692681,
              36.82691629970925
            ],
            [
              10.133070588848309,
              36.82777669342276
            ],
            [
              10.130408083788396,
              36.83148787834723
            ],
            [
              10.130382539969188,
              36.83151593855039
            ],
            [
              10.130382055821528,
              36.832093189472765
            ],
            [
              10.130378726509736,
              36.8330807995287
            ],
            [
              10.130383347967104,
              36.833407630700655
            ],
            [
              10.129815473129597,
              36.834219741333534
            ],
            [
              10.128951061514933,
              36.8354658400709
            ],
            [
              10.128967859813585,
              36.83604292842414
            ],
            [
              10.128971493641746,
              36.83630022033076
            ],
            [
              10.128993497203092,
              36.83724586232621
            ],
            [
              10.129624580597694,
              36.83723295845103
            ],
            [
              10.133766163796725,
              36.83536472923289
            ]
          ]
        ]
      }
    },
    {
      "type": "Feature",
      "id": "isie:sector:435958",
      "properties": {
        "sourceId": "isie-best-effort-imada-tunis-souk-jedid-five-boundaries-20260924",
        "sourcePdfURL": "https://www.isie.tn/wp-content/uploads/2023/CartesCirconscriptionsElectoralesLocales2023/%D8%B3%D9%8A%D8%AF%D9%8A%20%D8%A8%D9%88%D8%B2%D9%8A%D8%AF/%D8%B3%D9%88%D9%82%20%D8%A7%D9%84%D8%AC%D8%AF%D9%8A%D8%AF/%D8%A3%D9%88%D9%84%D8%A7%D8%AF%20%D8%A7%D9%84%D9%81%D8%A7%D9%84%D8%AD.pdf",
        "sourcePdfSha256": "edd854d4ba640d40fa63dd3088bd8867d705aae01b562c5ce23e4427ab91e7e2",
        "officialCode": "435958",
        "delegationCode": "4359",
        "governorateCode": "43",
        "nameAr": "أولاد الفالح",
        "nameFr": "Ouled el faleh",
        "geometryMethod": "Native ISIE GeoPDF red line-only continuous explicitly closed vector path on circonscription_isie2023, georeferenced through embedded GeoPDF controls; no raster tracing or geometry repair.",
        "sourceGeometrySha256": "85c40a65bc1317e270fb2c75aaa1400b12f3a6d7103e4de6e18304d2b0cbbc9e"
      },
      "geometry": {
        "type": "Polygon",
        "coordinates": [
          [
            [
              9.631085770579194,
              34.85110192130944
            ],
            [
              9.633368338758233,
              34.84822432764988
            ],
            [
              9.634909412933533,
              34.84718835548567
            ],
            [
              9.635583418582923,
              34.84640610406219
            ],
            [
              9.636064638664347,
              34.84512647834503
            ],
            [
              9.636207521885092,
              34.84406666887044
            ],
            [
              9.63577668853485,
              34.8421065536573
            ],
            [
              9.635270320065379,
              34.84014683200956
            ],
            [
              9.63563962972962,
              34.8390546867339
            ],
            [
              9.63626174125377,
              34.83646607040655
            ],
            [
              9.637263508476565,
              34.83412464669212
            ],
            [
              9.637251378532783,
              34.83256726573547
            ],
            [
              9.637795898407088,
              34.82972985544719
            ],
            [
              9.637069723731587,
              34.828643459142654
            ],
            [
              9.636120559485072,
              34.828025468198604
            ],
            [
              9.634490789504818,
              34.82731758084516
            ],
            [
              9.633204121636588,
              34.82701281702255
            ],
            [
              9.631202203637029,
              34.8270232549331
            ],
            [
              9.62984169249679,
              34.82693688279084
            ],
            [
              9.628588272775842,
              34.82604007155151
            ],
            [
              9.62827725032431,
              34.82488917033416
            ],
            [
              9.627963368646519,
              34.82336449995238
            ],
            [
              9.626438724890487,
              34.82156574815867
            ],
            [
              9.626430141976739,
              34.82044442997878
            ],
            [
              9.626420367563057,
              34.81916737254165
            ],
            [
              9.626404396064151,
              34.817080474185666
            ],
            [
              9.626999612291197,
              34.815893739291205
            ],
            [
              9.627484609330358,
              34.81511250422492
            ],
            [
              9.609144577485308,
              34.8171684078442
            ],
            [
              9.60906904182879,
              34.81716878729487
            ],
            [
              9.609031274000001,
              34.817168977002645
            ],
            [
              9.606755971220942,
              34.81593442569562
            ],
            [
              9.606261996427403,
              34.815531958271045
            ],
            [
              9.606223998565337,
              34.81550099915215
            ],
            [
              9.60614846438962,
              34.815501376774165
            ],
            [
              9.60531690031022,
              34.81541208364626
            ],
            [
              9.605241366202955,
              34.81541246070436
            ],
            [
              9.603958898722219,
              34.81563689922794
            ],
            [
              9.602977873668065,
              34.81576637824084
            ],
            [
              9.601089514870672,
              34.815775754395894
            ],
            [
              9.599881879441739,
              34.81590633168144
            ],
            [
              9.599128589089792,
              34.81619039831711
            ],
            [
              9.59928627542837,
              34.81709293792325
            ],
            [
              9.599439400865442,
              34.81737252292396
            ],
            [
              9.599593893848922,
              34.8178389955711
            ],
            [
              9.593719474538684,
              34.82026638068762
            ],
            [
              9.59324293343538,
              34.8222622504625
            ],
            [
              9.589888104026326,
              34.82844612347759
            ],
            [
              9.589888328727143,
              34.8284772688121
            ],
            [
              9.591912284589432,
              34.83672187832254
            ],
            [
              9.593450719156241,
              34.861290816870586
            ],
            [
              9.594848875214984,
              34.86128396131717
            ],
            [
              9.599647490262257,
              34.86119801232171
            ],
            [
              9.604519592191199,
              34.860831167562935
            ],
            [
              9.60931560808126,
              34.8604022126377
            ],
            [
              9.613128168423296,
              34.859853458158035
            ],
            [
              9.61561719481978,
              34.85918671399472
            ],
            [
              9.615768107996333,
              34.859154798447946
            ],
            [
              9.618364794431205,
              34.8577398837611
            ],
            [
              9.620584244670212,
              34.85642028990146
            ],
            [
              9.621448104571448,
              34.85573059117529
            ],
            [
              9.626491988675692,
              34.85318157187909
            ],
            [
              9.631085770579194,
              34.85110192130944
            ]
          ]
        ]
      }
    },
    {
      "type": "Feature",
      "id": "osm:relation:7169675",
      "properties": {
        "sourceId": "isie-best-effort-imada-tunis-souk-jedid-five-boundaries-20260924",
        "sourcePdfURL": "https://www.isie.tn/wp-content/uploads/2023/CartesCirconscriptionsElectoralesLocales2023/%D8%B3%D9%8A%D8%AF%D9%8A%20%D8%A8%D9%88%D8%B2%D9%8A%D8%AF/%D8%B3%D9%88%D9%82%20%D8%A7%D9%84%D8%AC%D8%AF%D9%8A%D8%AF/%D8%A7%D9%84%D8%B1%D9%85%D9%8A%D9%84%D9%8A%D8%A9.pdf",
        "sourcePdfSha256": "07054199838177bf16a443b213e6ad4647fee55243a9252e231cf1ca882fec80",
        "officialCode": "435955",
        "delegationCode": "4359",
        "governorateCode": "43",
        "nameAr": "الرميلية",
        "nameFr": "Erremelia",
        "geometryMethod": "Pinned 2026-09-05 OSM الرميلية polygon minus the native ISIE أولاد الفالح candidate, computed in EPSG:32632 and transformed to WGS84; mixed-source derived geometry.",
        "sourceGeometrySha256": "ab8cb31d2be09b9c8861e46a12d34c377265e82d7f0c2506ed1bce8c0a1a3453"
      },
      "geometry": {
        "type": "MultiPolygon",
        "coordinates": [
          [
            [
              [
                9.62748,
                34.8151
              ],
              [
                9.627697,
                34.81473
              ],
              [
                9.629579,
                34.81264999999999
              ],
              [
                9.630378,
                34.81056000000001
              ],
              [
                9.630593,
                34.80938
              ],
              [
                9.630438,
                34.80829
              ],
              [
                9.630654,
                34.80681
              ],
              [
                9.631398,
                34.8056
              ],
              [
                9.631878,
                34.80411999999999
              ],
              [
                9.632474,
                34.80088000000001
              ],
              [
                9.632343,
                34.800470000000004
              ],
              [
                9.632123,
                34.79934
              ],
              [
                9.631899,
                34.799200000000006
              ],
              [
                9.631052,
                34.79887999999999
              ],
              [
                9.630461,
                34.79791999999998
              ],
              [
                9.63037,
                34.7975
              ],
              [
                9.629982,
                34.79710000000001
              ],
              [
                9.629421,
                34.79670999999999
              ],
              [
                9.628922,
                34.79597
              ],
              [
                9.629242,
                34.79491999999999
              ],
              [
                9.629646,
                34.79433000000001
              ],
              [
                9.629773,
                34.79413999999999
              ],
              [
                9.62976,
                34.79294999999999
              ],
              [
                9.629923,
                34.79257
              ],
              [
                9.630232,
                34.79230999999999
              ],
              [
                9.630317,
                34.79212
              ],
              [
                9.630228,
                34.79183
              ],
              [
                9.630261,
                34.79125
              ],
              [
                9.63005,
                34.79039
              ],
              [
                9.630292,
                34.788850000000004
              ],
              [
                9.631357,
                34.78572
              ],
              [
                9.630867,
                34.78565
              ],
              [
                9.630228,
                34.786
              ],
              [
                9.629957,
                34.78596
              ],
              [
                9.629269,
                34.78523
              ],
              [
                9.628342,
                34.78453
              ],
              [
                9.628278,
                34.784319999999994
              ],
              [
                9.62749,
                34.78365
              ],
              [
                9.626696,
                34.78356
              ],
              [
                9.625931000000001,
                34.78296
              ],
              [
                9.625628,
                34.782639999999994
              ],
              [
                9.6259,
                34.782379999999996
              ],
              [
                9.624947,
                34.78148
              ],
              [
                9.624972,
                34.780539999999995
              ],
              [
                9.624719,
                34.78019
              ],
              [
                9.624406,
                34.779579999999996
              ],
              [
                9.624073,
                34.77922
              ],
              [
                9.623509,
                34.77850999999999
              ],
              [
                9.622452,
                34.777190000000004
              ],
              [
                9.621243,
                34.77725
              ],
              [
                9.619755,
                34.77611999999999
              ],
              [
                9.619123,
                34.77562000000001
              ],
              [
                9.619098,
                34.77503999999998
              ],
              [
                9.618606,
                34.77416999999999
              ],
              [
                9.617976,
                34.7733
              ],
              [
                9.617638,
                34.77275
              ],
              [
                9.617528,
                34.77233
              ],
              [
                9.616881,
                34.7715
              ],
              [
                9.616558,
                34.77111
              ],
              [
                9.615786,
                34.77078
              ],
              [
                9.615346,
                34.77044000000001
              ],
              [
                9.614896,
                34.77033
              ],
              [
                9.614747,
                34.77020000000001
              ],
              [
                9.614628,
                34.76969999999999
              ],
              [
                9.613982,
                34.76906999999999
              ],
              [
                9.613847,
                34.76871999999999
              ],
              [
                9.613866,
                34.76826000000001
              ],
              [
                9.613726,
                34.76789
              ],
              [
                9.613994,
                34.767039999999994
              ],
              [
                9.614311,
                34.76556
              ],
              [
                9.61431,
                34.764950000000006
              ],
              [
                9.613722,
                34.76415999999999
              ],
              [
                9.613576,
                34.76395
              ],
              [
                9.613393,
                34.76350000000001
              ],
              [
                9.613235,
                34.76336
              ],
              [
                9.612842,
                34.763349999999996
              ],
              [
                9.612417,
                34.76256
              ],
              [
                9.612186,
                34.762069999999994
              ],
              [
                9.612050999999997,
                34.76145
              ],
              [
                9.612122,
                34.76109999999999
              ],
              [
                9.611922,
                34.760999999999996
              ],
              [
                9.61168,
                34.76084
              ],
              [
                9.611076,
                34.76061
              ],
              [
                9.609986,
                34.76043
              ],
              [
                9.607393,
                34.75970000000001
              ],
              [
                9.595617,
                34.75621000000002
              ],
              [
                9.590569,
                34.75471999999999
              ],
              [
                9.589614,
                34.75404999999999
              ],
              [
                9.588951,
                34.75419000000001
              ],
              [
                9.588062,
                34.75358000000001
              ],
              [
                9.585864,
                34.75237
              ],
              [
                9.582874,
                34.7506
              ],
              [
                9.581058,
                34.74961
              ],
              [
                9.574476,
                34.74583
              ],
              [
                9.564643,
                34.75207999999999
              ],
              [
                9.55935,
                34.75648000000001
              ],
              [
                9.552243,
                34.77498
              ],
              [
                9.548653,
                34.77443999999999
              ],
              [
                9.541964,
                34.77254
              ],
              [
                9.541626,
                34.77755999999999
              ],
              [
                9.541747,
                34.77854
              ],
              [
                9.541823,
                34.77899
              ],
              [
                9.541734,
                34.77974
              ],
              [
                9.540794,
                34.781459999999996
              ],
              [
                9.540644,
                34.78153
              ],
              [
                9.540918000000001,
                34.782509999999995
              ],
              [
                9.541238,
                34.783500000000004
              ],
              [
                9.541344,
                34.783739999999995
              ],
              [
                9.541365,
                34.78399999999999
              ],
              [
                9.54139,
                34.78432000000001
              ],
              [
                9.541448000000003,
                34.78521
              ],
              [
                9.5415,
                34.78594999999999
              ],
              [
                9.541568000000002,
                34.78616
              ],
              [
                9.541665000000002,
                34.78638000000001
              ],
              [
                9.541963,
                34.78715
              ],
              [
                9.54209,
                34.78752999999999
              ],
              [
                9.542009,
                34.7879
              ],
              [
                9.542033,
                34.78832
              ],
              [
                9.542171,
                34.78861
              ],
              [
                9.542413000000002,
                34.788819999999994
              ],
              [
                9.542518,
                34.78899
              ],
              [
                9.542688,
                34.78940999999999
              ],
              [
                9.542986000000003,
                34.79011
              ],
              [
                9.543552,
                34.79092
              ],
              [
                9.543845,
                34.79124
              ],
              [
                9.544386,
                34.79188
              ],
              [
                9.544513,
                34.79208
              ],
              [
                9.544514000000001,
                34.792210000000004
              ],
              [
                9.544452,
                34.79261000000001
              ],
              [
                9.544875,
                34.79469
              ],
              [
                9.543458,
                34.79608
              ],
              [
                9.541966,
                34.79868999999999
              ],
              [
                9.541117,
                34.80023
              ],
              [
                9.540628,
                34.80104999999999
              ],
              [
                9.540263,
                34.801579999999994
              ],
              [
                9.538978,
                34.803309999999996
              ],
              [
                9.538445,
                34.80394
              ],
              [
                9.53819,
                34.80427
              ],
              [
                9.538078,
                34.8044
              ],
              [
                9.537561,
                34.80505
              ],
              [
                9.537148,
                34.80557
              ],
              [
                9.536588,
                34.80629
              ],
              [
                9.53613,
                34.806839999999994
              ],
              [
                9.535366,
                34.807869999999994
              ],
              [
                9.534632,
                34.80878
              ],
              [
                9.534211,
                34.8096
              ],
              [
                9.534072,
                34.81005
              ],
              [
                9.533969,
                34.81058
              ],
              [
                9.533995,
                34.81158
              ],
              [
                9.534048,
                34.81196
              ],
              [
                9.534297,
                34.81343999999999
              ],
              [
                9.534448,
                34.814389999999996
              ],
              [
                9.530705000000001,
                34.81488
              ],
              [
                9.527564,
                34.815799999999996
              ],
              [
                9.524478,
                34.818979999999996
              ],
              [
                9.524196,
                34.82212
              ],
              [
                9.523922,
                34.82361
              ],
              [
                9.523831,
                34.828889999999994
              ],
              [
                9.533645,
                34.82724999999999
              ],
              [
                9.541938,
                34.83625000000001
              ],
              [
                9.544827,
                34.83999
              ],
              [
                9.547595,
                34.842169999999996
              ],
              [
                9.550683,
                34.84270999999999
              ],
              [
                9.551522,
                34.84464
              ],
              [
                9.55226,
                34.84539
              ],
              [
                9.55312,
                34.84567999999999
              ],
              [
                9.554227,
                34.84584
              ],
              [
                9.554863,
                34.8462
              ],
              [
                9.555588,
                34.84944000000001
              ],
              [
                9.559947000000001,
                34.85136
              ],
              [
                9.56703,
                34.852529999999994
              ],
              [
                9.568558,
                34.85419000000001
              ],
              [
                9.570059,
                34.85485
              ],
              [
                9.571189999999998,
                34.855740000000004
              ],
              [
                9.575792,
                34.85723
              ],
              [
                9.580727,
                34.859120000000004
              ],
              [
                9.591072,
                34.861129999999996
              ],
              [
                9.592473,
                34.8613
              ],
              [
                9.593467,
                34.8613
              ],
              [
                9.594845,
                34.86129999999999
              ],
              [
                9.599654,
                34.86121
              ],
              [
                9.60441337557985,
                34.86083916725332
              ],
              [
                9.599647490262257,
                34.8611980123217
              ],
              [
                9.594848875214984,
                34.86128396131718
              ],
              [
                9.593450719156241,
                34.86129081687058
              ],
              [
                9.591912284589432,
                34.83672187832254
              ],
              [
                9.589888328727143,
                34.8284772688121
              ],
              [
                9.589888104026326,
                34.82844612347759
              ],
              [
                9.593242933435382,
                34.8222622504625
              ],
              [
                9.593719474538684,
                34.82026638068762
              ],
              [
                9.599593893848922,
                34.8178389955711
              ],
              [
                9.599439400865442,
                34.81737252292396
              ],
              [
                9.59928627542837,
                34.81709293792325
              ],
              [
                9.599128589089792,
                34.81619039831712
              ],
              [
                9.599881879441739,
                34.81590633168144
              ],
              [
                9.601089514870672,
                34.81577575439589
              ],
              [
                9.602977873668065,
                34.81576637824084
              ],
              [
                9.603958898722219,
                34.81563689922794
              ],
              [
                9.605241366202955,
                34.81541246070435
              ],
              [
                9.60531690031022,
                34.81541208364626
              ],
              [
                9.60614846438962,
                34.81550137677416
              ],
              [
                9.606223998565337,
                34.81550099915216
              ],
              [
                9.606261996427403,
                34.815531958271045
              ],
              [
                9.606755971220942,
                34.81593442569562
              ],
              [
                9.609031274000001,
                34.817168977002645
              ],
              [
                9.60906904182879,
                34.81716878729486
              ],
              [
                9.609144577485308,
                34.8171684078442
              ],
              [
                9.627471863295485,
                34.81511393403971
              ],
              [
                9.62748,
                34.8151
              ]
            ]
          ],
          [
            [
              [
                9.626422,
                34.81708
              ],
              [
                9.627007,
                34.81591
              ],
              [
                9.627283984736787,
                34.81543567308625
              ],
              [
                9.626999612291195,
                34.8158937392912
              ],
              [
                9.626404396064151,
                34.817080474185666
              ],
              [
                9.626416639991632,
                34.81868033266767
              ],
              [
                9.626422,
                34.81708
              ]
            ]
          ],
          [
            [
              [
                9.628297,
                34.82488
              ],
              [
                9.627985,
                34.82336000000001
              ],
              [
                9.62646,
                34.82156999999999
              ],
              [
                9.626439,
                34.82045999999998
              ],
              [
                9.62642415325242,
                34.819661994100066
              ],
              [
                9.626430141976739,
                34.82044442997878
              ],
              [
                9.626438724890487,
                34.821565748158655
              ],
              [
                9.627963368646519,
                34.82336449995238
              ],
              [
                9.62827725032431,
                34.82488917033416
              ],
              [
                9.628490307885494,
                34.82567756791342
              ],
              [
                9.628297,
                34.82488
              ]
            ]
          ],
          [
            [
              [
                9.63122,
                34.82702
              ],
              [
                9.629848,
                34.826930000000004
              ],
              [
                9.62943725792616,
                34.82664751684483
              ],
              [
                9.62984169249679,
                34.82693688279084
              ],
              [
                9.631202203637029,
                34.8270232549331
              ],
              [
                9.631530129124092,
                34.827021547400506
              ],
              [
                9.63122,
                34.82702
              ]
            ]
          ],
          [
            [
              [
                9.635643,
                34.83904999999999
              ],
              [
                9.636259,
                34.83648
              ],
              [
                9.63727,
                34.83413
              ],
              [
                9.637275,
                34.83256999999999
              ],
              [
                9.637813000000001,
                34.829739999999994
              ],
              [
                9.637077,
                34.828649999999996
              ],
              [
                9.637071903977887,
                34.828646720958325
              ],
              [
                9.637795898407088,
                34.82972985544719
              ],
              [
                9.637251378532783,
                34.83256726573547
              ],
              [
                9.637263508476565,
                34.83412464669212
              ],
              [
                9.63626174125377,
                34.83646607040655
              ],
              [
                9.63563962972962,
                34.8390546867339
              ],
              [
                9.63549218282551,
                34.83949072932641
              ],
              [
                9.635643,
                34.83904999999999
              ]
            ]
          ],
          [
            [
              [
                9.636208,
                34.84405999999999
              ],
              [
                9.635792,
                34.8421
              ],
              [
                9.635271158878385,
                34.840144351453446
              ],
              [
                9.635270320065379,
                34.840146832009566
              ],
              [
                9.63577668853485,
                34.8421065536573
              ],
              [
                9.636207329467535,
                34.844065793471394
              ],
              [
                9.636208,
                34.84405999999999
              ]
            ]
          ],
          [
            [
              [
                9.635593,
                34.84640999999999
              ],
              [
                9.636083,
                34.84514
              ],
              [
                9.636205446230665,
                34.84408206483299
              ],
              [
                9.636064638664347,
                34.84512647834502
              ],
              [
                9.635583418582923,
                34.84640610406219
              ],
              [
                9.635095214295829,
                34.846972716136406
              ],
              [
                9.635593,
                34.84640999999999
              ]
            ]
          ],
          [
            [
              [
                9.621472,
                34.85575
              ],
              [
                9.626498,
                34.85318000000001
              ],
              [
                9.631105,
                34.85112
              ],
              [
                9.633368,
                34.84823999999999
              ],
              [
                9.634676998806162,
                34.84734459653037
              ],
              [
                9.633368338758233,
                34.84822432764988
              ],
              [
                9.631085770579194,
                34.85110192130944
              ],
              [
                9.626491988675692,
                34.85318157187909
              ],
              [
                9.621448104571448,
                34.85573059117528
              ],
              [
                9.620849084267144,
                34.856208845987744
              ],
              [
                9.621472,
                34.85575
              ]
            ]
          ],
          [
            [
              [
                9.609341,
                34.86039999999999
              ],
              [
                9.61315,
                34.85986
              ],
              [
                9.615608,
                34.85919
              ],
              [
                9.615632309011344,
                34.85918351761214
              ],
              [
                9.61561719481978,
                34.859186713994724
              ],
              [
                9.613128168423296,
                34.859853458158035
              ],
              [
                9.60931560808126,
                34.860402212637695
              ],
              [
                9.607967816968127,
                34.86052277840413
              ],
              [
                9.609341,
                34.86039999999999
              ]
            ]
          ]
        ]
      }
    }
  ]
}
