{
  "type": "FeatureCollection",
  "sourceId": "isie-local-sectors-2023-soukra-amra-two-whole",
  "features": [
    {
      "type": "Feature",
      "id": "osm:relation:7114902",
      "properties": {
        "id": "osm:relation:7114902",
        "kind": "sector",
        "sourceId": "isie-local-sectors-2023-soukra-amra-two-whole",
        "officialCode": "125253",
        "nameAr": "البساتين",
        "nameFr": "El Bassatine",
        "governorateCode": "12",
        "governorateAr": "أريانة",
        "governorateFr": "Ariana",
        "delegationCode": "1252",
        "parentAr": "سكرة",
        "parentFr": "Soukra",
        "sourcePdfURL": "https://www.isie.tn/wp-content/uploads/2023/CartesCirconscriptionsElectoralesLocales2023/أريانة/سكرة/البساتين.pdf",
        "sourcePdfSha256": "5005a33e933838323d9bf269995c1df38b0ce9aed2ab4b41c61b984ac8f2b0b3",
        "sourcePdfFile": "official/soukra-amra-two-whole-20260920/sources/soukra-bassatine.pdf",
        "sourcePdfPage": 1,
        "sourceDrawingIndex": 491,
        "sourceVectorLayer": "circonscription_isie2023",
        "sourceCrsEpsg": 32632,
        "nativeVertexCount": 149,
        "nativeContinuousExplicitlyClosed": true,
        "nativeGeometryValid": true,
        "wgs84Bounds": [
          10.216316987546843,
          36.86420011253401,
          10.245543230008067,
          36.887434163067056
        ],
        "geometryPolicy": "Exact unchanged saved native whole path, no repair/snap/cut/fill. Shared registration overlap and external source conflicts remain.",
        "qualification": []
      },
      "geometry": {
        "type": "Polygon",
        "coordinates": [
          [
            [
              10.23652983467132,
              36.88227129628491
            ],
            [
              10.236706207448513,
              36.88225366419508
            ],
            [
              10.23719299032087,
              36.88201198886317
            ],
            [
              10.238027374812505,
              36.881419720980375
            ],
            [
              10.239288355786906,
              36.88050755607775
            ],
            [
              10.24014207850915,
              36.879899299874346
            ],
            [
              10.241131354626157,
              36.87917921853871
            ],
            [
              10.241655295423017,
              36.87881098025707
            ],
            [
              10.24204314499657,
              36.87852302790423
            ],
            [
              10.242548999221784,
              36.87824958941015
            ],
            [
              10.242938650970371,
              36.87807199703341
            ],
            [
              10.243309447046013,
              36.87794190887315
            ],
            [
              10.24358212368429,
              36.877812861861486
            ],
            [
              10.243930457721278,
              36.87750955428058
            ],
            [
              10.244410736577327,
              36.87687369726987
            ],
            [
              10.244698638580592,
              36.87647641662741
            ],
            [
              10.245543230008067,
              36.87531631024269
            ],
            [
              10.245166506269639,
              36.87508378453833
            ],
            [
              10.244889193662205,
              36.87492904625989
            ],
            [
              10.244770935935911,
              36.87489876591596
            ],
            [
              10.244593549515837,
              36.87485334517582
            ],
            [
              10.244043577746499,
              36.87482765267815
            ],
            [
              10.243140382756115,
              36.874805708790845
            ],
            [
              10.242335044699677,
              36.874766950792534
            ],
            [
              10.241824578660612,
              36.87475659765379
            ],
            [
              10.24166759043205,
              36.87475826276061
            ],
            [
              10.24117648718671,
              36.87473193260473
            ],
            [
              10.240743740019544,
              36.874673444225
            ],
            [
              10.240428480512165,
              36.874597941950526
            ],
            [
              10.240172603205146,
              36.87455334486381
            ],
            [
              10.23971843405202,
              36.87438469889174
            ],
            [
              10.237567417516763,
              36.87366632299923
            ],
            [
              10.23707401261122,
              36.873498080232025
            ],
            [
              10.236481211330583,
              36.873252040867904
            ],
            [
              10.23618481542089,
              36.87312902001133
            ],
            [
              10.235473257725463,
              36.87282115531697
            ],
            [
              10.234663334505258,
              36.87249855488778
            ],
            [
              10.234445688965192,
              36.87239046793305
            ],
            [
              10.233733888947768,
              36.872066825002335
            ],
            [
              10.233338106699017,
              36.87186600121291
            ],
            [
              10.232447154641422,
              36.87138655020267
            ],
            [
              10.232229515308775,
              36.871278459052334
            ],
            [
              10.231498367557016,
              36.87097077639525
            ],
            [
              10.231122219274472,
              36.87076973854619
            ],
            [
              10.22825172575156,
              36.869238773435434
            ],
            [
              10.22765516690667,
              36.86875619787396
            ],
            [
              10.227552727900704,
              36.86848920072591
            ],
            [
              10.227469658661892,
              36.86820623145991
            ],
            [
              10.227260966063685,
              36.867435745683466
            ],
            [
              10.227176879397264,
              36.86708971250512
            ],
            [
              10.227134836353828,
              36.86691669521282
            ],
            [
              10.227049223918044,
              36.86647606442234
            ],
            [
              10.22690423936885,
              36.866004516644175
            ],
            [
              10.226803588013517,
              36.86584788502605
            ],
            [
              10.226724340965344,
              36.865801408752915
            ],
            [
              10.225716281347138,
              36.865354669529715
            ],
            [
              10.225301187368347,
              36.8651697880895
            ],
            [
              10.224905968893149,
              36.865000466125856
            ],
            [
              10.224708489006165,
              36.864923690424334
            ],
            [
              10.223028773040733,
              36.86420011253401
            ],
            [
              10.222914344354862,
              36.86440630405239
            ],
            [
              10.222876370405025,
              36.86448554538534
            ],
            [
              10.22253206753528,
              36.865041054078105
            ],
            [
              10.222091934281917,
              36.86573947992517
            ],
            [
              10.22193901830713,
              36.865993376395956
            ],
            [
              10.221728503877795,
              36.866326721132545
            ],
            [
              10.22151621496706,
              36.86654970155743
            ],
            [
              10.221075556733371,
              36.86721659258386
            ],
            [
              10.220806677035633,
              36.86758208102438
            ],
            [
              10.220729708878743,
              36.86767749726754
            ],
            [
              10.22070983380187,
              36.86766193562135
            ],
            [
              10.220434622143504,
              36.86763326757903
            ],
            [
              10.220041679513951,
              36.86760582608172
            ],
            [
              10.219962939021668,
              36.86759087785676
            ],
            [
              10.219864830565085,
              36.867591900349
            ],
            [
              10.219707602696994,
              36.867577769896066
            ],
            [
              10.219592149147697,
              36.86772089320385
            ],
            [
              10.219091336937483,
              36.86830955774099
            ],
            [
              10.218744713848816,
              36.868723159345514
            ],
            [
              10.21837871750855,
              36.86915272918789
            ],
            [
              10.21809145930921,
              36.86959724742945
            ],
            [
              10.217899278592594,
              36.869851550000334
            ],
            [
              10.21780293469796,
              36.86996293355109
            ],
            [
              10.217745330333216,
              36.870042377480125
            ],
            [
              10.217547338129123,
              36.86993405479909
            ],
            [
              10.21752923107734,
              36.870028856672434
            ],
            [
              10.217432128787038,
              36.870092942392205
            ],
            [
              10.217335279676584,
              36.87017279298299
            ],
            [
              10.217258303797475,
              36.87026820707194
            ],
            [
              10.216797208481387,
              36.870887989414385
            ],
            [
              10.216508925280374,
              36.871269437475554
            ],
            [
              10.216316987546843,
              36.871539503884556
            ],
            [
              10.216376360923318,
              36.871570424685956
            ],
            [
              10.219676653107037,
              36.87298681570345
            ],
            [
              10.219933526016888,
              36.87309452100991
            ],
            [
              10.21989554491396,
              36.87317376141203
            ],
            [
              10.218225223816587,
              36.87549341236004
            ],
            [
              10.21711204165886,
              36.87706611138836
            ],
            [
              10.217035060485406,
              36.877161525338465
            ],
            [
              10.217255473664288,
              36.8774430719946
            ],
            [
              10.217355616473673,
              36.87756818160646
            ],
            [
              10.217516653268659,
              36.87781880887029
            ],
            [
              10.2176774392692,
              36.878053668271164
            ],
            [
              10.217718962521467,
              36.878195156332545
            ],
            [
              10.217781373196507,
              36.87841527019256
            ],
            [
              10.217823149563449,
              36.87857252446998
            ],
            [
              10.21786442150418,
              36.878698246182374
            ],
            [
              10.21800710137629,
              36.87902790686764
            ],
            [
              10.2183123435442,
              36.8797027909024
            ],
            [
              10.218759013873635,
              36.88062850226017
            ],
            [
              10.21892183258725,
              36.88098948974328
            ],
            [
              10.219023753729154,
              36.88122496152016
            ],
            [
              10.219026283520648,
              36.88138262271893
            ],
            [
              10.219028813353178,
              36.88154028524972
            ],
            [
              10.218991586303394,
              36.881666824104414
            ],
            [
              10.218907625695474,
              36.882550753567166
            ],
            [
              10.218890022893724,
              36.882677087984455
            ],
            [
              10.218758461250717,
              36.88304114114114
            ],
            [
              10.218685016538439,
              36.88335728365
            ],
            [
              10.218443283404344,
              36.884195548783644
            ],
            [
              10.21835198030408,
              36.884622257809006
            ],
            [
              10.21841667537434,
              36.88498426719324
            ],
            [
              10.218638634488084,
              36.88536040788986
            ],
            [
              10.218920993368014,
              36.88583053365177
            ],
            [
              10.220551884694258,
              36.88470971718243
            ],
            [
              10.221483039974244,
              36.884021941995805
            ],
            [
              10.221881646361599,
              36.88439623413599
            ],
            [
              10.222020296627935,
              36.884473629543116
            ],
            [
              10.222277973501578,
              36.88462862748038
            ],
            [
              10.222515262317705,
              36.88473653119341
            ],
            [
              10.223089245865776,
              36.8850301413973
            ],
            [
              10.223445818494328,
              36.885231408474375
            ],
            [
              10.224281049419353,
              36.88590073576082
            ],
            [
              10.224541275490123,
              36.886213388011754
            ],
            [
              10.22543515261264,
              36.886866324423835
            ],
            [
              10.225514168337638,
              36.88689703479156
            ],
            [
              10.227370297605479,
              36.88635721202892
            ],
            [
              10.22760963873529,
              36.88659123480306
            ],
            [
              10.228428096469438,
              36.887434163067056
            ],
            [
              10.23015650074294,
              36.88628065460781
            ],
            [
              10.231747469004267,
              36.8851285689122
            ],
            [
              10.23281616383732,
              36.88445502706856
            ],
            [
              10.233765036131924,
              36.883656587844804
            ],
            [
              10.234249023300835,
              36.883241496511424
            ],
            [
              10.234617811710004,
              36.88298530691268
            ],
            [
              10.235065612681897,
              36.882759818911644
            ],
            [
              10.235729293878057,
              36.8825320517811
            ],
            [
              10.236471214777177,
              36.88228768435527
            ],
            [
              10.23652983467132,
              36.88227129628491
            ]
          ]
        ]
      }
    },
    {
      "type": "Feature",
      "id": "osm:relation:7169582",
      "properties": {
        "id": "osm:relation:7169582",
        "kind": "sector",
        "sourceId": "isie-local-sectors-2023-soukra-amra-two-whole",
        "officialCode": "435255",
        "nameAr": "العامرة",
        "nameFr": "El Amra",
        "governorateCode": "43",
        "governorateAr": "سيدي بوزيد",
        "governorateFr": "Sidi bouzid",
        "delegationCode": "4352",
        "parentAr": "سيدي بوزيد الشرقية",
        "parentFr": "Sidi bouzid est",
        "sourcePdfURL": "https://www.isie.tn/wp-content/uploads/2023/CartesCirconscriptionsElectoralesLocales2023/سيدي بوزيد/سيدي بوزيد الشرقية/العامرة - (سيدي بوزيد الشرقية).pdf",
        "sourcePdfSha256": "24b62f227bedb478e7f4a5c1987408c01bc509908fd927259988fca2a7ee9d94",
        "sourcePdfFile": "official/soukra-amra-two-whole-20260920/sources/amra-est.pdf",
        "sourcePdfPage": 1,
        "sourceDrawingIndex": 50,
        "sourceVectorLayer": "circonscription_isie2023",
        "sourceCrsEpsg": 32632,
        "nativeVertexCount": 76,
        "nativeContinuousExplicitlyClosed": true,
        "nativeGeometryValid": true,
        "wgs84Bounds": [
          9.608843255839588,
          35.10569018377465,
          9.708706377292787,
          35.20014539846941
        ],
        "geometryPolicy": "Exact unchanged saved native whole path, no repair/snap/cut/fill. Shared registration overlap and external source conflicts remain.",
        "qualification": []
      },
      "geometry": {
        "type": "Polygon",
        "coordinates": [
          [
            [
              9.701598248311143,
              35.1848999211337
            ],
            [
              9.702432143221989,
              35.182142699266485
            ],
            [
              9.703877525300962,
              35.17797371753969
            ],
            [
              9.704317081669425,
              35.17470671536377
            ],
            [
              9.70452274518735,
              35.1714410705302
            ],
            [
              9.704724522889139,
              35.16772738975771
            ],
            [
              9.705464711886497,
              35.163178444280696
            ],
            [
              9.705904689243289,
              35.15997543580161
            ],
            [
              9.706104169127482,
              35.15600572384104
            ],
            [
              9.706020138095807,
              35.155302116579634
            ],
            [
              9.705761964778256,
              35.15248724109913
            ],
            [
              9.705676833814527,
              35.151655621525634
            ],
            [
              9.706125055676747,
              35.149412688906885
            ],
            [
              9.706728559965502,
              35.14710483575227
            ],
            [
              9.70748289397133,
              35.14422001848818
            ],
            [
              9.708706377292787,
              35.14152446386396
            ],
            [
              9.70799062237337,
              35.139864432012665
            ],
            [
              9.707515317782729,
              35.138971090724326
            ],
            [
              9.705927000332006,
              35.13552390485862
            ],
            [
              9.704720099259724,
              35.13111433076583
            ],
            [
              9.702568494118944,
              35.12555807448722
            ],
            [
              9.698874992478583,
              35.12186698599576
            ],
            [
              9.698086632814665,
              35.120783387484074
            ],
            [
              9.697611550256866,
              35.119890007412494
            ],
            [
              9.69611883838298,
              35.11842640675442
            ],
            [
              9.69494212826574,
              35.117473049539505
            ],
            [
              9.69383682438426,
              35.11575115676542
            ],
            [
              9.692805124831839,
              35.113516749509174
            ],
            [
              9.691160070463864,
              35.11243802701549
            ],
            [
              9.690063562859345,
              35.11174019419224
            ],
            [
              9.686370177933453,
              35.107920684067906
            ],
            [
              9.684637764779952,
              35.10569018377465
            ],
            [
              9.654538504834996,
              35.111425946779306
            ],
            [
              9.653373121737802,
              35.11181631820103
            ],
            [
              9.652974946707884,
              35.11073030796144
            ],
            [
              9.652586998807159,
              35.11092443493113
            ],
            [
              9.652586487644081,
              35.11086042799808
            ],
            [
              9.652429161720974,
              35.11066924930993
            ],
            [
              9.652351265496788,
              35.1106696702924
            ],
            [
              9.651882866902369,
              35.11054418124614
            ],
            [
              9.651724522271934,
              35.11022498770941
            ],
            [
              9.648775666829598,
              35.111649086028514
            ],
            [
              9.639231380539906,
              35.116436715907945
            ],
            [
              9.63779122200356,
              35.1215650924638
            ],
            [
              9.636857843847302,
              35.121762050419115
            ],
            [
              9.635923956147998,
              35.12189499423642
            ],
            [
              9.626041044492712,
              35.123418884529904
            ],
            [
              9.620749579528521,
              35.12427834632153
            ],
            [
              9.615847073350272,
              35.125071583276224
            ],
            [
              9.612345909325034,
              35.12572949375884
            ],
            [
              9.608998601844554,
              35.126130493387485
            ],
            [
              9.608843255839588,
              35.1261952816734
            ],
            [
              9.612797431793155,
              35.13398442109473
            ],
            [
              9.615193363217989,
              35.141717369825614
            ],
            [
              9.624922430061481,
              35.17066352117751
            ],
            [
              9.626502164554447,
              35.17334370492987
            ],
            [
              9.628306500047747,
              35.174806523046975
            ],
            [
              9.630119318330708,
              35.177357424015725
            ],
            [
              9.63051158790194,
              35.17767541383507
            ],
            [
              9.630590043513216,
              35.177739012718746
            ],
            [
              9.631694387731502,
              35.1793974638197
            ],
            [
              9.63248096204245,
              35.18028946797904
            ],
            [
              9.634268622331053,
              35.17957597957737
            ],
            [
              9.634665411112502,
              35.18047001877798
            ],
            [
              9.635365574796763,
              35.18027430488257
            ],
            [
              9.636067240249067,
              35.1802706061582
            ],
            [
              9.639569029571687,
              35.17941997424816
            ],
            [
              9.640441196509162,
              35.181271602142374
            ],
            [
              9.646285912702096,
              35.18092037821899
            ],
            [
              9.646364383597314,
              35.18098396668539
            ],
            [
              9.65824940284116,
              35.185208274595674
            ],
            [
              9.669914346865673,
              35.19096883449869
            ],
            [
              9.67766128035693,
              35.19425399457774
            ],
            [
              9.698921575980592,
              35.200085461975426
            ],
            [
              9.6996239524124,
              35.20014539846941
            ],
            [
              9.701598248311143,
              35.1848999211337
            ]
          ]
        ]
      }
    }
  ]
}
