{
  "type": "FeatureCollection",
  "features": [
    {
      "type": "Feature",
      "id": "osm:relation:7117932",
      "properties": {
        "sourceId": "isie-best-effort-imada-tunis-taieb-mehiri-20260924",
        "officialCode": "116954",
        "governorateCode": "11",
        "delegationCode": "1169",
        "nameAr": "الطيب المهيري",
        "nameFr": "Taieb Mhiri",
        "sourcePdfURL": "https://www.isie.tn/wp-content/uploads/2023/CartesCirconscriptionsElectoralesLocales2023/%D8%AA%D9%88%D9%86%D8%B3%202/%D8%AD%D9%84%D9%82%20%D8%A7%D9%84%D9%88%D8%A7%D8%AF%D9%8A/%D8%A7%D9%84%D8%B7%D9%8A%D8%A8%20%D8%A7%D9%84%D9%85%D9%87%D9%8A%D8%B1%D9%8A%20-%20%28%D8%AD%D9%84%D9%82%20%D8%A7%D9%84%D9%88%D8%A7%D8%AF%D9%8A%29.pdf",
        "sourcePdfSha256": "db245adfeca3c7119b625e674146b89c664a14422f2f9cde9a177444a17c5202",
        "sourceGeometrySha256": "fd7f1621bc292c4d89410d872d01ac45a643bfe9aabf802ede79aacc45f740c3",
        "geometryMethod": "Native closed red vector path 770 from the georeferenced ISIE 2023 electoral-circle map; no tracing, snapping, clipping, or repair.",
        "boundaryCertainty": "best_effort_imada"
      },
      "geometry": {
        "type": "Polygon",
        "coordinates": [
          [
            [
              10.265400267840924,
              36.86223535667388
            ],
            [
              10.265901220010905,
              36.860935706986645
            ],
            [
              10.265982494036262,
              36.86058502491418
            ],
            [
              10.265980758996156,
              36.86048009853283
            ],
            [
              10.265978445623306,
              36.86034019668806
            ],
            [
              10.265878088067874,
              36.8595366884491
            ],
            [
              10.265877509789734,
              36.85950171298126
            ],
            [
              10.266044103190598,
              36.85904518290818
            ],
            [
              10.26616832392337,
              36.85865906141952
            ],
            [
              10.266497452120001,
              36.85750116008451
            ],
            [
              10.26684740269711,
              36.85760237472121
            ],
            [
              10.26689092587929,
              36.857601910716795
            ],
            [
              10.267861349935286,
              36.855737539990194
            ],
            [
              10.268499169101922,
              36.85482121350809
            ],
            [
              10.26900988021454,
              36.85411612792998
            ],
            [
              10.270031271074863,
              36.85270595644966
            ],
            [
              10.270286033766338,
              36.85231843532624
            ],
            [
              10.27071430802719,
              36.8518940797622
            ],
            [
              10.271109503099078,
              36.85209974028682
            ],
            [
              10.271762935321409,
              36.85212773090693
            ],
            [
              10.27198055374013,
              36.852125401823784
            ],
            [
              10.272326418918475,
              36.851981772765065
            ],
            [
              10.272411722865577,
              36.85187591746296
            ],
            [
              10.27249818874569,
              36.85184000702016
            ],
            [
              10.274515265399941,
              36.85010429677929
            ],
            [
              10.276467360943618,
              36.849698547183216
            ],
            [
              10.277765438443497,
              36.84922983907922
            ],
            [
              10.280055145425418,
              36.84819073390727
            ],
            [
              10.280443910147834,
              36.848011637686255
            ],
            [
              10.281696657237292,
              36.84743843043693
            ],
            [
              10.28264767363626,
              36.84704337216872
            ],
            [
              10.285283643093882,
              36.84589548450341
            ],
            [
              10.285628280532043,
              36.845681867043155
            ],
            [
              10.285974090314168,
              36.84553819916564
            ],
            [
              10.287224987728708,
              36.84486000625543
            ],
            [
              10.288388832458397,
              36.84418274700258
            ],
            [
              10.291579738533382,
              36.84239903728389
            ],
            [
              10.293261576012625,
              36.841471228990784
            ],
            [
              10.293821984958907,
              36.84115029500237
            ],
            [
              10.294295946212644,
              36.8408652814721
            ],
            [
              10.29589127547701,
              36.83997335995975
            ],
            [
              10.296278780938595,
              36.83972426284572
            ],
            [
              10.296182281968575,
              36.83916561227612
            ],
            [
              10.296174590595676,
              36.83871093501304
            ],
            [
              10.296167491019817,
              36.83829123289189
            ],
            [
              10.296282653894924,
              36.83738045744924
            ],
            [
              10.296322618805839,
              36.83717013472224
            ],
            [
              10.29640728149724,
              36.83702928178961
            ],
            [
              10.296943375769922,
              36.83527435714397
            ],
            [
              10.297066813329153,
              36.834853233388934
            ],
            [
              10.297276091904223,
              36.8343612063511
            ],
            [
              10.297488920682069,
              36.834079030068565
            ],
            [
              10.297785812354272,
              36.83362103029733
            ],
            [
              10.29791457365556,
              36.83351467937712
            ],
            [
              10.298298485480963,
              36.83305572509453
            ],
            [
              10.298685348637093,
              36.832771645588565
            ],
            [
              10.299245671807103,
              36.83245069021491
            ],
            [
              10.300624999957746,
              36.8316660117434
            ],
            [
              10.301616255727481,
              36.83109545459398
            ],
            [
              10.30260750402654,
              36.83052488933219
            ],
            [
              10.306271350594281,
              36.828455751976605
            ],
            [
              10.309161999716295,
              36.82698970881593
            ],
            [
              10.308718552351127,
              36.82650484893344
            ],
            [
              10.308540339185603,
              36.82626193936842
            ],
            [
              10.307065234629718,
              36.826523040250756
            ],
            [
              10.305413099210808,
              36.82661115890521
            ],
            [
              10.304803977963463,
              36.82661784675658
            ],
            [
              10.303105362925484,
              36.8265315352187
            ],
            [
              10.301448470899413,
              36.82633979753222
            ],
            [
              10.298568023661026,
              36.82584657439259
            ],
            [
              10.298610347060304,
              36.82577614864721
            ],
            [
              10.30074244113387,
              36.823199182529095
            ],
            [
              10.300698340967609,
              36.82316468338538
            ],
            [
              10.292551830013053,
              36.820035232531886
            ],
            [
              10.284712845467487,
              36.8170418171619
            ],
            [
              10.283661151492284,
              36.816598417578476
            ],
            [
              10.28278289320202,
              36.81611815541385
            ],
            [
              10.282035157958061,
              36.815636476153166
            ],
            [
              10.281771217938,
              36.81546441316403
            ],
            [
              10.281727130621439,
              36.815429906687534
            ],
            [
              10.281506694632125,
              36.815257374045395
            ],
            [
              10.281373849114999,
              36.81511887873397
            ],
            [
              10.280622628080849,
              36.81442733697978
            ],
            [
              10.27995608573732,
              36.813594957231096
            ],
            [
              10.279912000313093,
              36.813560450034444
            ],
            [
              10.28110609051096,
              36.81211333922187
            ],
            [
              10.281148422913923,
              36.81204291937128
            ],
            [
              10.271334648621227,
              36.81057408606381
            ],
            [
              10.269853839640529,
              36.81310860145354
            ],
            [
              10.252380149663203,
              36.843448239173384
            ],
            [
              10.251872211501643,
              36.84432813181588
            ],
            [
              10.251609381400517,
              36.84422595769403
            ],
            [
              10.250886111849928,
              36.84524803775318
            ],
            [
              10.25084316473763,
              36.84528347450482
            ],
            [
              10.250579759728812,
              36.84514631945561
            ],
            [
              10.249643431323822,
              36.846450490839075
            ],
            [
              10.249048399897006,
              36.847331287164344
            ],
            [
              10.2484797736489,
              36.847162353252784
            ],
            [
              10.247502711861541,
              36.84864184454979
            ],
            [
              10.247417376503861,
              36.84874768260768
            ],
            [
              10.247023400903409,
              36.84861189321406
            ],
            [
              10.24676112955802,
              36.84854468143937
            ],
            [
              10.246718746126577,
              36.8486150895959
            ],
            [
              10.243601268715636,
              36.85232082598845
            ],
            [
              10.241595895352669,
              36.85482549323271
            ],
            [
              10.23929306177061,
              36.85778798891453
            ],
            [
              10.239251232661793,
              36.85789337035765
            ],
            [
              10.239251798773532,
              36.85792834619163
            ],
            [
              10.239340552267551,
              36.8580323657885
            ],
            [
              10.243996512261383,
              36.86057235634239
            ],
            [
              10.244085843618924,
              36.86071134792628
            ],
            [
              10.244178017397033,
              36.86102521818741
            ],
            [
              10.24413789862686,
              36.86123552845095
            ],
            [
              10.244096642869273,
              36.8613758871998
            ],
            [
              10.24396889625837,
              36.86155212718494
            ],
            [
              10.243840014448567,
              36.861658421446904
            ],
            [
              10.244972916518673,
              36.86171652057589
            ],
            [
              10.245016446090048,
              36.861716064498786
            ],
            [
              10.245226129297444,
              36.861224129533305
            ],
            [
              10.246140809766336,
              36.86124952249064
            ],
            [
              10.2474483940122,
              36.8613407477159
            ],
            [
              10.248755980952712,
              36.86143195849274
            ],
            [
              10.251632341090982,
              36.86161157999802
            ],
            [
              10.254334020035309,
              36.86175800007768
            ],
            [
              10.254377549474631,
              36.86175754057194
            ],
            [
              10.254508137786672,
              36.861756161959136
            ],
            [
              10.254769887647141,
              36.86178837990751
            ],
            [
              10.255379869698013,
              36.86181691877278
            ],
            [
              10.25629570993148,
              36.861912184499346
            ],
            [
              10.25686273802628,
              36.86197615151065
            ],
            [
              10.257516255253972,
              36.86200421889186
            ],
            [
              10.258823862255108,
              36.862095318431216
            ],
            [
              10.259956777956125,
              36.862153274363116
            ],
            [
              10.260174425793744,
              36.86215096635835
            ],
            [
              10.260959109987931,
              36.86221260527955
            ],
            [
              10.261263813380767,
              36.862209371426545
            ],
            [
              10.261482037599327,
              36.862242036536756
            ],
            [
              10.261568520415807,
              36.862206136753485
            ],
            [
              10.265053187527554,
              36.86230901553338
            ],
            [
              10.265400267840924,
              36.86223535667388
            ]
          ]
        ]
      }
    }
  ]
}
