{
  "type": "FeatureCollection",
  "features": [
    {
      "type": "Feature",
      "id": "sidi-salem-el-garsi-red-sector-ring",
      "properties": {
        "purpose": "preserve_only_unresolved_cross_governorate_seam_overlap",
        "officialSectorCode": "136256",
        "sourcePdfSha256": "2eb8c032560c328b6e8d2fec370384095c47f7300c0cd23e6d14e5f3135a4b26",
        "extractionMetadataSha256": "31ffd24cb938913ce2306d657841be05d330ce355e5b9cd33a464bfc8347f0a0",
        "sourceRingStatus": "RING_GEOMETRY_EVIDENCE_ONLY_NOT_APPROVED_REPLACEMENT",
        "visualReviewAtExtraction": "PENDING"
      },
      "geometry": {
        "type": "Polygon",
        "coordinates": [
          [
            [
              10.349700125649106,
              36.52797600574928
            ],
            [
              10.34969898425342,
              36.527910188692886
            ],
            [
              10.349697842861442,
              36.52784437163573
            ],
            [
              10.350008038427262,
              36.526919249838315
            ],
            [
              10.35023896772277,
              36.526126678193435
            ],
            [
              10.350469892644892,
              36.52533411167499
            ],
            [
              10.350865037466402,
              36.52460551076074
            ],
            [
              10.351177492171617,
              36.523812014540304
            ],
            [
              10.351643877152847,
              36.522490140182164
            ],
            [
              10.351957459064481,
              36.521762459051956
            ],
            [
              10.352269878277589,
              36.52096896580444
            ],
            [
              10.352582305070097,
              36.52017546603266
            ],
            [
              10.35289586945938,
              36.51944778253586
            ],
            [
              10.353289819131708,
              36.51865336249289
            ],
            [
              10.353766439289872,
              36.517923828110995
            ],
            [
              10.354084562734013,
              36.517459409870845
            ],
            [
              10.354564603515241,
              36.5169273236189
            ],
            [
              10.354475055789106,
              36.516467534947786
            ],
            [
              10.353573621096423,
              36.51621443895295
            ],
            [
              10.352589516694048,
              36.51589644269236
            ],
            [
              10.351689250770146,
              36.515709149136434
            ],
            [
              10.35070630177759,
              36.515456954172905
            ],
            [
              10.349644109220822,
              36.51533730712029
            ],
            [
              10.345963825164441,
              36.51472056128918
            ],
            [
              10.3453093030301,
              36.51459627852584
            ],
            [
              10.34480420423529,
              36.51368034729213
            ],
            [
              10.343954827622657,
              36.51171501261767
            ],
            [
              10.34342932808137,
              36.50961436648443
            ],
            [
              10.342910667493157,
              36.50790862151154
            ],
            [
              10.342564150751183,
              36.50672757995518
            ],
            [
              10.342363674415866,
              36.504557441319314
            ],
            [
              10.342515371953676,
              36.503897433022104
            ],
            [
              10.342581010692193,
              36.50297507110008
            ],
            [
              10.343903025234013,
              36.49453394044662
            ],
            [
              10.344226793960498,
              36.49439863539095
            ],
            [
              10.344548290273131,
              36.494131694338925
            ],
            [
              10.346079901415887,
              36.493126988870124
            ],
            [
              10.346633399540435,
              36.49213329280677
            ],
            [
              10.350970894791745,
              36.488397810639775
            ],
            [
              10.32419722751847,
              36.47671655868206
            ],
            [
              10.320174050087074,
              36.47498366705755
            ],
            [
              10.319436190884112,
              36.474728503162254
            ],
            [
              10.319190607658467,
              36.474665385145855
            ],
            [
              10.318288655640774,
              36.47434619003185
            ],
            [
              10.30648909414526,
              36.47059182758734
            ],
            [
              10.302479801898675,
              36.4696481558873
            ],
            [
              10.295434913050817,
              36.467486519520556
            ],
            [
              10.288880378700952,
              36.46538500952712
            ],
            [
              10.287238815953287,
              36.46467856835226
            ],
            [
              10.286305635548379,
              36.462450367819045
            ],
            [
              10.285729872204564,
              36.46212741049763
            ],
            [
              10.277922642345933,
              36.4581296601062
            ],
            [
              10.277677142962238,
              36.45806645476216
            ],
            [
              10.277915097580422,
              36.45766892202634
            ],
            [
              10.278314917692684,
              36.45720382563397
            ],
            [
              10.278873363698548,
              36.45647371045172
            ],
            [
              10.27983807671293,
              36.45567340416809
            ],
            [
              10.28015856369671,
              36.455340814041264
            ],
            [
              10.280397577390897,
              36.455009096288016
            ],
            [
              10.280474721587455,
              36.45474494439026
            ],
            [
              10.280945179159675,
              36.453620769373664
            ],
            [
              10.281099474851322,
              36.45309247583634
            ],
            [
              10.281178782619122,
              36.452959962806744
            ],
            [
              10.281175541484119,
              36.45276250371399
            ],
            [
              10.281171220019909,
              36.4524992249131
            ],
            [
              10.281086511242153,
              36.45230263941763
            ],
            [
              10.281003963313038,
              36.45223769326663
            ],
            [
              10.280759560338499,
              36.45224031359954
            ],
            [
              10.280107825826214,
              36.45224729863433
            ],
            [
              10.279781955032105,
              36.452250789854745
            ],
            [
              10.279455005283356,
              36.452188460436886
            ],
            [
              10.279208444941503,
              36.45205943808265
            ],
            [
              10.278878261213922,
              36.45179964776466
            ],
            [
              10.27879355898923,
              36.45160306048981
            ],
            [
              10.278709935442654,
              36.451472292916854
            ],
            [
              10.278624155862195,
              36.45120988571549
            ],
            [
              10.278701309642068,
              36.450945734681596
            ],
            [
              10.278696996825829,
              36.45068245554586
            ],
            [
              10.27893061125109,
              36.45002164170199
            ],
            [
              10.279395671443776,
              36.44856838423995
            ],
            [
              10.279866110106374,
              36.44744421276965
            ],
            [
              10.280345164111573,
              36.44684659788775
            ],
            [
              10.280261550247943,
              36.44671583117689
            ],
            [
              10.27968268590545,
              36.44619538171648
            ],
            [
              10.27960122452647,
              36.44619625419078
            ],
            [
              10.27935899753133,
              36.446330510914805
            ],
            [
              10.279197152915838,
              36.446398075191915
            ],
            [
              10.278144617163807,
              36.446804327838535
            ],
            [
              10.278150005096446,
              36.447133427041535
            ],
            [
              10.277991390134948,
              36.447398449246634
            ],
            [
              10.277830619425652,
              36.447531831567176
            ],
            [
              10.277585153776725,
              36.44746862526475
            ],
            [
              10.27725607900264,
              36.44727464955658
            ],
            [
              10.277009537966908,
              36.447145622177075
            ],
            [
              10.27676515058411,
              36.44714823401914
            ],
            [
              10.276437148396562,
              36.44702007593084
            ],
            [
              10.27619383729233,
              36.44708850648316
            ],
            [
              10.275952677230919,
              36.44728857633533
            ],
            [
              10.275551816464544,
              36.44768784494517
            ],
            [
              10.274342769883825,
              36.4484907234353
            ],
            [
              10.274100526487324,
              36.44862496975384
            ],
            [
              10.274023359075962,
              36.44888911817503
            ],
            [
              10.273298768159675,
              36.44942349370681
            ],
            [
              10.272491628814782,
              36.44989291273454
            ],
            [
              10.271763807722422,
              36.45022980813482
            ],
            [
              10.271192474871318,
              36.45017005705322
            ],
            [
              10.27078407432495,
              36.45010857031091
            ],
            [
              10.26989223381285,
              36.45038137861409
            ],
            [
              10.269161186261899,
              36.45052080951011
            ],
            [
              10.268192145795494,
              36.45105775085533
            ],
            [
              10.267712965237978,
              36.451655318945285
            ],
            [
              10.266741771152406,
              36.45206060867748
            ],
            [
              10.26586377002052,
              36.45318904857557
            ],
            [
              10.265386692661023,
              36.45391823673523
            ],
            [
              10.264493722654542,
              36.4541251967978
            ],
            [
              10.264412252503094,
              36.45412605906776
            ],
            [
              10.264328649967085,
              36.45399528105172
            ],
            [
              10.264246113649039,
              36.45393031193012
            ],
            [
              10.264001703772392,
              36.45393289805441
            ],
            [
              10.263919175057131,
              36.45386795094201
            ],
            [
              10.263836632302635,
              36.453802981599644
            ],
            [
              10.263751972486244,
              36.45360639409803
            ],
            [
              10.263750906803281,
              36.45354057396275
            ],
            [
              10.263910648478749,
              36.453341389895684
            ],
            [
              10.264071448375617,
              36.45320802582886
            ],
            [
              10.26414865357369,
              36.4529438832875
            ],
            [
              10.264145455607053,
              36.452746422887635
            ],
            [
              10.264058657355443,
              36.452418184200155
            ],
            [
              10.263975057324888,
              36.4522874058525
            ],
            [
              10.263811055147308,
              36.45222330940611
            ],
            [
              10.263649191228524,
              36.45229085296096
            ],
            [
              10.26348732011656,
              36.45235839637403
            ],
            [
              10.26340585178119,
              36.45235925792133
            ],
            [
              10.263403721100653,
              36.45222761760487
            ],
            [
              10.263235458741908,
              36.451900239699555
            ],
            [
              10.263149730452955,
              36.45163782038394
            ],
            [
              10.263065067784636,
              36.45144122116084
            ],
            [
              10.262250393733723,
              36.451449831065396
            ],
            [
              10.260751028955182,
              36.44942489839636
            ],
            [
              10.260669563601398,
              36.44942575801694
            ],
            [
              10.259108985593329,
              36.44865223657766
            ],
            [
              10.258291160288273,
              36.448463357897126
            ],
            [
              10.257309346798397,
              36.44821036787362
            ],
            [
              10.256328602119323,
              36.44802318998696
            ],
            [
              10.254535341963589,
              36.44797620128036
            ],
            [
              10.25364135125869,
              36.44811724797282
            ],
            [
              10.252747360579022,
              36.44825828799114
            ],
            [
              10.25153278403184,
              36.44873183764641
            ],
            [
              10.250640887444499,
              36.4490045031358
            ],
            [
              10.24975109527753,
              36.44940880310254
            ],
            [
              10.24894486574699,
              36.449943874958166
            ],
            [
              10.248302608011862,
              36.45054307105096
            ],
            [
              10.24782537980363,
              36.45127220333616
            ],
            [
              10.24742961472119,
              36.45200048318074
            ],
            [
              10.247115308178198,
              36.45272791142341
            ],
            [
              10.246802047297471,
              36.45352115942811
            ],
            [
              10.246413615560975,
              36.4547101688304
            ],
            [
              10.246616510292641,
              36.457209649326096
            ],
            [
              10.246630177972861,
              36.45806531053829
            ],
            [
              10.246805742647215,
              36.45885345062313
            ],
            [
              10.247062791111793,
              36.45964074533943
            ],
            [
              10.247481747346155,
              36.46036051731491
            ],
            [
              10.247653120532263,
              36.46088537929115
            ],
            [
              10.246934545395836,
              36.46181452211879
            ],
            [
              10.246619145632167,
              36.46247612268958
            ],
            [
              10.246620197182956,
              36.462541943158236
            ],
            [
              10.246621248737165,
              36.46260776362614
            ],
            [
              10.247028646601846,
              36.462603511588085
            ],
            [
              10.247765120117096,
              36.46279331573021
            ],
            [
              10.24858728650429,
              36.463245545350915
            ],
            [
              10.249329038969266,
              36.46376443602727
            ],
            [
              10.250231651031251,
              36.46414998132936
            ],
            [
              10.250727923110764,
              36.4646056061587
            ],
            [
              10.251059122745316,
              36.464931294963456
            ],
            [
              10.252290855027201,
              36.46551087124096
            ],
            [
              10.25237445053278,
              36.46564165759649
            ],
            [
              10.252868630630793,
              36.46596562685191
            ],
            [
              10.253199848455598,
              36.46629130932105
            ],
            [
              10.253449585501672,
              36.4666178458382
            ],
            [
              10.253697209263306,
              36.466812741289566
            ],
            [
              10.253867581630569,
              36.4672717668884
            ],
            [
              10.253953294156677,
              36.46753419250933
            ],
            [
              10.253957525957459,
              36.467797473418806
            ],
            [
              10.253879218306489,
              36.46799578941608
            ],
            [
              10.253807250462621,
              36.468589026774694
            ],
            [
              10.253647452405897,
              36.46878819792366
            ],
            [
              10.25292359740798,
              36.469388274477154
            ],
            [
              10.252361645365454,
              36.46992081802839
            ],
            [
              10.252286501460649,
              36.47031658817362
            ],
            [
              10.252371155623715,
              36.47051319460216
            ],
            [
              10.252537301559173,
              36.4707089464779
            ],
            [
              10.252784936411562,
              36.47090384348494
            ],
            [
              10.253605102416648,
              36.471224395306386
            ],
            [
              10.253939523926189,
              36.471747529894884
            ],
            [
              10.25418610382141,
              36.4718766036883
            ],
            [
              10.254599900984829,
              36.472267245873255
            ],
            [
              10.255096247808273,
              36.472722850469545
            ],
            [
              10.255514292000436,
              36.473376769774156
            ],
            [
              10.255515351491052,
              36.47344258989873
            ],
            [
              10.25560002083246,
              36.47363919367588
            ],
            [
              10.255603199562556,
              36.473836654032155
            ],
            [
              10.255607437917531,
              36.474099934496614
            ],
            [
              10.255858270675537,
              36.47449227940203
            ],
            [
              10.25619907929187,
              36.475410332970206
            ],
            [
              10.256286933237899,
              36.47580439078424
            ],
            [
              10.256534590388906,
              36.47599927938687
            ],
            [
              10.256538832228955,
              36.476262559661706
            ],
            [
              10.256786494942538,
              36.47645744765004
            ],
            [
              10.256789677009683,
              36.476654907823026
            ],
            [
              10.256792859107835,
              36.47685236798921
            ],
            [
              10.256553679103178,
              36.477184040528584
            ],
            [
              10.256474308927093,
              36.47731653792266
            ],
            [
              10.256727274854867,
              36.4778405262203
            ],
            [
              10.256978125897303,
              36.478232873767105
            ],
            [
              10.2572268571456,
              36.47849357508452
            ],
            [
              10.257566639263477,
              36.479345803482495
            ],
            [
              10.257732817573093,
              36.47954154722172
            ],
            [
              10.258150921895048,
              36.480195449839705
            ],
            [
              10.258565842930798,
              36.48065189650245
            ],
            [
              10.258650528301926,
              36.48084849758113
            ],
            [
              10.25865265316975,
              36.480980137505924
            ],
            [
              10.258819900367138,
              36.48124169951427
            ],
            [
              10.258983960502128,
              36.48130580140956
            ],
            [
              10.259315267166333,
              36.48163146435836
            ],
            [
              10.259644453447677,
              36.481825486426565
            ],
            [
              10.259973641358398,
              36.48201950754841
            ],
            [
              10.260303891326032,
              36.48227934766617
            ],
            [
              10.260307082994771,
              36.48247680737925
            ],
            [
              10.26031240242161,
              36.48280590130705
            ],
            [
              10.260235160977166,
              36.48307004086539
            ],
            [
              10.260237288698013,
              36.483201680660876
            ],
            [
              10.260320913828547,
              36.48333246047856
            ],
            [
              10.260404546155435,
              36.48346324015644
            ],
            [
              10.26106507046854,
              36.48398291096951
            ],
            [
              10.26131276593842,
              36.48417778865451
            ],
            [
              10.261319154869707,
              36.48457270779461
            ],
            [
              10.261241911832025,
              36.48483684793256
            ],
            [
              10.261083169073268,
              36.48510184860595
            ],
            [
              10.260922289291418,
              36.48523520943772
            ],
            [
              10.260926547408271,
              36.48549848886031
            ],
            [
              10.261010179722597,
              36.485629268038714
            ],
            [
              10.261344711840128,
              36.486152384083425
            ],
            [
              10.26142834558458,
              36.48628316292737
            ],
            [
              10.261514109755872,
              36.48654558136126
            ],
            [
              10.26160413509425,
              36.487071273416454
            ],
            [
              10.261687770303494,
              36.48720205203118
            ],
            [
              10.26177034047838,
              36.487267010766175
            ],
            [
              10.262016982840596,
              36.487396066839395
            ],
            [
              10.262186390477593,
              36.48778926292732
            ],
            [
              10.262270024006307,
              36.48792004112095
            ],
            [
              10.262435167002637,
              36.48804995766056
            ],
            [
              10.263250224073861,
              36.48804133909366
            ],
            [
              10.263090412091676,
              36.488240522562556
            ],
            [
              10.26293486462053,
              36.48870297932506
            ],
            [
              10.262612037289035,
              36.488903885936224
            ],
            [
              10.26228814245175,
              36.48903897191935
            ],
            [
              10.261805497788693,
              36.489439058612156
            ],
            [
              10.261816152290553,
              36.49009725645745
            ],
            [
              10.26206919799072,
              36.49062123082527
            ],
            [
              10.26223861330982,
              36.49101442091084
            ],
            [
              10.262330778157384,
              36.49167175695623
            ],
            [
              10.262335042041691,
              36.491935035951414
            ],
            [
              10.262587034798623,
              36.49239318910467
            ],
            [
              10.26243467850154,
              36.493053104279454
            ],
            [
              10.26277458213691,
              36.49390531350436
            ],
            [
              10.263107029780754,
              36.494296783567734
            ],
            [
              10.263207744755995,
              36.49548067026669
            ],
            [
              10.263304195507633,
              36.496401283482946
            ],
            [
              10.263318066345134,
              36.49725693359346
            ],
            [
              10.263903619004255,
              36.498172370669145
            ],
            [
              10.264568559620521,
              36.498955296502
            ],
            [
              10.264902106938473,
              36.49941258024563
            ],
            [
              10.265249552168225,
              36.500725517498964
            ],
            [
              10.265855472213564,
              36.50289150937684
            ],
            [
              10.265883277286743,
              36.50460281149817
            ],
            [
              10.266296241203355,
              36.504927586981246
            ],
            [
              10.266057019506258,
              36.5052592779408
            ],
            [
              10.265899319705058,
              36.50559009859115
            ],
            [
              10.265579639249971,
              36.50598847241645
            ],
            [
              10.265347894981025,
              36.50678089856897
            ],
            [
              10.265521638119639,
              36.507437365550466
            ],
            [
              10.265783328075907,
              36.50848787920687
            ],
            [
              10.265792954090664,
              36.509080254466674
            ],
            [
              10.26645480644599,
              36.509665707771134
            ],
            [
              10.26703085738292,
              36.50998875022224
            ],
            [
              10.267443855266837,
              36.510313520794476
            ],
            [
              10.267610119638997,
              36.51050924808088
            ],
            [
              10.267939450368381,
              36.510703243555106
            ],
            [
              10.268592756632952,
              36.510762134769855
            ],
            [
              10.269002547990533,
              36.51088944158352
            ],
            [
              10.269248208917956,
              36.51095266110975
            ],
            [
              10.270404644666797,
              36.51186198695894
            ],
            [
              10.271227468846348,
              36.512314044199265
            ],
            [
              10.271722027690053,
              36.51263793113633
            ],
            [
              10.271814306988825,
              36.51329524984294
            ],
            [
              10.271981670781505,
              36.513556795369226
            ],
            [
              10.272152260973703,
              36.51401578723269
            ],
            [
              10.272403311077746,
              36.514408096216734
            ],
            [
              10.272738041647841,
              36.514931173997375
            ],
            [
              10.273069562684908,
              36.51525679291347
            ],
            [
              10.273158621989303,
              36.5157166524628
            ],
            [
              10.273245537113151,
              36.516044878991394
            ],
            [
              10.273413988082007,
              36.51637223579761
            ],
            [
              10.273418293355796,
              36.516635512571035
            ],
            [
              10.273831353434783,
              36.516960259456575
            ],
            [
              10.273997655267387,
              36.51715597695805
            ],
            [
              10.273851811046992,
              36.51821081811738
            ],
            [
              10.274021346426451,
              36.51860399296421
            ],
            [
              10.274027807970404,
              36.51899890787849
            ],
            [
              10.274528885787035,
              36.51971769657608
            ],
            [
              10.274613656621941,
              36.51991427786262
            ],
            [
              10.2754344347486,
              36.520234665117066
            ],
            [
              10.276175830865707,
              36.52068755645522
            ],
            [
              10.276428002654212,
              36.5211456747848
            ],
            [
              10.276923719341095,
              36.521535357207476
            ],
            [
              10.277181296941034,
              36.52232256334466
            ],
            [
              10.277350858628678,
              36.52271573268682
            ],
            [
              10.277682425902018,
              36.52304133740727
            ],
            [
              10.278093377132377,
              36.52323443016735
            ],
            [
              10.278091216049857,
              36.52310279216776
            ],
            [
              10.278680387615216,
              36.524215596949205
            ],
            [
              10.279505547924941,
              36.524799230626215
            ],
            [
              10.28059160168936,
              36.526367512275684
            ],
            [
              10.2808416526647,
              36.52669398218784
            ],
            [
              10.281922333955027,
              36.52793316154876
            ],
            [
              10.28225936423381,
              36.52858784105812
            ],
            [
              10.28284213006401,
              36.52930571498489
            ],
            [
              10.283088945109434,
              36.5294347232455
            ],
            [
              10.283337931445029,
              36.529695368563075
            ],
            [
              10.284075127524826,
              36.52988493221888
            ],
            [
              10.285234194839429,
              36.530925739956054
            ],
            [
              10.286319364253822,
              36.53242814519684
            ],
            [
              10.28656510684944,
              36.532491327205655
            ],
            [
              10.286982660685574,
              36.53307929961067
            ],
            [
              10.2872284058563,
              36.53314248019427
            ],
            [
              10.287892798392873,
              36.53385944790748
            ],
            [
              10.288222278762847,
              36.534053378093915
            ],
            [
              10.288799691044767,
              36.53444212734848
            ],
            [
              10.289383652531813,
              36.53522578513228
            ],
            [
              10.289629406352715,
              36.53528896057186
            ],
            [
              10.290046991841097,
              36.535876921294026
            ],
            [
              10.290297120717863,
              36.536203369402216
            ],
            [
              10.290789721261769,
              36.53639553442925
            ],
            [
              10.290873460583063,
              36.53652628950227
            ],
            [
              10.291369348459988,
              36.536915907512665
            ],
            [
              10.29161401661927,
              36.536913260205424
            ],
            [
              10.291698850331686,
              36.53710982198695
            ],
            [
              10.291942426427315,
              36.53704136666092
            ],
            [
              10.29219037404297,
              36.5372361736141
            ],
            [
              10.292517692810105,
              36.53729845995866
            ],
            [
              10.29276564267354,
              36.53749326566237
            ],
            [
              10.293094049667406,
              36.53762135776445
            ],
            [
              10.293338719882607,
              36.537618706875165
            ],
            [
              10.293585578552696,
              36.537747692362096
            ],
            [
              10.293835721434117,
              36.53807413260671
            ],
            [
              10.294165234448123,
              36.53826805116557
            ],
            [
              10.294496939194552,
              36.53859360558677
            ],
            [
              10.295230958526517,
              36.53858564259789
            ],
            [
              10.29572358595694,
              36.5387777866218
            ],
            [
              10.295725778164424,
              36.53890942336277
            ],
            [
              10.295811720908302,
              36.53917181142675
            ],
            [
              10.295977030134738,
              36.539301677160914
            ],
            [
              10.296222801910071,
              36.53936483860462
            ],
            [
              10.296470767593778,
              36.53955963622084
            ],
            [
              10.296797002247022,
              36.53955609219271
            ],
            [
              10.297042775449677,
              36.53961925191411
            ],
            [
              10.297124334162469,
              36.5396183655983
            ],
            [
              10.29728854903835,
              36.53968241112024
            ],
            [
              10.297451666577155,
              36.539680638094055
            ],
            [
              10.297535420688444,
              36.53981138812405
            ],
            [
              10.298026970217542,
              36.539937703945654
            ],
            [
              10.298271647253172,
              36.53993504279185
            ],
            [
              10.29884255329607,
              36.539928831556686
            ],
            [
              10.29924814989573,
              36.5397927566989
            ],
            [
              10.299493925693296,
              36.539855911310084
            ],
            [
              10.29981796197667,
              36.539720722480794
            ],
            [
              10.29990062038533,
              36.5397856525165
            ],
            [
              10.300226855544368,
              36.539782099087084
            ],
            [
              10.300470431713412,
              36.53971361519285
            ],
            [
              10.300633549111852,
              36.539711837813286
            ],
            [
              10.300879325690845,
              36.53977498955182
            ],
            [
              10.301041335630096,
              36.53970739346398
            ],
            [
              10.301286011647285,
              36.53970472614007
            ],
            [
              10.30177536358506,
              36.539699389986794
            ],
            [
              10.302264715393996,
              36.53969405182621
            ],
            [
              10.302512696930808,
              36.53988883654176
            ],
            [
              10.30275737337654,
              36.53988616618778
            ],
            [
              10.302840034361708,
              36.539951094131126
            ],
            [
              10.303167372291613,
              36.540013350810575
            ],
            [
              10.303654520068394,
              36.53987637059646
            ],
            [
              10.303980755121563,
              36.539872806890486
            ],
            [
              10.304143865711362,
              36.53987102477851
            ],
            [
              10.304713673103567,
              36.5397989672411
            ],
            [
              10.305038803658515,
              36.53972958252729
            ],
            [
              10.305607504542538,
              36.539591702644664
            ],
            [
              10.305686853797651,
              36.539459174267066
            ],
            [
              10.30584886561461,
              36.53939157166383
            ],
            [
              10.306094645083999,
              36.53945471258935
            ],
            [
              10.30674599857186,
              36.53938175300533
            ],
            [
              10.306991778682708,
              36.53944489206741
            ],
            [
              10.30731911744464,
              36.53950713732857
            ],
            [
              10.307481127870714,
              36.539439532534175
            ],
            [
              10.307887812326284,
              36.53936924667704
            ],
            [
              10.308540277012431,
              36.53936209529711
            ],
            [
              10.308784951210386,
              36.53935941260963
            ],
            [
              10.309194949638753,
              36.539486576447715
            ],
            [
              10.309440731920358,
              36.53954971041331
            ],
            [
              10.309686521502934,
              36.539612843787644
            ],
            [
              10.309851847395057,
              36.53974268986561
            ],
            [
              10.310017180755137,
              36.53987253562456
            ],
            [
              10.310181406265446,
              36.53993656316082
            ],
            [
              10.310347849133464,
              36.54013222641296
            ],
            [
              10.310432733825444,
              36.54032878489746
            ],
            [
              10.310681846260273,
              36.54058937011058
            ],
            [
              10.310927633175908,
              36.54065250090489
            ],
            [
              10.31109407948347,
              36.54084816302361
            ],
            [
              10.311425865132689,
              36.54117366856142
            ],
            [
              10.311755433797327,
              36.54136752610142
            ],
            [
              10.312083887289564,
              36.54149557601241
            ],
            [
              10.312497240381196,
              36.54182018174654
            ],
            [
              10.312581021928448,
              36.54195092060573
            ],
            [
              10.312583242967962,
              36.54208255639298
            ],
            [
              10.312667024955052,
              36.54221329517748
            ],
            [
              10.312832368293483,
              36.54234313677914
            ],
            [
              10.313077051464195,
              36.54234044509804
            ],
            [
              10.313322845763906,
              36.542403570785254
            ],
            [
              10.313974222812101,
              36.542330571306934
            ],
            [
              10.31422001775271,
              36.54239369513041
            ],
            [
              10.314466925215106,
              36.542522636277035
            ],
            [
              10.314635609028342,
              36.54284992879584
            ],
            [
              10.315128309404242,
              36.54304199099291
            ],
            [
              10.315699241364461,
              36.54303569852832
            ],
            [
              10.31594392643601,
              36.543033000921305
            ],
            [
              10.316511516476249,
              36.5428292512141
            ],
            [
              10.316674639373916,
              36.5428274517628
            ],
            [
              10.316244559302575,
              36.541515594075726
            ],
            [
              10.316076985487795,
              36.541254132807985
            ],
            [
              10.315579835381783,
              36.540798803064575
            ],
            [
              10.315411152353716,
              36.540471511762384
            ],
            [
              10.315483808086702,
              36.53994407017162
            ],
            [
              10.31635645134166,
              36.538486186686924
            ],
            [
              10.316354224197688,
              36.538354551019474
            ],
            [
              10.316513996602676,
              36.5381552984778
            ],
            [
              10.318056873372074,
              36.53774328983706
            ],
            [
              10.320589571115804,
              36.537978614828944
            ],
            [
              10.321243138487771,
              36.53803721190133
            ],
            [
              10.32197155315795,
              36.5376999959462
            ],
            [
              10.322203917601174,
              36.5369733023699
            ],
            [
              10.322437396341344,
              36.53631241488127
            ],
            [
              10.322827265050677,
              36.53525481320276
            ],
            [
              10.3231490013936,
              36.534987926680145
            ],
            [
              10.323554527280853,
              36.53485177040275
            ],
            [
              10.324130997192878,
              36.53517452713755
            ],
            [
              10.3244572098144,
              36.53517090781572
            ],
            [
              10.32526824332699,
              36.53489858522397
            ],
            [
              10.32600109709622,
              36.53482461593226
            ],
            [
              10.3274712914027,
              36.53493993423077
            ],
            [
              10.327794133233665,
              36.53473885308415
            ],
            [
              10.328114726626294,
              36.53440613596094
            ],
            [
              10.3286833443992,
              36.53426814750544
            ],
            [
              10.329577043031264,
              36.534060705606024
            ],
            [
              10.330301993725389,
              36.533525987617
            ],
            [
              10.331924005180108,
              36.53298126416117
            ],
            [
              10.333377254508603,
              36.5321092483198
            ],
            [
              10.333944717236317,
              36.53190541781174
            ],
            [
              10.33484514740356,
              36.53209284171759
            ],
            [
              10.335747827401566,
              36.53241189365145
            ],
            [
              10.336157836959657,
              36.53253896468025
            ],
            [
              10.336729817446423,
              36.53259839046334
            ],
            [
              10.33746037401312,
              36.53239271668504
            ],
            [
              10.338593013553997,
              36.53185337990328
            ],
            [
              10.33899622954567,
              36.53158553730623
            ],
            [
              10.339802653238522,
              36.53104985373611
            ],
            [
              10.340288542400373,
              36.53084690881872
            ],
            [
              10.340938658762633,
              36.53070794711289
            ],
            [
              10.34167598016719,
              36.53089715168955
            ],
            [
              10.342335176467309,
              36.531284720235305
            ],
            [
              10.343159748930775,
              36.531802078583794
            ],
            [
              10.343734001280486,
              36.531993105131505
            ],
            [
              10.34470576720005,
              36.531587187140225
            ],
            [
              10.34486203995826,
              36.53119044671179
            ],
            [
              10.345094171005034,
              36.5304637013937
            ],
            [
              10.345906231168398,
              36.5302570576864
            ],
            [
              10.346883645277794,
              36.53018020268463
            ],
            [
              10.347045600355745,
              36.53011254512977
            ],
            [
              10.34777724426809,
              36.52997262619087
            ],
            [
              10.347776104418438,
              36.529906809104425
            ],
            [
              10.348338950017833,
              36.52943964280219
            ],
            [
              10.348743259813745,
              36.52923759073967
            ],
            [
              10.349137298770641,
              36.52844317820003
            ],
            [
              10.349700125649106,
              36.52797600574928
            ]
          ]
        ]
      }
    }
  ]
}
