{
  "type": "FeatureCollection",
  "sourceId": "isie-local-sector-2023-soukra125251-whole",
  "features": [
    {
      "type": "Feature",
      "id": "osm:relation:7114900",
      "properties": {
        "id": "osm:relation:7114900",
        "kind": "sector",
        "sourceId": "isie-local-sector-2023-soukra125251-whole",
        "officialCode": "125251",
        "nameAr": "سكرة",
        "nameFr": "Soukra",
        "governorateCode": "12",
        "governorateAr": "أريانة",
        "governorateFr": "Ariana",
        "delegationCode": "1252",
        "parentAr": "سكرة",
        "parentFr": "Soukra",
        "sourcePdfURL": "https://www.isie.tn/wp-content/uploads/2023/CartesCirconscriptionsElectoralesLocales2023/أريانة/سكرة/سكرة.pdf",
        "sourcePdfSha256": "a581f140a5a8ed1b8191dcb7b4e2e40d154f21fb754240a0e3e134588ffa3033",
        "sourcePdfFile": "official/soukra125251-whole-20260920/sources/soukra.pdf",
        "sourcePdfPage": 1,
        "sourceDrawingIndex": 923,
        "sourceCrsEpsg": 32632,
        "nativeVertexCount": 567,
        "nativeContinuousExplicitlyClosed": true,
        "nativeGeometryValid": true,
        "wgs84Bounds": [
          10.236500393936987,
          36.86177391362246,
          10.288673424737038,
          36.93777976543425
        ],
        "geometryPolicy": "Exact unchanged saved native whole path, no repair/snap/cut/fill. Shared registration overlap and external source conflicts remain.",
        "qualification": [
          "ISIE local-election cartography 2023; retrieved 2026-09-20. Not a present-day survey or currency certification.",
          "One whole electoral circle for imada سكرة; JORT page 4 printed 5101 dated 2023-09-22.",
          "EPSG:32632 native evidence preserved exactly; no binary attached to baseline."
        ]
      },
      "geometry": {
        "type": "Polygon",
        "coordinates": [
          [
            [
              10.2551205832355,
              36.925973963943115
            ],
            [
              10.255887263005784,
              36.925914502123625
            ],
            [
              10.256662393978226,
              36.926368574676026
            ],
            [
              10.256736510473722,
              36.926984145330266
            ],
            [
              10.257443463865439,
              36.92718211485936
            ],
            [
              10.257887806977347,
              36.92697196576508
            ],
            [
              10.258524030573504,
              36.92675977896445
            ],
            [
              10.259152617836069,
              36.92608540401348
            ],
            [
              10.259526207809833,
              36.925465091212196
            ],
            [
              10.259966295216458,
              36.924998165223926
            ],
            [
              10.259956967560262,
              36.92443327264221
            ],
            [
              10.260078949436297,
              36.92407244375719
            ],
            [
              10.260326302426655,
              36.923556192405734
            ],
            [
              10.260835423091129,
              36.92339670398941
            ],
            [
              10.261162003661582,
              36.92380414198157
            ],
            [
              10.261105678106588,
              36.924267001027545
            ],
            [
              10.261300101239778,
              36.92441902647836
            ],
            [
              10.261683855095546,
              36.924414953340836
            ],
            [
              10.262573332580049,
              36.92404597212174
            ],
            [
              10.26339289132246,
              36.923318183220864
            ],
            [
              10.263894343236734,
              36.922696497582706
            ],
            [
              10.264587663421864,
              36.922072772908805
            ],
            [
              10.265215313081848,
              36.92134701322552
            ],
            [
              10.265394409519475,
              36.92057466369636
            ],
            [
              10.265704813935908,
              36.920006371441794
            ],
            [
              10.266272742080591,
              36.91953805645282
            ],
            [
              10.266531117844966,
              36.91968939211776
            ],
            [
              10.266536231201417,
              36.919997514815
            ],
            [
              10.266917404664934,
              36.91983936385535
            ],
            [
              10.267480207026296,
              36.91906292495502
            ],
            [
              10.268109506032589,
              36.91843985819892
            ],
            [
              10.26810865279428,
              36.91838850443503
            ],
            [
              10.268107799558132,
              36.918337150670666
            ],
            [
              10.268171753291922,
              36.91833646833079
            ],
            [
              10.26817090001507,
              36.91828511456724
            ],
            [
              10.268170046740376,
              36.918233760803226
            ],
            [
              10.26823400038629,
              36.91823307843146
            ],
            [
              10.268233147070895,
              36.918181724668266
            ],
            [
              10.268296247315698,
              36.91812968850095
            ],
            [
              10.268295393961761,
              36.918078334738084
            ],
            [
              10.268358494080147,
              36.918026298539225
            ],
            [
              10.268357640687668,
              36.91797494477672
            ],
            [
              10.268356787297346,
              36.91792359101373
            ],
            [
              10.268420740679636,
              36.91792290854632
            ],
            [
              10.268419887248614,
              36.91787155478414
            ],
            [
              10.268419033819752,
              36.91782020102152
            ],
            [
              10.268418180393049,
              36.91776884725841
            ],
            [
              10.268482133644605,
              36.917768164760396
            ],
            [
              10.268481280177202,
              36.91771681099811
            ],
            [
              10.268480426711957,
              36.91766545723534
            ],
            [
              10.26847957324887,
              36.91761410347213
            ],
            [
              10.268542672865909,
              36.91756206718107
            ],
            [
              10.268541819364282,
              36.9175107134182
            ],
            [
              10.268540965864815,
              36.91745935965487
            ],
            [
              10.26854011236751,
              36.917408005891076
            ],
            [
              10.268539258944704,
              36.917356656479576
            ],
            [
              10.268538405379374,
              36.917305298362095
            ],
            [
              10.268537551960888,
              36.91725394894967
            ],
            [
              10.268600651248015,
              36.91720191263112
            ],
            [
              10.268599797718647,
              36.91715055886628
            ],
            [
              10.268662896879368,
              36.917098522516206
            ],
            [
              10.268725995954375,
              36.91704648613378
            ],
            [
              10.26878909494367,
              36.916994449719006
            ],
            [
              10.268788241294365,
              36.91694309595613
            ],
            [
              10.268851340157253,
              36.91689105950984
            ],
            [
              10.26885048646941,
              36.91683970574729
            ],
            [
              10.268914438934427,
              36.91683902303119
            ],
            [
              10.268913585205887,
              36.91678766926946
            ],
            [
              10.268977537625892,
              36.9167869865202
            ],
            [
              10.268976683856653,
              36.91673563275927
            ],
            [
              10.268975830089573,
              36.9166842789979
            ],
            [
              10.26903978242171,
              36.91668359621676
            ],
            [
              10.270103040187665,
              36.91523408321585
            ],
            [
              10.271167118796347,
              36.91383591480072
            ],
            [
              10.273047072226964,
              36.91150446960082
            ],
            [
              10.273111020133626,
              36.91150378470989
            ],
            [
              10.273110163756835,
              36.91145243098574
            ],
            [
              10.27317325520102,
              36.91140039233832
            ],
            [
              10.273236346559516,
              36.911348353658575
            ],
            [
              10.273235490103536,
              36.91129699993556
            ],
            [
              10.273298581335666,
              36.9112449612243
            ],
            [
              10.273297724841173,
              36.911193607501644
            ],
            [
              10.27336167248211,
              36.91119292248072
            ],
            [
              10.273360815946939,
              36.91114156875887
            ],
            [
              10.27342390696702,
              36.91108952998377
            ],
            [
              10.273423050393335,
              36.91103817626227
            ],
            [
              10.273486997901413,
              36.91103749117634
            ],
            [
              10.273486141287052,
              36.91098613745565
            ],
            [
              10.273550088750122,
              36.9109854523366
            ],
            [
              10.273549232095084,
              36.91093409861672
            ],
            [
              10.273612322817428,
              36.91088205974545
            ],
            [
              10.27361146612388,
              36.91083070602592
            ],
            [
              10.27367541345409,
              36.910830020841864
            ],
            [
              10.273674556792482,
              36.91077867147589
            ],
            [
              10.273738504077686,
              36.9107779862587
            ],
            [
              10.273737647230165,
              36.91072662818805
            ],
            [
              10.273800732305393,
              36.91067459363148
            ],
            [
              10.273863828066338,
              36.91062255457362
            ],
            [
              10.273926912897586,
              36.91057051559966
            ],
            [
              10.273926056002825,
              36.91051916188372
            ],
            [
              10.273990003065158,
              36.910518476535266
            ],
            [
              10.273989146129718,
              36.91046712282014
            ],
            [
              10.274052236170933,
              36.91041508372423
            ],
            [
              10.274115326126463,
              36.91036304459601
            ],
            [
              10.274178415996309,
              36.91031100543545
            ],
            [
              10.274241505780473,
              36.91025896624258
            ],
            [
              10.274304595478958,
              36.91020692701738
            ],
            [
              10.274303738342311,
              36.910155573305865
            ],
            [
              10.27436768509176,
              36.910154887759866
            ],
            [
              10.274366827914436,
              36.91010353404914
            ],
            [
              10.274430774618876,
              36.91010284847001
            ],
            [
              10.274429917400882,
              36.91005149476012
            ],
            [
              10.274493864060313,
              36.910050809147855
            ],
            [
              10.274493006801643,
              36.909999455438765
            ],
            [
              10.27455695341607,
              36.90999876979337
            ],
            [
              10.27455609611673,
              36.909947416085096
            ],
            [
              10.274620042686147,
              36.90994673040657
            ],
            [
              10.274619185346129,
              36.9098953766991
            ],
            [
              10.27468313187054,
              36.90989469098742
            ],
            [
              10.274746220969254,
              36.90984265153598
            ],
            [
              10.274745363547892,
              36.90979129783015
            ],
            [
              10.274809309982286,
              36.90979061205222
            ],
            [
              10.274872398909643,
              36.909738572536114
            ],
            [
              10.274936345296869,
              36.90973788669064
            ],
            [
              10.274935487751316,
              36.909686532987706
            ],
            [
              10.274999434093536,
              36.909685847109095
            ],
            [
              10.27499857650731,
              36.90963449340697
            ],
            [
              10.27506252280452,
              36.909633807495226
            ],
            [
              10.275061665177624,
              36.90958245379392
            ],
            [
              10.275125611429829,
              36.90958176784905
            ],
            [
              10.275188699969458,
              36.90952972817054
            ],
            [
              10.275251788423407,
              36.9094776884597
            ],
            [
              10.27600540490402,
              36.9086477990606
            ],
            [
              10.27631740622126,
              36.90818218334851
            ],
            [
              10.276631979670462,
              36.90787062791047
            ],
            [
              10.276821237765672,
              36.907714506473134
            ],
            [
              10.276945691820943,
              36.907507722343475
            ],
            [
              10.27700620077122,
              36.90730161633907
            ],
            [
              10.277066709556987,
              36.90709551900856
            ],
            [
              10.27706327400462,
              36.90689010427325
            ],
            [
              10.277122923354119,
              36.906632648870584
            ],
            [
              10.277183431276194,
              36.90642654712131
            ],
            [
              10.277370966601202,
              36.906167717489176
            ],
            [
              10.276726381239042,
              36.90586646473967
            ],
            [
              10.275756938763955,
              36.90526052202614
            ],
            [
              10.275626485317382,
              36.90510783318107
            ],
            [
              10.275559111538644,
              36.90490310439987
            ],
            [
              10.275617906772048,
              36.90459429586801
            ],
            [
              10.27574149587954,
              36.9043361549002
            ],
            [
              10.275931605426898,
              36.90423139300673
            ],
            [
              10.276121714376762,
              36.90412662646437
            ],
            [
              10.276375764382289,
              36.90402117309623
            ],
            [
              10.276696330728218,
              36.90406908929618
            ],
            [
              10.276889014304958,
              36.90411838704633
            ],
            [
              10.277016897595981,
              36.904117013328374
            ],
            [
              10.277143921954552,
              36.90406428141268
            ],
            [
              10.27777732298655,
              36.90369793856116
            ],
            [
              10.278283690098542,
              36.903384317015465
            ],
            [
              10.27841071241777,
              36.90333158813137
            ],
            [
              10.27847465336987,
              36.903330900483155
            ],
            [
              10.278605114690953,
              36.90348358613553
            ],
            [
              10.278866038907648,
              36.90378895696901
            ],
            [
              10.278995641716742,
              36.903890288478394
            ],
            [
              10.279126104972127,
              36.90404296915358
            ],
            [
              10.279254848362903,
              36.904092951048106
            ],
            [
              10.27938445219997,
              36.90419428210842
            ],
            [
              10.279703299774933,
              36.904139482826544
            ],
            [
              10.280022147015341,
              36.90408469140247
            ],
            [
              10.280976101398808,
              36.903766238088394
            ],
            [
              10.281802154890569,
              36.90344915634994
            ],
            [
              10.282248017102528,
              36.90334162207924
            ],
            [
              10.282502918129397,
              36.90328750941256
            ],
            [
              10.282821759542433,
              36.90323270621919
            ],
            [
              10.283077522566439,
              36.90322994593077
            ],
            [
              10.283397226297437,
              36.90322649479626
            ],
            [
              10.283589048509896,
              36.90322442370276
            ],
            [
              10.28365126287583,
              36.903121026100564
            ],
            [
              10.28377655437286,
              36.902965584386784
            ],
            [
              10.283775691113437,
              36.902914230802814
            ],
            [
              10.283838768282994,
              36.90286218669088
            ],
            [
              10.283837904985111,
              36.90281083310728
            ],
            [
              10.283901845366902,
              36.90281014254665
            ],
            [
              10.283900982028376,
              36.902758788963865
            ],
            [
              10.283964922365161,
              36.90275809837013
            ],
            [
              10.28402799927777,
              36.90270605416131
            ],
            [
              10.284027135857958,
              36.902654700580165
            ],
            [
              10.284090212717462,
              36.9026026606926
            ],
            [
              10.284089349186006,
              36.90255130275908
            ],
            [
              10.284153289344946,
              36.90255061206728
            ],
            [
              10.284152425846035,
              36.90249925848732
            ],
            [
              10.2841515624225,
              36.90244790925963
            ],
            [
              10.284214638883048,
              36.902395860603654
            ],
            [
              10.284213775421058,
              36.902344511376334
            ],
            [
              10.28421291188806,
              36.90229315779581
            ],
            [
              10.28427685182851,
              36.902292467041626
            ],
            [
              10.28427598825487,
              36.90224111346191
            ],
            [
              10.284339064536038,
              36.90218906909574
            ],
            [
              10.28433820092394,
              36.90213771551639
            ],
            [
              10.284402140731554,
              36.90213702469727
            ],
            [
              10.284401277078818,
              36.90208567111875
            ],
            [
              10.284400413428266,
              36.90203431753976
            ],
            [
              10.284464353148048,
              36.9020336266888
            ],
            [
              10.284463489456856,
              36.90198227311063
            ],
            [
              10.284462625767851,
              36.901930919532006
            ],
            [
              10.284526565399803,
              36.90193022864921
            ],
            [
              10.284525701670157,
              36.90187887507142
            ],
            [
              10.284588777486817,
              36.901826830578536
            ],
            [
              10.284587913718717,
              36.90177547700109
            ],
            [
              10.28465098940909,
              36.901723432476736
            ],
            [
              10.284650125602536,
              36.90167207889965
            ],
            [
              10.284649261798167,
              36.901620725322104
            ],
            [
              10.28471233732162,
              36.901568680767106
            ],
            [
              10.284711473478795,
              36.901517327189914
            ],
            [
              10.284774548875966,
              36.901465282603446
            ],
            [
              10.28477368499469,
              36.90141392902662
            ],
            [
              10.284772821115599,
              36.901362575449326
            ],
            [
              10.284836760265577,
              36.90136188440867
            ],
            [
              10.28483589634585,
              36.901310530832205
            ],
            [
              10.284899835450823,
              36.90130983975845
            ],
            [
              10.284898971490456,
              36.90125848618281
            ],
            [
              10.28496204654942,
              36.90120644150111
            ],
            [
              10.285025121522741,
              36.90115439678712
            ],
            [
              10.28508819641042,
              36.901102352040844
            ],
            [
              10.285151271212458,
              36.90105030726228
            ],
            [
              10.285215210092408,
              36.90104961602295
            ],
            [
              10.285214345928853,
              36.900998262451424
            ],
            [
              10.285277420559606,
              36.90094621760827
            ],
            [
              10.285340495177975,
              36.900894177085576
            ],
            [
              10.285403569564192,
              36.900842127825115
            ],
            [
              10.285466644011281,
              36.90079008723783
            ],
            [
              10.285465779687371,
              36.90073873366913
            ],
            [
              10.285529718299477,
              36.90073804226553
            ],
            [
              10.285528853861663,
              36.900686684344905
            ],
            [
              10.285591917254294,
              36.90063464381113
            ],
            [
              10.285591052851304,
              36.90058329024362
            ],
            [
              10.28565413772949,
              36.90053124509114
            ],
            [
              10.285653273288045,
              36.90047989152398
            ],
            [
              10.285652408848785,
              36.90042853795634
            ],
            [
              10.285651544411714,
              36.90037718438826
            ],
            [
              10.285650679976829,
              36.9003258308197
            ],
            [
              10.285649815544131,
              36.9002744772507
            ],
            [
              10.28571287844847,
              36.90022243230456
            ],
            [
              10.285712013977333,
              36.90017107873591
            ],
            [
              10.285711149508382,
              36.90011972516679
            ],
            [
              10.285710285041617,
              36.90006837159721
            ],
            [
              10.28570942057704,
              36.90001701802717
            ],
            [
              10.28570855611465,
              36.89996566445667
            ],
            [
              10.28570769165445,
              36.899914310885706
            ],
            [
              10.285706827196433,
              36.899862957314284
            ],
            [
              10.285705962740606,
              36.8998116037424
            ],
            [
              10.28564117133744,
              36.899760941535135
            ],
            [
              10.285640306928798,
              36.89970958796104
            ],
            [
              10.285639442522346,
              36.899658234386486
            ],
            [
              10.285638578118078,
              36.899606880811476
            ],
            [
              10.285637713715998,
              36.89955552723598
            ],
            [
              10.285636849316106,
              36.89950417366004
            ],
            [
              10.2856359849184,
              36.89945282008364
            ],
            [
              10.285571172186112,
              36.899402158062976
            ],
            [
              10.285570307835606,
              36.89935080448437
            ],
            [
              10.285569443487288,
              36.899299450905275
            ],
            [
              10.285568579141156,
              36.89924809732574
            ],
            [
              10.28550378838752,
              36.89919743938066
            ],
            [
              10.285502924015317,
              36.89914608144617
            ],
            [
              10.285502059791815,
              36.899094732216696
            ],
            [
              10.285501195497242,
              36.89904337863401
            ],
            [
              10.285436394048652,
              36.89899271641079
            ],
            [
              10.285435529801271,
              36.89894136282589
            ],
            [
              10.285434665556075,
              36.898890009240546
            ],
            [
              10.285370728483327,
              36.89889070056348
            ],
            [
              10.285369864283137,
              36.89883934697638
            ],
            [
              10.285369000085135,
              36.89878799338882
            ],
            [
              10.285304198942844,
              36.89873733108549
            ],
            [
              10.285303334792031,
              36.898685977495724
            ],
            [
              10.285302470643407,
              36.89863462390549
            ],
            [
              10.285237669676766,
              36.89858396156125
            ],
            [
              10.28523680557533,
              36.8985326079688
            ],
            [
              10.285235941476083,
              36.8984812543759
            ],
            [
              10.28523507737902,
              36.89842990078254
            ],
            [
              10.285171140685092,
              36.89843059199074
            ],
            [
              10.285170276633034,
              36.89837923839563
            ],
            [
              10.285169412583159,
              36.898327884800054
            ],
            [
              10.285104611967816,
              36.89827722237397
            ],
            [
              10.285103747965131,
              36.89822586877619
            ],
            [
              10.285102883964635,
              36.89817451517793
            ],
            [
              10.285038083524936,
              36.89812385271094
            ],
            [
              10.28503721957163,
              36.89807249911048
            ],
            [
              10.284972419262573,
              36.8980218366043
            ],
            [
              10.284971555356451,
              36.897970483001636
            ],
            [
              10.284970691452518,
              36.89791912939852
            ],
            [
              10.284906755178037,
              36.89791982045629
            ],
            [
              10.284905891319104,
              36.897868466851406
            ],
            [
              10.284905027462358,
              36.897817113246084
            ],
            [
              10.2848402275328,
              36.89776645501256
            ],
            [
              10.284839363650024,
              36.89771509705227
            ],
            [
              10.28477456377789,
              36.897664434426844
            ],
            [
              10.284773700015517,
              36.89761308081708
            ],
            [
              10.28477283625533,
              36.89756172720687
            ],
            [
              10.28470890027402,
              36.89756241815248
            ],
            [
              10.284708036632045,
              36.89751106889326
            ],
            [
              10.284707172845836,
              36.897459710928096
            ],
            [
              10.284642373353185,
              36.89740905257532
            ],
            [
              10.284641509687368,
              36.89735769896068
            ],
            [
              10.284576710252145,
              36.897307036216006
            ],
            [
              10.284575846633514,
              36.89725568259915
            ],
            [
              10.284511047328927,
              36.8972050198153
            ],
            [
              10.284510183757481,
              36.89715366619624
            ],
            [
              10.284445384583528,
              36.897103003373225
            ],
            [
              10.284444521059267,
              36.897051649751965
            ],
            [
              10.284379722015949,
              36.89700098688976
            ],
            [
              10.284314923058265,
              36.89695032399015
            ],
            [
              10.284314059626189,
              36.89689897036494
            ],
            [
              10.284249260799136,
              36.89684830742615
            ],
            [
              10.284248397414242,
              36.89679695379873
            ],
            [
              10.284183598717823,
              36.89674629082078
            ],
            [
              10.284182735380112,
              36.89669493719116
            ],
            [
              10.284118800107036,
              36.896695627805414
            ],
            [
              10.284117936814324,
              36.89664427417404
            ],
            [
              10.284117073523797,
              36.896592920542204
            ],
            [
              10.28405313833417,
              36.8965936111195
            ],
            [
              10.284052275088639,
              36.89654225748592
            ],
            [
              10.283987476739114,
              36.89649159439221
            ],
            [
              10.283986613540767,
              36.89644024075642
            ],
            [
              10.283985750344602,
              36.89638888712017
            ],
            [
              10.28392181532187,
              36.89638957762355
            ],
            [
              10.283920952170705,
              36.896338223985566
            ],
            [
              10.283920089021722,
              36.89628687034709
            ],
            [
              10.28385615408244,
              36.89628756081351
            ],
            [
              10.283855290978453,
              36.89623620717332
            ],
            [
              10.283854427876651,
              36.89618485353264
            ],
            [
              10.283789629964009,
              36.89613419031969
            ],
            [
              10.28378876698254,
              36.89608284102957
            ],
            [
              10.283723969127372,
              36.896032173424715
            ],
            [
              10.283723106193078,
              36.89598082413236
            ],
            [
              10.283722243187817,
              36.89592947048682
            ],
            [
              10.283658308541685,
              36.89593016084108
            ],
            [
              10.283657445508279,
              36.89587880284106
            ],
            [
              10.283656582623342,
              36.89582745354604
            ],
            [
              10.2836557195943,
              36.89577609554509
            ],
            [
              10.283591785074432,
              36.89577678586112
            ],
            [
              10.28359092223667,
              36.89572543656389
            ],
            [
              10.283590059327953,
              36.89567408291347
            ],
            [
              10.2835252620278,
              36.89562341954038
            ],
            [
              10.283524399166259,
              36.89557206588775
            ],
            [
              10.283523536306902,
              36.89552071223466
            ],
            [
              10.283522673449728,
              36.895469358581096
            ],
            [
              10.28345787637019,
              36.895418695165354
            ],
            [
              10.283457013560191,
              36.89536734150959
            ],
            [
              10.283456150752379,
              36.895315987853365
            ],
            [
              10.283391353848456,
              36.895265324396696
            ],
            [
              10.283390491087818,
              36.89521397073827
            ],
            [
              10.283389628329365,
              36.89516261707937
            ],
            [
              10.283324831601055,
              36.895111953581804
            ],
            [
              10.283323968889778,
              36.895060599920704
            ],
            [
              10.283323106180683,
              36.89500924625914
            ],
            [
              10.28332224347377,
              36.89495789259711
            ],
            [
              10.283385314569832,
              36.89490584877796
            ],
            [
              10.283384451824475,
              36.89485449511629
            ],
            [
              10.283448385580279,
              36.89485380492653
            ],
            [
              10.283447522794292,
              36.894802451265676
            ],
            [
              10.283510593678496,
              36.89475040738277
            ],
            [
              10.283636735190058,
              36.89464631952012
            ],
            [
              10.283635872284375,
              36.894594965861266
            ],
            [
              10.283571938749153,
              36.894595656147786
            ],
            [
              10.283444934449431,
              36.894648390280366
            ],
            [
              10.283381000864868,
              36.894649080465
            ],
            [
              10.283317067278125,
              36.89464977061525
            ],
            [
              10.283316204586491,
              36.89459841694999
            ],
            [
              10.283377549940186,
              36.89444366580631
            ],
            [
              10.283440620658116,
              36.894391626315006
            ],
            [
              10.283439757818646,
              36.89434026829725
            ],
            [
              10.283438895127615,
              36.89428891898452
            ],
            [
              10.283501965605558,
              36.89423687510982
            ],
            [
              10.283501102802955,
              36.89418552144471
            ],
            [
              10.28343630684824,
              36.894134857985335
            ],
            [
              10.283435444019684,
              36.89408349996528
            ],
            [
              10.283371510906022,
              36.8940841901358
            ],
            [
              10.283306715195677,
              36.89403353095434
            ],
            [
              10.283241919497828,
              36.89398286738272
            ],
            [
              10.283177123885599,
              36.893932203773666
            ],
            [
              10.283176261310137,
              36.89388085009937
            ],
            [
              10.283111465828522,
              36.89383018645117
            ],
            [
              10.283046670432526,
              36.893779522765556
            ],
            [
              10.282981875122156,
              36.89372885904254
            ],
            [
              10.282917079897402,
              36.893678195282085
            ],
            [
              10.282916217504082,
              36.89362684160035
            ],
            [
              10.282851422409939,
              36.89357617780074
            ],
            [
              10.276536254211592,
              36.8906651063089
            ],
            [
              10.278347269891665,
              36.88807749952061
            ],
            [
              10.279409973622542,
              36.886627907288855
            ],
            [
              10.279784934921743,
              36.8861102455249
            ],
            [
              10.280408711930267,
              36.88517899441145
            ],
            [
              10.278928105375867,
              36.88457857286895
            ],
            [
              10.278349341392028,
              36.884379344568636
            ],
            [
              10.277446668598964,
              36.88392677843524
            ],
            [
              10.275963536531057,
              36.88317226591546
            ],
            [
              10.275898754962586,
              36.88312159797905
            ],
            [
              10.275705268001694,
              36.883020947864445
            ],
            [
              10.275511786963476,
              36.882920297365175
            ],
            [
              10.274927047124649,
              36.88236157438835
            ],
            [
              10.274537510792891,
              36.88200620866942
            ],
            [
              10.27421275725138,
              36.881701510532665
            ],
            [
              10.273492489993261,
              36.88068196855657
            ],
            [
              10.273229107174119,
              36.88022252081304
            ],
            [
              10.272632433982054,
              36.87894483382246
            ],
            [
              10.272431267702883,
              36.87838199183449
            ],
            [
              10.272233523482118,
              36.878024565527
            ],
            [
              10.272231813981344,
              36.87792185746311
            ],
            [
              10.272097991627254,
              36.87756375129958
            ],
            [
              10.271963315949941,
              36.87715428654339
            ],
            [
              10.27162748767355,
              36.87618198215677
            ],
            [
              10.271289106082802,
              36.87505560992395
            ],
            [
              10.272944975807077,
              36.874678352847106
            ],
            [
              10.274790004739193,
              36.87414495983373
            ],
            [
              10.276823325088579,
              36.87340405957898
            ],
            [
              10.27784082593754,
              36.87308495499508
            ],
            [
              10.281338103639767,
              36.871968694881886
            ],
            [
              10.281842533473638,
              36.87155235298106
            ],
            [
              10.281906447843923,
              36.87155166399202
            ],
            [
              10.282601752385744,
              36.87108189791141
            ],
            [
              10.285131551425874,
              36.86946233520165
            ],
            [
              10.286771660976244,
              36.86816051984496
            ],
            [
              10.288103419617824,
              36.86752974372836
            ],
            [
              10.288673424737038,
              36.86721538910926
            ],
            [
              10.288156084618839,
              36.8668614606777
            ],
            [
              10.287446154451942,
              36.86645824321945
            ],
            [
              10.2869944631318,
              36.866206316524554
            ],
            [
              10.286800141353382,
              36.86605432981561
            ],
            [
              10.286541910797787,
              36.86590303419607
            ],
            [
              10.286348454499429,
              36.865802400561186
            ],
            [
              10.285575497618032,
              36.86545121662979
            ],
            [
              10.285252510153503,
              36.865249254973804
            ],
            [
              10.285123818257212,
              36.86519928254876
            ],
            [
              10.284995137362932,
              36.86514930986356
            ],
            [
              10.284673015346991,
              36.864998700460674
            ],
            [
              10.284222203921283,
              36.86479811672719
            ],
            [
              10.284158295234414,
              36.86479880685379
            ],
            [
              10.2840935242659,
              36.86474814303795
            ],
            [
              10.284029615617424,
              36.864748833094566
            ],
            [
              10.283513175028581,
              36.86444622878329
            ],
            [
              10.28331800279541,
              36.86424288218979
            ],
            [
              10.283124554821113,
              36.86414224311617
            ],
            [
              10.283059785085772,
              36.864091578707495
            ],
            [
              10.282090832147476,
              36.86348567867883
            ],
            [
              10.281897387662427,
              36.863385037526996
            ],
            [
              10.28125228956379,
              36.86303244667034
            ],
            [
              10.280865405535538,
              36.862831161208675
            ],
            [
              10.28054330116258,
              36.862680540209354
            ],
            [
              10.280479383309883,
              36.86268122844086
            ],
            [
              10.279840323872827,
              36.86268810758332
            ],
            [
              10.27971250979194,
              36.862689483022955
            ],
            [
              10.279136487423902,
              36.8626443167749
            ],
            [
              10.278689138235086,
              36.86264912755869
            ],
            [
              10.27856132416163,
              36.86265050175919
            ],
            [
              10.278177881889263,
              36.862654623536336
            ],
            [
              10.277601860465786,
              36.86260944982623
            ],
            [
              10.2770267025389,
              36.86261562732141
            ],
            [
              10.276387631949403,
              36.86262248800645
            ],
            [
              10.275429025659555,
              36.86263277259351
            ],
            [
              10.274469568529794,
              36.86259169527373
            ],
            [
              10.274213940145003,
              36.862594434458956
            ],
            [
              10.273510106779842,
              36.86255061024479
            ],
            [
              10.273190571345244,
              36.86255403155789
            ],
            [
              10.272422837100683,
              36.86251088498592
            ],
            [
              10.272166354554678,
              36.8624622655969
            ],
            [
              10.27050392305645,
              36.86242867396818
            ],
            [
              10.270248294820728,
              36.86243140461447
            ],
            [
              10.268329384059971,
              36.86234915839632
            ],
            [
              10.266794763798227,
              36.8623141516646
            ],
            [
              10.266027884448963,
              36.86232231794429
            ],
            [
              10.265387114204346,
              36.862226410838474
            ],
            [
              10.265069278054627,
              36.86233251891032
            ],
            [
              10.261551853298467,
              36.86221579307395
            ],
            [
              10.261487946198823,
              36.86221647097055
            ],
            [
              10.261232317778859,
              36.86221918221349
            ],
            [
              10.260912782205809,
              36.86222257049429
            ],
            [
              10.260145055857068,
              36.86217934439828
            ],
            [
              10.259952488495207,
              36.862130021301084
            ],
            [
              10.258801315679959,
              36.862090848245785
            ],
            [
              10.257521490599938,
              36.86200166105413
            ],
            [
              10.25681766931737,
              36.86195773767773
            ],
            [
              10.25624166267673,
              36.86191246007771
            ],
            [
              10.25540919123112,
              36.86181852380911
            ],
            [
              10.2547692793737,
              36.86177391362246
            ],
            [
              10.254513651767942,
              36.86177661038845
            ],
            [
              10.2543858379523,
              36.86177795856535
            ],
            [
              10.25432277330657,
              36.86182998712965
            ],
            [
              10.25345080696019,
              36.86322599253857
            ],
            [
              10.253201065321923,
              36.86358816830881
            ],
            [
              10.251204734488168,
              36.86658825672636
            ],
            [
              10.250831349459398,
              36.86720854524363
            ],
            [
              10.249334393269395,
              36.86948426114175
            ],
            [
              10.247213287308,
              36.87269104642632
            ],
            [
              10.245530223308638,
              36.875328209427636
            ],
            [
              10.244717686880383,
              36.876466711067835
            ],
            [
              10.24440477856218,
              36.876880892800344
            ],
            [
              10.243903449620653,
              36.877502493901396
            ],
            [
              10.243588861638305,
              36.87781396438214
            ],
            [
              10.24333485022058,
              36.877919342949426
            ],
            [
              10.242953831940287,
              36.878077420685145
            ],
            [
              10.24257281734134,
              36.87823548846183
            ],
            [
              10.24206645739662,
              36.87854895876132
            ],
            [
              10.2416231804575,
              36.878810404895816
            ],
            [
              10.241117646737676,
              36.87917522589728
            ],
            [
              10.240170492607461,
              36.879904194919995
            ],
            [
              10.239285572404032,
              36.88052977681501
            ],
            [
              10.23802126216062,
              36.88141611958297
            ],
            [
              10.237199399728851,
              36.88198967052039
            ],
            [
              10.236692167138791,
              36.882251763841424
            ],
            [
              10.236500393936987,
              36.882253758253626
            ],
            [
              10.236888090986925,
              36.882506542628
            ],
            [
              10.237210208304402,
              36.88265728142063
            ],
            [
              10.237597083418407,
              36.882858708651895
            ],
            [
              10.237983128572534,
              36.883008779915556
            ],
            [
              10.238561777483165,
              36.88320820713056
            ],
            [
              10.239338873740145,
              36.883816465385806
            ],
            [
              10.23966350064249,
              36.88412126117472
            ],
            [
              10.239728259698904,
              36.88417194929457
            ],
            [
              10.240049556077274,
              36.884271325498865
            ],
            [
              10.240113482075992,
              36.884270658788964
            ],
            [
              10.240177408072611,
              36.88426999204468
            ],
            [
              10.24017824148127,
              36.88432134230156
            ],
            [
              10.24024216751857,
              36.884320675521664
            ],
            [
              10.240306093553766,
              36.884320008707384
            ],
            [
              10.24037001958686,
              36.884319341858735
            ],
            [
              10.240370853267304,
              36.88437070081708
            ],
            [
              10.240434779341086,
              36.88437003393281
            ],
            [
              10.240498705412767,
              36.88436936701415
            ],
            [
              10.24056263148234,
              36.88436870006113
            ],
            [
              10.240627385912648,
              36.88441938773039
            ],
            [
              10.240691317441026,
              36.8844187206508
            ],
            [
              10.24075524354708,
              36.8844180535934
            ],
            [
              10.240819998144344,
              36.88446874115412
            ],
            [
              10.240883929709202,
              36.88446807397017
            ],
            [
              10.240948684432738,
              36.88451876145794
            ],
            [
              10.241012610615954,
              36.88451809426054
            ],
            [
              10.241076536797063,
              36.884517427028776
            ],
            [
              10.241077370815287,
              36.884568777266
            ],
            [
              10.24114129703708,
              36.88456810999861
            ],
            [
              10.241205223256767,
              36.88456744269684
            ],
            [
              10.241206057504089,
              36.88461880163677
            ],
            [
              10.241269983764466,
              36.88461813429939
            ],
            [
              10.241334744216331,
              36.88466881715895
            ],
            [
              10.241398670515284,
              36.88466814975157
            ],
            [
              10.241463431164135,
              36.884718836891025
            ],
            [
              10.242235556312872,
              36.88501895228177
            ],
            [
              10.242493767736947,
              36.88517034415902
            ],
            [
              10.243138882976016,
              36.88552314402645
            ],
            [
              10.243203640066442,
              36.885573830231884
            ],
            [
              10.242506293825668,
              36.885940662461664
            ],
            [
              10.243862137903852,
              36.88674829406822
            ],
            [
              10.245288635072326,
              36.887966080211235
            ],
            [
              10.245549373941337,
              36.88827152414146
            ],
            [
              10.245548536745236,
              36.88822016967083
            ],
            [
              10.245612465902727,
              36.888219499941734
            ],
            [
              10.241174977094149,
              36.93777976543425
            ],
            [
              10.24143002369505,
              36.93772573854506
            ],
            [
              10.24270273531835,
              36.937301533729766
            ],
            [
              10.244748098963882,
              36.937177402000884
            ],
            [
              10.248183137734996,
              36.935960036540266
            ],
            [
              10.252497597868661,
              36.933757404786576
            ],
            [
              10.252925960705934,
              36.93257155305452
            ],
            [
              10.2530319604516,
              36.931235001664945
            ],
            [
              10.253523427386426,
              36.92999711493365
            ],
            [
              10.25408221833679,
              36.928963967103954
            ],
            [
              10.254311897036924,
              36.927369294551916
            ],
            [
              10.25455253870837,
              36.92644222728352
            ],
            [
              10.2551205832355,
              36.925973963943115
            ]
          ]
        ]
      }
    }
  ]
}