{
  "type": "FeatureCollection",
  "features": [
    {
      "type": "Feature",
      "id": "osm:relation:7062337",
      "properties": {
        "sourceId": "isie-best-effort-imada-tunis-marsa-beach-20260924",
        "officialCode": "117151",
        "governorateCode": "11",
        "delegationCode": "1171",
        "nameAr": "المرسى الشاطئ",
        "nameFr": "La Marsa Plage",
        "sourcePdfURL": "https://www.isie.tn/wp-content/uploads/2023/CartesCirconscriptionsElectoralesLocales2023/%D8%AA%D9%88%D9%86%D8%B3%202/%D8%A7%D9%84%D9%85%D8%B1%D8%B3%D9%89/%D8%A7%D9%84%D9%85%D8%B1%D8%B3%D9%89%20%D8%A7%D9%84%D8%B4%D8%A7%D8%B7%D8%A6.pdf",
        "sourcePdfSha256": "384892c462c26173b31c487b5fe943d76cc9085a36e51ea5e70a3e88c038eaf9",
        "sourceGeometrySha256": "98bbda0734d8249c8eacc1ae386e803cc1c1b3e62e5074ae621e3c6edba9f9e3",
        "geometryMethod": "Extracted red vector boundary path 648 from the official ISIE 2023 GeoPDF; georeferenced using the PDF controls in EPSG:32632 (maximum residual 0.133896 m). Only the red vector path is stored; PDF imagery was not copied or traced.",
        "boundaryCertainty": "best_effort_imada",
        "drawingIndex": 648,
        "pdfGeoreferenceControlMaxResidualMeters": 0.13389572971162042,
        "targetLabelCenterInside": false,
        "targetLabelCenterDistancePagePoints": 25.113022926437928,
        "targetLabelBoxIntersects": true
      },
      "geometry": {
        "type": "Polygon",
        "coordinates": [
          [
            [
              10.252436662298985,
              36.94309120815297
            ],
            [
              10.252771668387323,
              36.94288395007884
            ],
            [
              10.253273616996895,
              36.942539106140494
            ],
            [
              10.254197375692755,
              36.9421218883456
            ],
            [
              10.254783899402332,
              36.94177615087025
            ],
            [
              10.255120008724438,
              36.94163677494018
            ],
            [
              10.255453887884448,
              36.94136161225872
            ],
            [
              10.255872344928893,
              36.941085551650865
            ],
            [
              10.255955814283936,
              36.94101675730883
            ],
            [
              10.256040397174914,
              36.94101586014196
            ],
            [
              10.256039280871276,
              36.94094796725647
            ],
            [
              10.256123866372176,
              36.94094707000304
            ],
            [
              10.256208449180667,
              36.940946172717936
            ],
            [
              10.256207332730755,
              36.940878279836035
            ],
            [
              10.256291918149168,
              36.94087738246436
            ],
            [
              10.256290801627989,
              36.940809489583856
            ],
            [
              10.256375386967651,
              36.94080859215414
            ],
            [
              10.256458852876438,
              36.94073979749805
            ],
            [
              10.256543438133608,
              36.9407388999501
            ],
            [
              10.256542321394887,
              36.94067100707455
            ],
            [
              10.25662690657331,
              36.94067010946859
            ],
            [
              10.256625789763318,
              36.940602216594435
            ],
            [
              10.256709255222049,
              36.940533421768414
            ],
            [
              10.256792723290449,
              36.940464631175026
            ],
            [
              10.256876188520183,
              36.940395840553535
            ],
            [
              10.256959656288556,
              36.94032704984687
            ],
            [
              10.257379219649739,
              36.94011887695438
            ],
            [
              10.25771308403328,
              36.93984370812838
            ],
            [
              10.259387955077287,
              36.938807314647086
            ],
            [
              10.259890966526356,
              36.93853034070189
            ],
            [
              10.260392854246483,
              36.93818547187826
            ],
            [
              10.261063901167326,
              36.93783879532669
            ],
            [
              10.261565781698724,
              36.93749392166247
            ],
            [
              10.2616503605136,
              36.93749302057332
            ],
            [
              10.262153354990486,
              36.9372160373012
            ],
            [
              10.262321392858599,
              36.93714633712607
            ],
            [
              10.262740929335644,
              36.93693815004281
            ],
            [
              10.26299129951744,
              36.93673176151857
            ],
            [
              10.26315933553682,
              36.93666206018651
            ],
            [
              10.263410826413782,
              36.93652356787106
            ],
            [
              10.263744653297874,
              36.936248382627824
            ],
            [
              10.2640795983272,
              36.93604108923989
            ],
            [
              10.264247634500139,
              36.93597138637846
            ],
            [
              10.264751730611863,
              36.935762289465465
            ],
            [
              10.265003220903472,
              36.93562378949195
            ],
            [
              10.265338159734455,
              36.93541649264868
            ],
            [
              10.265757675583746,
              36.93520829089261
            ],
            [
              10.26617718912315,
              36.935000087690426
            ],
            [
              10.266680147838567,
              36.934723085777165
            ],
            [
              10.267267686207882,
              36.93444517667765
            ],
            [
              10.268022116736274,
              36.93402966406282
            ],
            [
              10.268861110671834,
              36.93361324498501
            ],
            [
              10.269196035467859,
              36.93340593749835
            ],
            [
              10.269697844399795,
              36.933061026195745
            ],
            [
              10.270536823779388,
              36.93264459552849
            ],
            [
              10.271459239587161,
              36.93215935418499
            ],
            [
              10.27213017979792,
              36.931812616732486
            ],
            [
              10.272466212917914,
              36.93167319721899
            ],
            [
              10.272885688409392,
              36.931464970909786
            ],
            [
              10.273304030298515,
              36.93118884629314
            ],
            [
              10.273806937682913,
              36.930911814985976
            ],
            [
              10.274142963701017,
              36.930772390840275
            ],
            [
              10.274562434966539,
              36.93056415870004
            ],
            [
              10.275065333599748,
              36.93028712219987
            ],
            [
              10.275568233935198,
              36.93001008356877
            ],
            [
              10.275988825224006,
              36.92986973906825
            ],
            [
              10.276490585424385,
              36.929524804144265
            ],
            [
              10.277330617480008,
              36.92917621488724
            ],
            [
              10.278254083002636,
              36.92875881455424
            ],
            [
              10.278923825919652,
              36.92834415156239
            ],
            [
              10.279594698126134,
              36.927997373000856
            ],
            [
              10.2809387052872,
              36.92743959814654
            ],
            [
              10.281359266800933,
              36.92729923508201
            ],
            [
              10.281695268136861,
              36.92715978999077
            ],
            [
              10.282199256981274,
              36.92695061640799
            ],
            [
              10.28244954696955,
              36.926744188086
            ],
            [
              10.28270096966628,
              36.926605655979564
            ],
            [
              10.283122668334386,
              36.92653317908399
            ],
            [
              10.28345751751441,
              36.92632583252181
            ],
            [
              10.283961501345441,
              36.9261166558884
            ],
            [
              10.284382055176318,
              36.92597628227543
            ],
            [
              10.285136307440315,
              36.92556066372796
            ],
            [
              10.286312238814684,
              36.9250725568097
            ],
            [
              10.286816200884202,
              36.924863364067
            ],
            [
              10.28715217588139,
              36.924723903934805
            ],
            [
              10.28731902215192,
              36.92458627692553
            ],
            [
              10.287571572350041,
              36.92451562700832
            ],
            [
              10.287907549703133,
              36.92437616041073
            ],
            [
              10.28807553257304,
              36.92430642898047
            ],
            [
              10.288243520507782,
              36.924236697259204
            ],
            [
              10.288411502755164,
              36.924166965363874
            ],
            [
              10.288580634541203,
              36.92416512539684
            ],
            [
              10.28883203734914,
              36.924026576309764
            ],
            [
              10.289000023956186,
              36.92395684354024
            ],
            [
              10.289168004803074,
              36.923887106278954
            ],
            [
              10.289335990787569,
              36.92381737304438
            ],
            [
              10.289503971084732,
              36.92374763963581
            ],
            [
              10.289671956446686,
              36.92367790593619
            ],
            [
              10.289924501278652,
              36.92360724678635
            ],
            [
              10.290177045703128,
              36.92353659142536
            ],
            [
              10.29042844886626,
              36.92339803898129
            ],
            [
              10.290848975438122,
              36.923257647237506
            ],
            [
              10.29168887114036,
              36.92290895863555
            ],
            [
              10.2921928092147,
              36.922699747818804
            ],
            [
              10.292865866835808,
              36.92248868465334
            ],
            [
              10.293622335419292,
              36.92220880206831
            ],
            [
              10.294463361508285,
              36.921927986287
            ],
            [
              10.294883872256568,
              36.92178758052043
            ],
            [
              10.295305531759556,
              36.92171506535854
            ],
            [
              10.295643778188152,
              36.921711365819704
            ],
            [
              10.295811753210259,
              36.92164161928859
            ],
            [
              10.295979722618355,
              36.92157187690157
            ],
            [
              10.296064285394554,
              36.921570951615536
            ],
            [
              10.296232259784608,
              36.92150120881915
            ],
            [
              10.296316817098422,
              36.92150028341369
            ],
            [
              10.29656705074279,
              36.92129382623296
            ],
            [
              10.296901839875614,
              36.92108644273105
            ],
            [
              10.29740689790651,
              36.920945097999486
            ],
            [
              10.29791080685778,
              36.92073586340432
            ],
            [
              10.298164492211036,
              36.92073308329517
            ],
            [
              10.29850042759422,
              36.9205935873963
            ],
            [
              10.29875295369635,
              36.920522914108936
            ],
            [
              10.299091194396816,
              36.92051920485561
            ],
            [
              10.299513996529393,
              36.92051456692033
            ],
            [
              10.299598558019474,
              36.92051363914096
            ],
            [
              10.299683114129877,
              36.9205127113604
            ],
            [
              10.299851082702505,
              36.92044295922463
            ],
            [
              10.300103606978446,
              36.920372283097315
            ],
            [
              10.300441852207848,
              36.92036856995211
            ],
            [
              10.300948053903202,
              36.92029510661664
            ],
            [
              10.301285137725408,
              36.92022349921042
            ],
            [
              10.301709093808075,
              36.92028674540902
            ],
            [
              10.301793654972766,
              36.92028581607197
            ],
            [
              10.301879372238847,
              36.92035277858026
            ],
            [
              10.302049645581905,
              36.920418811559976
            ],
            [
              10.302133050547047,
              36.92034999007979
            ],
            [
              10.302217611767295,
              36.92034906043959
            ],
            [
              10.302470133399275,
              36.92027837932748
            ],
            [
              10.30272381677713,
              36.92027558951112
            ],
            [
              10.302892933633869,
              36.920273729391816
            ],
            [
              10.30306205585089,
              36.92027186897269
            ],
            [
              10.303146611577802,
              36.920270938732
            ],
            [
              10.303314576396454,
              36.920201186084206
            ],
            [
              10.303400294862628,
              36.920268147471496
            ],
            [
              10.303652815061968,
              36.92019746387007
            ],
            [
              10.303906492676434,
              36.92019467159247
            ],
            [
              10.30399221163993,
              36.92026163254262
            ],
            [
              10.304247053011558,
              36.92032673131872
            ],
            [
              10.30433277241684,
              36.9203936920129
            ],
            [
              10.304674487637168,
              36.920593646684786
            ],
            [
              10.304844763885452,
              36.920659679914344
            ],
            [
              10.30535676417502,
              36.9209256611503
            ],
            [
              10.305799281433568,
              36.92207518282518
            ],
            [
              10.30722870387711,
              36.921584075161654
            ],
            [
              10.306714371917282,
              36.92118231439307
            ],
            [
              10.306620527077559,
              36.92064010445464
            ],
            [
              10.306864926759035,
              36.920094158639664
            ],
            [
              10.307533274262884,
              36.91961144211014
            ],
            [
              10.30838002747518,
              36.91967000089204
            ],
            [
              10.308893195169572,
              36.92000385853775
            ],
            [
              10.309068118057429,
              36.92034145258688
            ],
            [
              10.308741507079358,
              36.92102412028179
            ],
            [
              10.309501388969952,
              36.920947817313724
            ],
            [
              10.310341176140144,
              36.92059900307171
            ],
            [
              10.309983154992326,
              36.91944856412264
            ],
            [
              10.310736036193727,
              36.918964894814465
            ],
            [
              10.310902826823995,
              36.91882723561373
            ],
            [
              10.311063795908032,
              36.91835011348467
            ],
            [
              10.311311639303055,
              36.9180078428715
            ],
            [
              10.31147609782483,
              36.91773439955383
            ],
            [
              10.311557162047245,
              36.91752978398019
            ],
            [
              10.31180501133865,
              36.9171875079499
            ],
            [
              10.311801516963792,
              36.916983828612025
            ],
            [
              10.3118825796503,
              36.916779217141425
            ],
            [
              10.311880249935436,
              36.91664342947263
            ],
            [
              10.311964806733904,
              36.91664249297387
            ],
            [
              10.311963641844448,
              36.9165746012994
            ],
            [
              10.31204818781309,
              36.916573664861865
            ],
            [
              10.312131579419383,
              36.91650483225668
            ],
            [
              10.31221613605632,
              36.91650389558202
            ],
            [
              10.312300692689348,
              36.91650295884719
            ],
            [
              10.312384084062279,
              36.916434130387586
            ],
            [
              10.312468640612591,
              36.916433193534736
            ],
            [
              10.312553197159001,
              36.91643225662169
            ],
            [
              10.312637753701505,
              36.91643131964852
            ],
            [
              10.312722310240108,
              36.916430382615175
            ],
            [
              10.312806866774803,
              36.91642944552166
            ],
            [
              10.312891412554606,
              36.91642850848713
            ],
            [
              10.312975969081492,
              36.916427571273296
            ],
            [
              10.313060525604474,
              36.91642663399929
            ],
            [
              10.31314508212355,
              36.91642569666512
            ],
            [
              10.313229638638719,
              36.9164247592708
            ],
            [
              10.313314195149982,
              36.9164238218163
            ],
            [
              10.313315361230186,
              36.9164917134557
            ],
            [
              10.313399917812452,
              36.91649077593875
            ],
            [
              10.313484474390814,
              36.916489838361635
            ],
            [
              10.313485640698909,
              36.91655773431335
            ],
            [
              10.31357019734828,
              36.91655679667379
            ],
            [
              10.313657086772954,
              36.916691642230454
            ],
            [
              10.313660586045238,
              36.916895321426686
            ],
            [
              10.313917746312434,
              36.91709618721963
            ],
            [
              10.314088027560237,
              36.9171622028526
            ],
            [
              10.314341688686108,
              36.91715938854727
            ],
            [
              10.315188418449521,
              36.91721789923818
            ],
            [
              10.31552781578204,
              36.91728203498393
            ],
            [
              10.315956434269228,
              36.917616801055914
            ],
            [
              10.31705450431938,
              36.917536692483644
            ],
            [
              10.317221280285167,
              36.917399024661485
            ],
            [
              10.317722763995025,
              36.91705392010973
            ],
            [
              10.317806150962397,
              36.91698508793323
            ],
            [
              10.317890707936563,
              36.9169841472092
            ],
            [
              10.317889537705522,
              36.91691625138265
            ],
            [
              10.317972924373237,
              36.91684741909339
            ],
            [
              10.31788719740403,
              36.91678046836253
            ],
            [
              10.31788602725916,
              36.916712576851246
            ],
            [
              10.31788485704379,
              36.91664468102147
            ],
            [
              10.317967073219496,
              36.916507957226784
            ],
            [
              10.318045778156659,
              36.9161675502055
            ],
            [
              10.318212538714176,
              36.91602988549165
            ],
            [
              10.318209027447285,
              36.91582620663862
            ],
            [
              10.318207857057637,
              36.91575831512521
            ],
            [
              10.318292412663807,
              36.91575737414181
            ],
            [
              10.318291242128732,
              36.9156894783122
            ],
            [
              10.318290071672012,
              36.91562158679948
            ],
            [
              10.318373456596735,
              36.915552754249305
            ],
            [
              10.318372285998503,
              36.91548485841955
            ],
            [
              10.318455670702418,
              36.91541602581451
            ],
            [
              10.318539055256519,
              36.91534719315308
            ],
            [
              10.318622439586353,
              36.91527835611758
            ],
            [
              10.31862126885352,
              36.915210464609224
            ],
            [
              10.318705823840821,
              36.915209523343435
            ],
            [
              10.318790378824199,
              36.915208582017485
            ],
            [
              10.318874933803654,
              36.915207640631365
            ],
            [
              10.318873762850027,
              36.915139749129104
            ],
            [
              10.318958317750655,
              36.915138807685125
            ],
            [
              10.319042861896579,
              36.91513786630071
            ],
            [
              10.319882540544496,
              36.914788982049785
            ],
            [
              10.320050477519846,
              36.914719206206044
            ],
            [
              10.320218414183804,
              36.91464943013007
            ],
            [
              10.32029476306144,
              36.914173238800345
            ],
            [
              10.320293590893312,
              36.914105347325126
            ],
            [
              10.320292418654562,
              36.914037451531385
            ],
            [
              10.320291246494286,
              36.91396956005454
            ],
            [
              10.320290074337928,
              36.91390166857688
            ],
            [
              10.320288902110953,
              36.91383377278071
            ],
            [
              10.320287729962445,
              36.91376588130143
            ],
            [
              10.32028655781786,
              36.913697989821344
            ],
            [
              10.320285385677202,
              36.91363009834044
            ],
            [
              10.320368766577053,
              36.91356126012739
            ],
            [
              10.320367594369342,
              36.91349336864718
            ],
            [
              10.320366422165558,
              36.91342547716616
            ],
            [
              10.320365249891147,
              36.913357581366625
            ],
            [
              10.320364077695208,
              36.91328968988399
            ],
            [
              10.320362905503195,
              36.91322179840054
            ],
            [
              10.320361733315105,
              36.91315390691628
            ],
            [
              10.320273664262789,
              36.91295117053384
            ],
            [
              10.320355872284424,
              36.91281444084745
            ],
            [
              10.320353527959256,
              36.91267865786839
            ],
            [
              10.320352355728014,
              36.912610762059956
            ],
            [
              10.320267803665459,
              36.91261170444133
            ],
            [
              10.32026663158758,
              36.912543812947476
            ],
            [
              10.320265459513626,
              36.9124759214528
            ],
            [
              10.320264287369055,
              36.91240802563965
            ],
            [
              10.320347667065917,
              36.91233919177122
            ],
            [
              10.32034649492884,
              36.91227130027643
            ],
            [
              10.320345322795687,
              36.91220340878084
            ],
            [
              10.320344150591913,
              36.912135512966735
            ],
            [
              10.320342978466607,
              36.91206762146951
            ],
            [
              10.320341806345223,
              36.91199972997149
            ],
            [
              10.320340634153224,
              36.91193183415496
            ],
            [
              10.320425174712572,
              36.91193089185632
            ],
            [
              10.320424002524152,
              36.911863000358984
            ],
            [
              10.32042283033966,
              36.91179510886083
            ],
            [
              10.32042165815909,
              36.91172721736188
            ],
            [
              10.320420485907897,
              36.91165932154442
            ],
            [
              10.320419313735176,
              36.911591430043835
            ],
            [
              10.320418141566378,
              36.91152353854246
            ],
            [
              10.32041696932696,
              36.911455642722565
            ],
            [
              10.32041579716601,
              36.91138775121956
            ],
            [
              10.320414625008985,
              36.911319859715746
            ],
            [
              10.320413452855883,
              36.91125196821112
            ],
            [
              10.320153952179673,
              36.91091532889178
            ],
            [
              10.32014340502774,
              36.91030429657963
            ],
            [
              10.320225610588313,
              36.91016756697554
            ],
            [
              10.320054168199334,
              36.91003366401806
            ],
            [
              10.319712456835367,
              36.90983375749256
            ],
            [
              10.31970659938704,
              36.90949429114466
            ],
            [
              10.319617375948102,
              36.909223662367665
            ],
            [
              10.319529313687964,
              36.90902092517411
            ],
            [
              10.319444765559256,
              36.90902186689193
            ],
            [
              10.319359046305491,
              36.90895491698981
            ],
            [
              10.319273327201488,
              36.908887967022125
            ],
            [
              10.319272156088607,
              36.90882007114068
            ],
            [
              10.319186437213169,
              36.90875312110431
            ],
            [
              10.319185266257481,
              36.908685229536644
            ],
            [
              10.319184095231245,
              36.908617333650476
            ],
            [
              10.319099547536142,
              36.9086182751139
            ],
            [
              10.319098376663176,
              36.90855038354231
            ],
            [
              10.319097205794128,
              36.90848249196992
            ],
            [
              10.319096034928998,
              36.90841460039671
            ],
            [
              10.319011487454615,
              36.908415541793076
            ],
            [
              10.319010316593827,
              36.908347645899056
            ],
            [
              10.319009145811417,
              36.90827975432194
            ],
            [
              10.319007975032928,
              36.908211862744
            ],
            [
              10.3190068041839,
              36.90814396684755
            ],
            [
              10.318921086309347,
              36.9080770165927
            ],
            [
              10.318919915617494,
              36.908009125010025
            ],
            [
              10.31891874492956,
              36.90794123342655
            ],
            [
              10.318833038037672,
              36.90787427866253
            ],
            [
              10.318831867432444,
              36.90780638707512
            ],
            [
              10.31857354542637,
              36.90753763977727
            ],
            [
              10.318402111880488,
              36.90740373420378
            ],
            [
              10.318316395369388,
              36.90733678347757
            ],
            [
              10.318229508887795,
              36.90720193675727
            ],
            [
              10.318141452832663,
              36.90699920266656
            ],
            [
              10.317881976972377,
              36.906662557666046
            ],
            [
              10.317711716242236,
              36.90659654696295
            ],
            [
              10.317540286321691,
              36.906462640053476
            ],
            [
              10.317197439101456,
              36.90619482964604
            ],
            [
              10.317196270016733,
              36.90612693799467
            ],
            [
              10.317110555996013,
              36.906059986335144
            ],
            [
              10.317109386919647,
              36.90599209036213
            ],
            [
              10.317023673127457,
              36.90592513863393
            ],
            [
              10.317022504208131,
              36.90585724697474
            ],
            [
              10.31702133521838,
              36.905789350997
            ],
            [
              10.31693679057013,
              36.90579029086017
            ],
            [
              10.316935621733501,
              36.905722399197046
            ],
            [
              10.316934452900783,
              36.90565450753311
            ],
            [
              10.316933284071983,
              36.90558661586835
            ],
            [
              10.316932115172758,
              36.905518719885094
            ],
            [
              10.316846402073969,
              36.90545176801024
            ],
            [
              10.316845233257444,
              36.90538387202305
            ],
            [
              10.316841727054333,
              36.90518019700977
            ],
            [
              10.316834714605092,
              36.90477283832592
            ],
            [
              10.31673965341041,
              36.904162744250925
            ],
            [
              10.316645762288791,
              36.903620537387035
            ],
            [
              10.316643425244713,
              36.90348474967666
            ],
            [
              10.316546030747123,
              36.90273887184281
            ],
            [
              10.31654369395447,
              36.90260308410678
            ],
            [
              10.316703428103375,
              36.902058058395596
            ],
            [
              10.316702259631645,
              36.901990166683355
            ],
            [
              10.316785631552621,
              36.90192133535848
            ],
            [
              10.31694886876656,
              36.90157998877612
            ],
            [
              10.317110935840779,
              36.90117075458623
            ],
            [
              10.317689839312306,
              36.900417352588356
            ],
            [
              10.317939935998048,
              36.90021084794989
            ],
            [
              10.318187702834527,
              36.89986856792922
            ],
            [
              10.318687910264346,
              36.899455564531486
            ],
            [
              10.319021368092061,
              36.89918022504757
            ],
            [
              10.319272638683925,
              36.89904161790652
            ],
            [
              10.319522726698567,
              36.89883511437952
            ],
            [
              10.319858531889532,
              36.89869556016429
            ],
            [
              10.320026434055524,
              36.89862578486739
            ],
            [
              10.320195496581478,
              36.89862390111419
            ],
            [
              10.320363398270947,
              36.89855412534933
            ],
            [
              10.320528956156492,
              36.898348561737
            ],
            [
              10.320611148845963,
              36.89821183186508
            ],
            [
              10.320523097604969,
              36.89800909916099
            ],
            [
              10.320519582416802,
              36.89780541556088
            ],
            [
              10.320598259439986,
              36.89746501504223
            ],
            [
              10.32067810744611,
              36.89719249749005
            ],
            [
              10.32084131772492,
              36.896851145835555
            ],
            [
              10.321174756730265,
              36.89657580920144
            ],
            [
              10.321422497503287,
              36.896233514112154
            ],
            [
              10.321589220300316,
              36.89609584506539
            ],
            [
              10.321588047679095,
              36.896027949100905
            ],
            [
              10.321585702523004,
              36.895892161487225
            ],
            [
              10.321584529988128,
              36.89582426983802
            ],
            [
              10.321582184930156,
              36.895688486537196
            ],
            [
              10.321659682598785,
              36.89528018504417
            ],
            [
              10.321657337453953,
              36.895144401735
            ],
            [
              10.32165499225025,
              36.895008614104896
            ],
            [
              10.321738341388453,
              36.89493977526539
            ],
            [
              10.321733650893712,
              36.89466820863685
            ],
            [
              10.321644439139737,
              36.89439757620587
            ],
            [
              10.321642094096957,
              36.89426179287567
            ],
            [
              10.321640921581453,
              36.89419390120934
            ],
            [
              10.321638576487656,
              36.894058113556554
            ],
            [
              10.321885123908432,
              36.89364792601478
            ],
            [
              10.322048321769435,
              36.89330657707699
            ],
            [
              10.322047148934773,
              36.89323868541088
            ],
            [
              10.322129333682042,
              36.893101954535986
            ],
            [
              10.322128160709742,
              36.89303405855204
            ],
            [
              10.322296048463679,
              36.89296428026884
            ],
            [
              10.322378232556927,
              36.89282755354793
            ],
            [
              10.322627118841307,
              36.8925531478636
            ],
            [
              10.322795005079133,
              36.89248336889958
            ],
            [
              10.323128418298584,
              36.89220802278215
            ],
            [
              10.323461839871314,
              36.891932675643936
            ],
            [
              10.32379643336529,
              36.89172521924117
            ],
            [
              10.323878613414267,
              36.89158848721617
            ],
            [
              10.32412983968561,
              36.89144987041553
            ],
            [
              10.32429654735903,
              36.89131219776376
            ],
            [
              10.32471565322939,
              36.8911037898709
            ],
            [
              10.324884709592967,
              36.89110189965275
            ],
            [
              10.324968062441316,
              36.89103306284236
            ],
            [
              10.325134767689116,
              36.89089538905271
            ],
            [
              10.325302647949442,
              36.89082560664305
            ],
            [
              10.325469341319852,
              36.89068792820261
            ],
            [
              10.325636044839065,
              36.89055024941679
            ],
            [
              10.325718220446184,
              36.890413520500694
            ],
            [
              10.32588492292585,
              36.89027584138017
            ],
            [
              10.325968273978635,
              36.890207003894325
            ],
            [
              10.326136151880323,
              36.89013721602616
            ],
            [
              10.326302842333028,
              36.88999954077778
            ],
            [
              10.326470719541703,
              36.88992975676721
            ],
            [
              10.326554069688862,
              36.88986091888438
            ],
            [
              10.326805296052402,
              36.88972229215687
            ],
            [
              10.32705651075131,
              36.88958366503335
            ],
            [
              10.327224386341639,
              36.8895138799847
            ],
            [
              10.327307735354806,
              36.8894450415908
            ],
            [
              10.32747561040569,
              36.889375256196125
            ],
            [
              10.327557781421701,
              36.889238521753775
            ],
            [
              10.32780899315178,
              36.889099893086566
            ],
            [
              10.32806021478643,
              36.888961268100296
            ],
            [
              10.328143562445144,
              36.88889242914062
            ],
            [
              10.32822808807331,
              36.88889148167139
            ],
            [
              10.328480475768652,
              36.888820743166136
            ],
            [
              10.32864834835069,
              36.888750956155484
            ],
            [
              10.328731695170596,
              36.88868211247815
            ],
            [
              10.328899567213188,
              36.8886123251215
            ],
            [
              10.329067438944708,
              36.8885425375329
            ],
            [
              10.32915078523321,
              36.8884736978889
            ],
            [
              10.329234120625115,
              36.88840485830919
            ],
            [
              10.329400812379088,
              36.88826717442214
            ],
            [
              10.3295675035346,
              36.888129490310014
            ],
            [
              10.329735373584844,
              36.8880597018052
            ],
            [
              10.329902063760175,
              36.8879220215576
            ],
            [
              10.33023661126584,
              36.88771454337726
            ],
            [
              10.330403299787587,
              36.887576862451446
            ],
            [
              10.330655691863024,
              36.8875061236328
            ],
            [
              10.330906892206254,
              36.88736748859993
            ],
            [
              10.331074759330978,
              36.88729769825128
            ],
            [
              10.33124262606954,
              36.88722790335301
            ],
            [
              10.331578348016826,
              36.88708832161689
            ],
            [
              10.331746213897272,
              36.88701853034061
            ],
            [
              10.33191526077037,
              36.88701663029883
            ],
            [
              10.332083126174316,
              36.8869468385549
            ],
            [
              10.332081944649817,
              36.88687894277463
            ],
            [
              10.33207958168781,
              36.886743155529366
            ],
            [
              10.332164104811303,
              36.88674220530742
            ],
            [
              10.332162923299004,
              36.88667431384475
            ],
            [
              10.332330776979859,
              36.886604521887236
            ],
            [
              10.33249745929676,
              36.88646683812121
            ],
            [
              10.332666504901823,
              36.8864649370349
            ],
            [
              10.332749845603193,
              36.886396090634264
            ],
            [
              10.33299986696004,
              36.88618955973023
            ],
            [
              10.333252241193177,
              36.88611881563878
            ],
            [
              10.33333558106423,
              36.886049973159054
            ],
            [
              10.33342010338035,
              36.886049022058934
            ],
            [
              10.333589148000707,
              36.88604711967842
            ],
            [
              10.333673670304943,
              36.88604616839802
            ],
            [
              10.333758192605217,
              36.886045217057536
            ],
            [
              10.333757009711372,
              36.88597732563097
            ],
            [
              10.333755826746257,
              36.88590942988589
            ],
            [
              10.333840338146356,
              36.885908478610936
            ],
            [
              10.333924860289109,
              36.88590752715489
            ],
            [
              10.333926043403814,
              36.88597542289532
            ],
            [
              10.334098637417965,
              36.886177194047626
            ],
            [
              10.334348654432128,
              36.885970664702086
            ],
            [
              10.33409272137763,
              36.885837732643694
            ],
            [
              10.33409153812125,
              36.88576983690631
            ],
            [
              10.334090354944072,
              36.885701945485835
            ],
            [
              10.334174876850547,
              36.88570099385651
            ],
            [
              10.334257032111415,
              36.885564259333
            ],
            [
              10.334340370470702,
              36.885495416172205
            ],
            [
              10.334508219450026,
              36.88542561689812
            ],
            [
              10.33459155743138,
              36.88535677356707
            ],
            [
              10.334759416617823,
              36.88528697382608
            ],
            [
              10.334926091675065,
              36.88514928676725
            ],
            [
              10.335178471354771,
              36.88507853855457
            ],
            [
              10.335262992536553,
              36.885077586164996
            ],
            [
              10.335347502967874,
              36.885076633836405
            ],
            [
              10.335430839732185,
              36.885007785617645
            ],
            [
              10.335599881918387,
              36.88500588042248
            ],
            [
              10.335683218450908,
              36.88493703634965
            ],
            [
              10.335766554833846,
              36.88486819222058
            ],
            [
              10.335851075763475,
              36.88486723941732
            ],
            [
              10.336018932689619,
              36.88479743793546
            ],
            [
              10.336185593646093,
              36.884659749286236
            ],
            [
              10.336270114331501,
              36.884658796189534
            ],
            [
              10.336439155690412,
              36.88465688981584
            ],
            [
              10.33660938239489,
              36.88472287456447
            ],
            [
              10.336691532266729,
              36.8845861384434
            ],
            [
              10.336773681775913,
              36.88444939795066
            ],
            [
              10.33685701663921,
              36.884380553081364
            ],
            [
              10.336941526247301,
              36.88437959963449
            ],
            [
              10.336940340531143,
              36.88431170395939
            ],
            [
              10.337023675095283,
              36.88424285897763
            ],
            [
              10.33710819529224,
              36.88424190529399
            ],
            [
              10.337193901346376,
              36.884308842901504
            ],
            [
              10.337195087286915,
              36.8843767385696
            ],
            [
              10.337278421610177,
              36.88430788909535
            ],
            [
              10.337277235674236,
              36.884239997746455
            ],
            [
              10.337276049742265,
              36.88417210639677
            ],
            [
              10.337191529628042,
              36.884173060198236
            ],
            [
              10.337190343774827,
              36.884105168845394
            ],
            [
              10.33727367781481,
              36.884036319377245
            ],
            [
              10.33735819777548,
              36.88403536552034
            ],
            [
              10.337442717732177,
              36.884034411603345
            ],
            [
              10.337526040794147,
              36.88396556640244
            ],
            [
              10.33761056066811,
              36.88396461236759
            ],
            [
              10.3376950805381,
              36.88396365827267
            ],
            [
              10.337779600404117,
              36.88396270411764
            ],
            [
              10.337780786772894,
              36.88403059545576
            ],
            [
              10.337864120266158,
              36.88396174990253
            ],
            [
              10.337862933826564,
              36.88389385856594
            ],
            [
              10.33786174731549,
              36.883825962910855
            ],
            [
              10.33786056088384,
              36.88375807157263
            ],
            [
              10.33794508051754,
              36.88375711730444
            ],
            [
              10.338112933120984,
              36.88368731725576
            ],
            [
              10.33844625269836,
              36.883411929615576
            ],
            [
              10.338698623151087,
              36.883341169766474
            ],
            [
              10.339117645526304,
              36.883132721082674
            ],
            [
              10.339536676265013,
              36.882924266520384
            ],
            [
              10.339704525473707,
              36.88285445996139
            ],
            [
              10.33978904404769,
              36.8828535044016
            ],
            [
              10.33987237444687,
              36.88278465748828
            ],
            [
              10.340039024050393,
              36.88264696361446
            ],
            [
              10.34020687218025,
              36.88257715636392
            ],
            [
              10.340374720074607,
              36.88250735319927
            ],
            [
              10.34045804956843,
              36.882438505889354
            ],
            [
              10.340709215217622,
              36.8822998507027
            ],
            [
              10.340877062033172,
              36.88223004684652
            ],
            [
              10.340960390771215,
              36.88216119919624
            ],
            [
              10.341213944058568,
              36.8821583297029
            ],
            [
              10.341297272335114,
              36.88208947750546
            ],
            [
              10.341381779264779,
              36.882088520951406
            ],
            [
              10.341466296936508,
              36.882087564215624
            ],
            [
              10.341630573426551,
              36.881814081228356
            ],
            [
              10.341794848767888,
              36.881540598025246
            ],
            [
              10.341874606210082,
              36.88126807167452
            ],
            [
              10.341955553050589,
              36.88106343652547
            ],
            [
              10.342204331162922,
              36.8807889957847
            ],
            [
              10.342453118254388,
              36.88051455442476
            ],
            [
              10.342785228531351,
              36.88017126369113
            ],
            [
              10.343118515947593,
              36.879895859110796
            ],
            [
              10.34345181186831,
              36.87962046214478
            ],
            [
              10.343954123625196,
              36.879343138937045
            ],
            [
              10.34361487402449,
              36.87927908112531
            ],
            [
              10.341744879129578,
              36.87868911712209
            ],
            [
              10.341660365212535,
              36.878690073981105
            ],
            [
              10.340905695086068,
              36.87903813943726
            ],
            [
              10.340737855195174,
              36.87910794322932
            ],
            [
              10.340235532894987,
              36.87938525305181
            ],
            [
              10.339482037117566,
              36.87980120965946
            ],
            [
              10.338990391240475,
              36.880689540754865
            ],
            [
              10.335713249813217,
              36.88181302299015
            ],
            [
              10.334625183430457,
              36.8824364341385
            ],
            [
              10.33403829816634,
              36.88271467037002
            ],
            [
              10.333456138588359,
              36.88326446964665
            ],
            [
              10.331746878330087,
              36.88219719338462
            ],
            [
              10.330636364037765,
              36.88153060763698
            ],
            [
              10.332455541991052,
              36.87920135923922
            ],
            [
              10.332369845816123,
              36.87913441796012
            ],
            [
              10.329985775061568,
              36.87814260904387
            ],
            [
              10.329049064210205,
              36.87774568042184
            ],
            [
              10.328877691884134,
              36.87761179254754
            ],
            [
              10.328793178710114,
              36.877612740232635
            ],
            [
              10.328794356851528,
              36.87768063189211
            ],
            [
              10.328713377972248,
              36.877885263135376
            ],
            [
              10.327639433604064,
              36.879323319357034
            ],
            [
              10.326980973208347,
              36.88034929346396
            ],
            [
              10.326816646735184,
              36.88062275292178
            ],
            [
              10.3265666367562,
              36.880829270850946
            ],
            [
              10.326147580611533,
              36.881037680210845
            ],
            [
              10.325391639020133,
              36.8813177614607
            ],
            [
              10.324896294242523,
              36.88200236232262
            ],
            [
              10.324236600277521,
              36.88296042160242
            ],
            [
              10.324014745573916,
              36.88479636590948
            ],
            [
              10.323936095144127,
              36.885136773157626
            ],
            [
              10.323687236821115,
              36.885411177029866
            ],
            [
              10.323108491356306,
              36.88616461113514
            ],
            [
              10.32286197340184,
              36.886574801112644
            ],
            [
              10.322780969749344,
              36.88677941987922
            ],
            [
              10.322544994768876,
              36.887800643433955
            ],
            [
              10.322552033242385,
              36.888208002345586
            ],
            [
              10.32239119375914,
              36.88868513973913
            ],
            [
              10.322311370561792,
              36.888957658407136
            ],
            [
              10.32222801746976,
              36.88902649337936
            ],
            [
              10.322064828944987,
              36.88936784260734
            ],
            [
              10.321815939783107,
              36.889642242894084
            ],
            [
              10.321650403496644,
              36.88984780815298
            ],
            [
              10.321399177816685,
              36.889986424048764
            ],
            [
              10.321065756907748,
              36.89026176546439
            ],
            [
              10.320144163557556,
              36.89074737937178
            ],
            [
              10.318891474881266,
              36.89164410525794
            ],
            [
              10.318725926540768,
              36.891849670932366
            ],
            [
              10.318480537132487,
              36.892327744033246
            ],
            [
              10.318400685655615,
              36.89260025174475
            ],
            [
              10.318320833787649,
              36.89287276803704
            ],
            [
              10.318154111812978,
              36.893010432546646
            ],
            [
              10.317988558549406,
              36.89321599292703
            ],
            [
              10.317070415431699,
              36.893905263519116
            ],
            [
              10.316486881084213,
              36.89438709091924
            ],
            [
              10.316153434188795,
              36.894662418955
            ],
            [
              10.315987872039672,
              36.894867976667626
            ],
            [
              10.315823476411452,
              36.89514142597555
            ],
            [
              10.315410158968259,
              36.89568926669842
            ],
            [
              10.315164726353153,
              36.89616733341809
            ],
            [
              10.314919290751135,
              36.89664539965347
            ],
            [
              10.314756064924966,
              36.89698673925722
            ],
            [
              10.314927457643842,
              36.89712065102691
            ],
            [
              10.314929791034508,
              36.897256434659056
            ],
            [
              10.3149309577357,
              36.89732432647391
            ],
            [
              10.314932124440796,
              36.89739221828796
            ],
            [
              10.314933291224,
              36.89746011441892
            ],
            [
              10.314934458011107,
              36.897528010549074
            ],
            [
              10.314935624727921,
              36.897595902360685
            ],
            [
              10.314936791448641,
              36.8976637941715
            ],
            [
              10.314937958173267,
              36.8977316859815
            ],
            [
              10.314854588996718,
              36.89780051599966
            ],
            [
              10.314855755654316,
              36.897868407810336
            ],
            [
              10.314856922390012,
              36.897936303937925
            ],
            [
              10.314858089129615,
              36.898004200064705
            ],
            [
              10.314859255798927,
              36.89807209187296
            ],
            [
              10.314860422472144,
              36.898139983680394
            ],
            [
              10.314861589149267,
              36.89820787548704
            ],
            [
              10.314862755830296,
              36.898275767292866
            ],
            [
              10.31486392251523,
              36.898343659097876
            ],
            [
              10.314865089278266,
              36.8984115552198
            ],
            [
              10.31486625604521,
              36.898479451340904
            ],
            [
              10.314782896758059,
              36.898548281198316
            ],
            [
              10.31478406338378,
              36.89861617300238
            ],
            [
              10.314785230013408,
              36.89868406480565
            ],
            [
              10.31478639664694,
              36.8987519566081
            ],
            [
              10.314794563339408,
              36.89922720783807
            ],
            [
              10.314795730004185,
              36.89929509963404
            ],
            [
              10.314711192444692,
              36.899296037773276
            ],
            [
              10.31471235911272,
              36.89936393388845
            ],
            [
              10.314713525784653,
              36.899431830002825
            ],
            [
              10.314714692386298,
              36.89949972179866
            ],
            [
              10.314715858991848,
              36.899567613593725
            ],
            [
              10.314717025601302,
              36.89963550538795
            ],
            [
              10.314718192214663,
              36.899703397181355
            ],
            [
              10.31471935883193,
              36.89977128897397
            ],
            [
              10.314720525527296,
              36.89983918508349
            ],
            [
              10.314721692226566,
              36.8999070811922
            ],
            [
              10.314722858855548,
              36.899974972982385
            ],
            [
              10.314724025488436,
              36.90004286477175
            ],
            [
              10.314725192125229,
              36.90011075656032
            ],
            [
              10.314726358765926,
              36.90017864834806
            ],
            [
              10.314727525410529,
              36.90024654013502
            ],
            [
              10.314728692133235,
              36.90031443623888
            ],
            [
              10.314729858859845,
              36.90038233234191
            ],
            [
              10.314731025516165,
              36.90045022412643
            ],
            [
              10.314732192176391,
              36.900518115910145
            ],
            [
              10.31464881985496,
              36.90058694581576
            ],
            [
              10.314649986448147,
              36.90065483760015
            ],
            [
              10.31465115311943,
              36.90072273370144
            ],
            [
              10.314652319720423,
              36.900790625484206
            ],
            [
              10.314739192368156,
              36.90092547523083
            ],
            [
              10.314496072732931,
              36.90153932412371
            ],
            [
              10.314004002390188,
              36.90242756144549
            ],
            [
              10.313599949514428,
              36.90351853491336
            ],
            [
              10.31351657304246,
              36.903587368392316
            ],
            [
              10.313517738759419,
              36.90365526017324
            ],
            [
              10.313433207095816,
              36.90365619737806
            ],
            [
              10.313349830324386,
              36.90372503074434
            ],
            [
              10.313097368176706,
              36.903795733972764
            ],
            [
              10.31301399087415,
              36.903864562792904
            ],
            [
              10.312929448213332,
              36.90386549976297
            ],
            [
              10.31284490554861,
              36.90386643667291
            ],
            [
              10.312846070682276,
              36.90393432846892
            ],
            [
              10.31276152793879,
              36.90393526532101
            ],
            [
              10.312676985191397,
              36.90393620211296
            ],
            [
              10.31259245318934,
              36.90393713872566
            ],
            [
              10.312507910434144,
              36.90393807539735
            ],
            [
              10.312423367675043,
              36.90393901200889
            ],
            [
              10.3124245324383,
              36.904006903815564
            ],
            [
              10.312339989600435,
              36.90400784036925
            ],
            [
              10.312255446758668,
              36.90400877686281
            ],
            [
              10.312170903912998,
              36.90400971329624
            ],
            [
              10.31208636106343,
              36.904010649669516
            ],
            [
              10.312087525605184,
              36.904078545802264
            ],
            [
              10.312002982676843,
              36.90407948211771
            ],
            [
              10.311918439744602,
              36.904080418373006
            ],
            [
              10.311833896808462,
              36.90408135456816
            ],
            [
              10.311750528789828,
              36.90415018240755
            ],
            [
              10.31166598577102,
              36.904151118484734
            ],
            [
              10.311581442748315,
              36.90415205450179
            ],
            [
              10.311582606848656,
              36.90421995064666
            ],
            [
              10.310995469853752,
              36.90449806834383
            ],
            [
              10.310578568597558,
              36.904842213359686
            ],
            [
              10.31049635096341,
              36.90497893231468
            ],
            [
              10.310167488520163,
              36.90552582042664
            ],
            [
              10.310010026550083,
              36.90620662178851
            ],
            [
              10.309949898025742,
              36.90763331122954
            ],
            [
              10.309969665292657,
              36.90878749384631
            ],
            [
              10.310058865056424,
              36.90905813045176
            ],
            [
              10.310320652499415,
              36.90953057641084
            ],
            [
              10.310407527925495,
              36.90966542476951
            ],
            [
              10.310580105655053,
              36.90986723391695
            ],
            [
              10.311440722637544,
              36.91074048722022
            ],
            [
              10.311873955436425,
              36.911346844945314
            ],
            [
              10.312136916299337,
              36.91188717819542
            ],
            [
              10.312747423668583,
              36.91296690537139
            ],
            [
              10.313011562309093,
              36.91357513231192
            ],
            [
              10.313018556665275,
              36.91398249101688
            ],
            [
              10.313019722380252,
              36.9140503826923
            ],
            [
              10.313104276277576,
              36.914049445438415
            ],
            [
              10.313111271247086,
              36.91445680409561
            ],
            [
              10.313030214213068,
              36.91466142068782
            ],
            [
              10.312864601882719,
              36.91486697006973
            ],
            [
              10.312782388985639,
              36.91500369471198
            ],
            [
              10.312616775341334,
              36.91520924808206
            ],
            [
              10.312200989755343,
              36.915621290866014
            ],
            [
              10.30825945365633,
              36.91756625174263
            ],
            [
              10.307420850318522,
              36.917982942754236
            ],
            [
              10.306832433240805,
              36.91819315413356
            ],
            [
              10.306579917434844,
              36.9182638487098
            ],
            [
              10.306496524153182,
              36.91833267315489
            ],
            [
              10.306327406450126,
              36.9183345383804
            ],
            [
              10.306242847592769,
              36.91833547090288
            ],
            [
              10.30607373524204,
              36.918337335708074
            ],
            [
              10.305902298252144,
              36.918203412374055
            ],
            [
              10.305646308726082,
              36.9180704251285
            ],
            [
              10.305391479126023,
              36.918005324830546
            ],
            [
              10.305222362071161,
              36.91800718846885
            ],
            [
              10.305137803537907,
              36.918008120197754
            ],
            [
              10.305053245000769,
              36.91800905186649
            ],
            [
              10.304886450717122,
              36.91814670298166
            ],
            [
              10.304804209310824,
              36.91828342249318
            ],
            [
              10.30463857238545,
              36.9184889608073
            ],
            [
              10.304556330182182,
              36.91862568015531
            ],
            [
              10.304391844837815,
              36.91889911437072
            ],
            [
              10.304394161466252,
              36.91903490239444
            ],
            [
              10.302287138752916,
              36.919465518781394
            ],
            [
              10.301486813013893,
              36.91716551876676
            ],
            [
              10.299298721060646,
              36.91780069097299
            ],
            [
              10.297616795167936,
              36.91836237873002
            ],
            [
              10.29559890543958,
              36.919063523144885
            ],
            [
              10.293914625262428,
              36.9194893708742
            ],
            [
              10.292819940816575,
              36.91977294726058
            ],
            [
              10.292230320326457,
              36.91991519510723
            ],
            [
              10.291051067084727,
              36.92019967787601
            ],
            [
              10.290959627019863,
              36.91979323771149
            ],
            [
              10.289780370543273,
              36.9200777079227
            ],
            [
              10.28919074162332,
              36.92021994082504
            ],
            [
              10.288348569462013,
              36.92043282276971
            ],
            [
              10.286916754558238,
              36.920787916271266
            ],
            [
              10.286832192341194,
              36.920788835029
            ],
            [
              10.286241409802097,
              36.92086316116887
            ],
            [
              10.285479217851403,
              36.9208035267355
            ],
            [
              10.284800442896396,
              36.92067508215229
            ],
            [
              10.284289658968078,
              36.92047690318501
            ],
            [
              10.283607474231518,
              36.9201447658184
            ],
            [
              10.283177828951924,
              36.91974198837331
            ],
            [
              10.282748198888918,
              36.919339204826116
            ],
            [
              10.282489961046274,
              36.91907037785481
            ],
            [
              10.282229453089194,
              36.91866576099826
            ],
            [
              10.282142615982117,
              36.91853089146595
            ],
            [
              10.282055779113753,
              36.918396017543486
            ],
            [
              10.281795275823468,
              36.91799139960155
            ],
            [
              10.28161819616047,
              36.91751797360869
            ],
            [
              10.28152794758632,
              36.91717942178312
            ],
            [
              10.281502913446678,
              36.915685756648934
            ],
            [
              10.281888131828472,
              36.91344069023334
            ],
            [
              10.281886993731051,
              36.91337279771268
            ],
            [
              10.28242876573356,
              36.91037906384564
            ],
            [
              10.282425350321935,
              36.91017538190143
            ],
            [
              10.282583065680758,
              36.90949461266427
            ],
            [
              10.282321447641193,
              36.90902210225776
            ],
            [
              10.277370023356097,
              36.906223540466854
            ],
            [
              10.277368889559778,
              36.90615564774355
            ],
            [
              10.277204336847445,
              36.906429046157925
            ],
            [
              10.277123191002165,
              36.90663364019646
            ],
            [
              10.277042044737962,
              36.90683823418096
            ],
            [
              10.277046578971873,
              36.9071098093905
            ],
            [
              10.277049979705174,
              36.907313491868614
            ],
            [
              10.276968832577559,
              36.907518085797726
            ],
            [
              10.276803142278643,
              36.90772359095954
            ],
            [
              10.276636312435793,
              36.90786119891723
            ],
            [
              10.27630378940487,
              36.90820431546115
            ],
            [
              10.275973528728708,
              36.90868321657676
            ],
            [
              10.275226180728136,
              36.909506136640374
            ],
            [
              10.275141630577869,
              36.90950704684
            ],
            [
              10.275142762538206,
              36.9095749395839
            ],
            [
              10.275058212309256,
              36.9095758497256
            ],
            [
              10.27505934427048,
              36.90964374678871
            ],
            [
              10.27497479396284,
              36.90964465687248
            ],
            [
              10.274975925780979,
              36.90971254961923
            ],
            [
              10.274891380769764,
              36.909713459587245
            ],
            [
              10.274892512516804,
              36.9097813523354
            ],
            [
              10.274807962051806,
              36.90978226230331
            ],
            [
              10.274724543256031,
              36.90985106928069
            ],
            [
              10.274725674860866,
              36.9099189620317
            ],
            [
              10.2746411242385,
              36.909919871883766
            ],
            [
              10.274557710446308,
              36.90998867437251
            ],
            [
              10.274474291129215,
              36.91005747686257
            ],
            [
              10.274390871734282,
              36.9101262836139
            ],
            [
              10.274307452117611,
              36.910195085990956
            ],
            [
              10.274308583366933,
              36.910262978749046
            ],
            [
              10.274224037726299,
              36.91026388825367
            ],
            [
              10.274140617881994,
              36.91033269483547
            ],
            [
              10.274141748989111,
              36.91040058759641
            ],
            [
              10.274057197815964,
              36.91040149704299
            ],
            [
              10.274058328851972,
              36.91046938980534
            ],
            [
              10.273973777600144,
              36.910470299193996
            ],
            [
              10.273974908565048,
              36.91053819195777
            ],
            [
              10.273890357234535,
              36.9105391012885
            ],
            [
              10.273891488200253,
              36.910606998371456
            ],
            [
              10.273806936791056,
              36.910607907644255
            ],
            [
              10.273808067613743,
              36.91067580041085
            ],
            [
              10.273724652252625,
              36.910744602335946
            ],
            [
              10.273725783079907,
              36.91081249942094
            ],
            [
              10.273641231438448,
              36.910813408580104
            ],
            [
              10.27364236212271,
              36.91088130134875
            ],
            [
              10.273557810402567,
              36.91088221044997
            ],
            [
              10.273558941015718,
              36.91095010322002
            ],
            [
              10.273475519758936,
              36.91101890503478
            ],
            [
              10.273392103799459,
              36.911087711053035
            ],
            [
              10.273393234274181,
              36.91115560382512
            ],
            [
              10.273308682243092,
              36.911156512754765
            ],
            [
              10.273309812646701,
              36.91122440552828
            ],
            [
              10.273310943125985,
              36.91129230261873
            ],
            [
              10.273226390941314,
              36.91129321149268
            ],
            [
              10.273227521277596,
              36.91136110426679
            ],
            [
              10.27314410465464,
              36.91142990580056
            ],
            [
              10.273145234923597,
              36.91149779857526
            ],
            [
              10.273060682506664,
              36.91149870733558
            ],
            [
              10.271154373744015,
              36.91382799078178
            ],
            [
              10.270078855319332,
              36.915265557151244
            ],
            [
              10.26900216483309,
              36.91663522144152
            ],
            [
              10.269003291643896,
              36.91670311426588
            ],
            [
              10.268919865531856,
              36.916771917272776
            ],
            [
              10.268920992275294,
              36.91683981009772
            ],
            [
              10.268837560495005,
              36.91690860878931
            ],
            [
              10.268754128564876,
              36.91697740742435
            ],
            [
              10.268755255241443,
              36.91704530456909
            ],
            [
              10.268670696556555,
              36.91704621032062
            ],
            [
              10.268671823090328,
              36.91711410314899
            ],
            [
              10.268588390789372,
              36.91718290167234
            ],
            [
              10.268589517327408,
              36.917250798819104
            ],
            [
              10.268506090181111,
              36.917319597229756
            ],
            [
              10.268507216580137,
              36.91738749005933
            ],
            [
              10.26850834298293,
              36.91745538288811
            ],
            [
              10.268509469461133,
              36.91752328003385
            ],
            [
              10.268510595871469,
              36.917591172861
            ],
            [
              10.268511722285579,
              36.91765906568733
            ],
            [
              10.268512848775094,
              36.91772696283066
            ],
            [
              10.268428289329677,
              36.91772786842385
            ],
            [
              10.268429415676406,
              36.9177957612508
            ],
            [
              10.268430542026907,
              36.91786365407693
            ],
            [
              10.268431668381178,
              36.917931546902274
            ],
            [
              10.268347108707227,
              36.917932452441924
            ],
            [
              10.268348235061973,
              36.91800034958644
            ],
            [
              10.268349361348864,
              36.91806824241239
            ],
            [
              10.268265927737032,
              36.918137040723636
            ],
            [
              10.268267054028165,
              36.918204937867955
            ],
            [
              10.268182499422686,
              36.918205843238574
            ],
            [
              10.268183625571048,
              36.91827373606651
            ],
            [
              10.26818475172318,
              36.91834162889365
            ],
            [
              10.26810019158837,
              36.918342534266095
            ],
            [
              10.26810131766935,
              36.91841042709463
            ],
            [
              10.268102443825713,
              36.918478324240155
            ],
            [
              10.26751953186436,
              36.91902781148826
            ],
            [
              10.26694111743715,
              36.9198488716197
            ],
            [
              10.266520563132373,
              36.91998918357588
            ],
            [
              10.266516064107188,
              36.91971760784511
            ],
            [
              10.266260135269269,
              36.919584530204475
            ],
            [
              10.265759515672235,
              36.91999731929357
            ],
            [
              10.265345700637514,
              36.92054498870746
            ],
            [
              10.265190064171273,
              36.92136152716418
            ],
            [
              10.264610479013973,
              36.92211468362172
            ],
            [
              10.263859512345757,
              36.9227338521783
            ],
            [
              10.26344679153343,
              36.92334941247373
            ],
            [
              10.262527797174027,
              36.92403827422717
            ],
            [
              10.261687744878586,
              36.92438675501052
            ],
            [
              10.261266035442375,
              36.92445915597279
            ],
            [
              10.26109354079351,
              36.92425727391173
            ],
            [
              10.261170266357139,
              36.92378111414874
            ],
            [
              10.260825287011068,
              36.92337734930443
            ],
            [
              10.260320138251133,
              36.92351854001145
            ],
            [
              10.260075396205078,
              36.924064391899364
            ],
            [
              10.259911860806968,
              36.92440566044689
            ],
            [
              10.259921932769267,
              36.925016710136255
            ],
            [
              10.259590380030305,
              36.92542767470968
            ],
            [
              10.259178728975003,
              36.92611110947266
            ],
            [
              10.258513366809707,
              36.92679724348073
            ],
            [
              10.257924735871665,
              36.927007216110596
            ],
            [
              10.257419557641336,
              36.92714839494642
            ],
            [
              10.256740773794506,
              36.92701978590771
            ],
            [
              10.256645040821699,
              36.92634174002587
            ],
            [
              10.255876118259513,
              36.92587455359949
            ],
            [
              10.255116124127365,
              36.925950519615206
            ],
            [
              10.254531950064159,
              36.9264320521488
            ],
            [
              10.254377299212864,
              36.92731646683286
            ],
            [
              10.254065759594006,
              36.92894951358141
            ],
            [
              10.253575036002447,
              36.92997329936471
            ],
            [
              10.253003067474399,
              36.931201665918216
            ],
            [
              10.252940759224712,
              36.9325604437236
            ],
            [
              10.252453340005463,
              36.933787912759385
            ],
            [
              10.24817431293756,
              36.93593818129729
            ],
            [
              10.244726478976778,
              36.93719678219697
            ],
            [
              10.242697650454636,
              36.9372859959748
            ],
            [
              10.241435557238995,
              36.937706672193514
            ],
            [
              10.241182918415893,
              36.93777722544375
            ],
            [
              10.241185124482357,
              36.93791301637434
            ],
            [
              10.241276323017802,
              36.93831949391367
            ],
            [
              10.242652824431037,
              36.93973108418139
            ],
            [
              10.244026059984396,
              36.9409389776291
            ],
            [
              10.245562975176933,
              36.94180559603089
            ],
            [
              10.246678099948083,
              36.94274454916103
            ],
            [
              10.247191163894254,
              36.943078670041345
            ],
            [
              10.249499443880225,
              36.94454826478793
            ],
            [
              10.249585144435647,
              36.94461527376595
            ],
            [
              10.249669731510869,
              36.944614381062244
            ],
            [
              10.249753210258408,
              36.944545586626624
            ],
            [
              10.249837797251159,
              36.944544693804644
            ],
            [
              10.249836686308392,
              36.9444768007983
            ],
            [
              10.2505089488257,
              36.94419808396631
            ],
            [
              10.25075937587738,
              36.9439917161009
            ],
            [
              10.250843964914075,
              36.94399082254527
            ],
            [
              10.250927439370015,
              36.943922035973436
            ],
            [
              10.25101091636469,
              36.94385324931653
            ],
            [
              10.251095502551399,
              36.943852355613
            ],
            [
              10.251094390520553,
              36.94378446263136
            ],
            [
              10.251178979317293,
              36.94378356884138
            ],
            [
              10.251263568110305,
              36.94378267499117
            ],
            [
              10.251262455933146,
              36.9437147820131
            ],
            [
              10.251347041958644,
              36.94371388813328
            ],
            [
              10.25134592971019,
              36.94364599515658
            ],
            [
              10.251430518345716,
              36.94364510119029
            ],
            [
              10.25151399444126,
              36.94357630555506
            ],
            [
              10.251598580305537,
              36.943575411498934
            ],
            [
              10.251597467839481,
              36.94350751852719
            ],
            [
              10.25168205631378,
              36.943506624384575
            ],
            [
              10.25176552948322,
              36.94343783724201
            ],
            [
              10.251850115186288,
              36.943436943009566
            ],
            [
              10.251849002502635,
              36.94336905004277
            ],
            [
              10.251933590815714,
              36.943368155723874
            ],
            [
              10.25201706360635,
              36.943299368409946
            ],
            [
              10.252101651836957,
              36.943298473972774
            ],
            [
              10.252100538935705,
              36.94323058101092
            ],
            [
              10.252185127087566,
              36.943229686515714
            ],
            [
              10.25226859949939,
              36.94316089903043
            ],
            [
              10.25235318756878,
              36.94316000441697
            ],
            [
              10.252436662298985,
              36.94309120815297
            ]
          ]
        ]
      }
    }
  ]
}
