{
  "type": "FeatureCollection",
  "features": [
    {
      "type": "Feature",
      "id": "osm:relation:7062758",
      "properties": {
        "sourceId": "isie-best-effort-imada-tunis-qammart-20260924",
        "officialCode": "117157",
        "governorateCode": "11",
        "delegationCode": "1171",
        "nameAr": "قمرت",
        "nameFr": "Gammarth",
        "sourcePdfURL": "https://www.isie.tn/wp-content/uploads/2023/CartesCirconscriptionsElectoralesLocales2023/%D8%AA%D9%88%D9%86%D8%B3%202/%D8%A7%D9%84%D9%85%D8%B1%D8%B3%D9%89/%D9%82%D9%85%D8%B1%D8%AA.pdf",
        "sourcePdfSha256": "39ede6e7ce95d8e9964252ac2f90442f4e9cab67e1edecf2736828d45b643b7f",
        "sourceGeometrySha256": "f8e87ad65e6e9b48fa758271da339c89595f235fe81f23898afb44346101c558",
        "geometryMethod": "Extracted red vector boundary path 449 from the official ISIE 2023 GeoPDF; georeferenced using the PDF controls in EPSG:32632 (maximum residual 0.357037 m). Only the red vector path is stored; PDF imagery was not copied or traced.",
        "boundaryCertainty": "best_effort_imada",
        "drawingIndex": 449,
        "pdfGeoreferenceControlMaxResidualMeters": 0.3570372552174615,
        "targetLabelCenterInside": true,
        "targetLabelCenterDistancePagePoints": 0.0,
        "targetLabelBoxIntersects": true
      },
      "geometry": {
        "type": "Polygon",
        "coordinates": [
          [
            [
              10.314772098854604,
              36.89700751552213
            ],
            [
              10.314749721053547,
              36.89704472445555
            ],
            [
              10.314705596028784,
              36.897156096039524
            ],
            [
              10.314594652303901,
              36.89739756963471
            ],
            [
              10.314391358060933,
              36.897621588412896
            ],
            [
              10.314026690342827,
              36.89782891552656
            ],
            [
              10.313180722045542,
              36.898152455233195
            ],
            [
              10.31208102279912,
              36.898441838705956
            ],
            [
              10.311141116235722,
              36.89865552315891
            ],
            [
              10.310589532979696,
              36.898698582359664
            ],
            [
              10.310332976788121,
              36.898498136311524
            ],
            [
              10.309612478658567,
              36.898081050483995
            ],
            [
              10.308869917482323,
              36.89771964650009
            ],
            [
              10.308708228608163,
              36.897684471050795
            ],
            [
              10.308685533763754,
              36.8977032019921
            ],
            [
              10.308639202446614,
              36.89768523313938
            ],
            [
              10.30859318500414,
              36.897685741176176
            ],
            [
              10.308317080325105,
              36.897688789022794
            ],
            [
              10.307880232082042,
              36.89771209033842
            ],
            [
              10.30781120587276,
              36.897712851946494
            ],
            [
              10.30776550205282,
              36.897731836576966
            ],
            [
              10.307696475822585,
              36.89773259811872
            ],
            [
              10.307650458334324,
              36.89773310579097
            ],
            [
              10.30760444084491,
              36.897733613445396
            ],
            [
              10.307558109749882,
              36.89771564416646
            ],
            [
              10.307512092269254,
              36.897716151784905
            ],
            [
              10.307466074787474,
              36.89771665938556
            ],
            [
              10.307420057304544,
              36.89771716696837
            ],
            [
              10.307397048562645,
              36.89771742075311
            ],
            [
              10.307351031077987,
              36.897717928309206
            ],
            [
              10.307305013592178,
              36.89771843584749
            ],
            [
              10.30725868257311,
              36.89770046645016
            ],
            [
              10.307212665096086,
              36.89770097395247
            ],
            [
              10.307166334108265,
              36.89768300451843
            ],
            [
              10.307143325374291,
              36.897683258253835
            ],
            [
              10.307097307905476,
              36.89768376571128
            ],
            [
              10.307050976953871,
              36.89766579623146
            ],
            [
              10.307027968224,
              36.897666049944405
            ],
            [
              10.306958942032663,
              36.89766681105657
            ],
            [
              10.306912611122243,
              36.8976488415219
            ],
            [
              10.30688960239619,
              36.89764909520796
            ],
            [
              10.306843584943222,
              36.89764960256674
            ],
            [
              10.30677455876161,
              36.89765036357149
            ],
            [
              10.30670553257741,
              36.89765112453617
            ],
            [
              10.306659515119836,
              36.897651631823685
            ],
            [
              10.305532404067248,
              36.89768253169
            ],
            [
              10.304335952647868,
              36.89769570352886
            ],
            [
              10.304289935120005,
              36.89769620989917
            ],
            [
              10.304243917590995,
              36.89769671625168
            ],
            [
              10.304197900060837,
              36.897697222586366
            ],
            [
              10.304174891295325,
              36.89769747574704
            ],
            [
              10.304128873763444,
              36.897697982055
            ],
            [
              10.304082856230416,
              36.89769848834515
            ],
            [
              10.304036838696236,
              36.89769899461748
            ],
            [
              10.304013829928715,
              36.897699247746964
            ],
            [
              10.303967812392814,
              36.89769975399256
            ],
            [
              10.303921794855766,
              36.89770026022037
            ],
            [
              10.30387577731757,
              36.89770076643035
            ],
            [
              10.303806751008121,
              36.89770152571191
            ],
            [
              10.303760733467053,
              36.89770203187735
            ],
            [
              10.3036917071533,
              36.89770279109209
            ],
            [
              10.303645689609363,
              36.897703297213
            ],
            [
              10.303622680836963,
              36.89770355026675
            ],
            [
              10.303576350647065,
              36.897685579416
            ],
            [
              10.303530333111343,
              36.89768608549201
            ],
            [
              10.303484315574476,
              36.89768659155022
            ],
            [
              10.303414980563648,
              36.89766887361505
            ],
            [
              10.303368959133225,
              36.897669379671285
            ],
            [
              10.303322941603428,
              36.897669885666794
            ],
            [
              10.303299624162731,
              36.8976516616679
            ],
            [
              10.303253606642299,
              36.89765216763635
            ],
            [
              10.30320758912072,
              36.897652673587
            ],
            [
              10.303161571597995,
              36.89765317951981
            ],
            [
              10.303115554074122,
              36.89765368543482
            ],
            [
              10.30309223281128,
              36.89763546300312
            ],
            [
              10.303046215296773,
              36.89763596889105
            ],
            [
              10.303000197781117,
              36.897636474761164
            ],
            [
              10.302954180264315,
              36.897636980613484
            ],
            [
              10.302931171505485,
              36.89763723353296
            ],
            [
              10.302884841483689,
              36.89761926084222
            ],
            [
              10.302838823975106,
              36.89761976664967
            ],
            [
              10.302792806465378,
              36.89762027243928
            ],
            [
              10.3027467889545,
              36.89762077821109
            ],
            [
              10.302700771442476,
              36.89762128396507
            ],
            [
              10.302654441534726,
              36.8976033143154
            ],
            [
              10.302608424031495,
              36.89760382003342
            ],
            [
              10.302562406527116,
              36.897604325733624
            ],
            [
              10.302539397774497,
              36.89760457857704
            ],
            [
              10.302493380268396,
              36.897605084250515
            ],
            [
              10.302424041615286,
              36.897587364207524
            ],
            [
              10.302401032866491,
              36.89758761702405
            ],
            [
              10.302332006618384,
              36.8975883754469
            ],
            [
              10.302308997868442,
              36.897588628245636
            ],
            [
              10.302262980367697,
              36.89758913382968
            ],
            [
              10.302239971616896,
              36.89758938661503
            ],
            [
              10.302193954114431,
              36.89758989217237
            ],
            [
              10.302147624338762,
              36.89757192232223
            ],
            [
              10.30212461559207,
              36.89757217508514
            ],
            [
              10.302078598097827,
              36.897572680597605
            ],
            [
              10.302032580602436,
              36.897573186092245
            ],
            [
              10.301986250846465,
              36.89755521461206
            ],
            [
              10.301940233359868,
              36.89755572007074
            ],
            [
              10.30191722461614,
              36.897555972793405
            ],
            [
              10.301870894869928,
              36.89753799970135
            ],
            [
              10.301824877391555,
              36.89753850511514
            ],
            [
              10.301778859912034,
              36.89753901051113
            ],
            [
              10.301755855073615,
              36.897539263159594
            ],
            [
              10.30170952152473,
              36.89752129317866
            ],
            [
              10.30164049921912,
              36.8975220511558
            ],
            [
              10.301594169581767,
              36.89750407952015
            ],
            [
              10.301548152118691,
              36.89750458482639
            ],
            [
              10.301524831239304,
              36.89748636051222
            ],
            [
              10.301478813785597,
              36.897486865791386
            ],
            [
              10.301455805058312,
              36.8974871184243
            ],
            [
              10.30140947548347,
              36.89746914671524
            ],
            [
              10.301363458037986,
              36.89746965194954
            ],
            [
              10.3013171284944,
              36.897451680203794
            ],
            [
              10.30127111105771,
              36.89745218540212
            ],
            [
              10.301086417217316,
              36.89741725208928
            ],
            [
              10.300605731602687,
              36.89757037055814
            ],
            [
              10.299940971546354,
              36.897725504423
            ],
            [
              10.299923262739217,
              36.89803986526912
            ],
            [
              10.299626019021066,
              36.898154005523736
            ],
            [
              10.297091940047792,
              36.899364505298394
            ],
            [
              10.296226292227749,
              36.89989142612623
            ],
            [
              10.295837308315809,
              36.9000250421662
            ],
            [
              10.295492475895507,
              36.90004729202281
            ],
            [
              10.295198011470045,
              36.90032771443762
            ],
            [
              10.294285700962023,
              36.90081816878216
            ],
            [
              10.293596029544194,
              36.90086265861779
            ],
            [
              10.29275937135376,
              36.899005272908866
            ],
            [
              10.292570957174101,
              36.89874860210591
            ],
            [
              10.292817234925355,
              36.898339347304464
            ],
            [
              10.290637982692175,
              36.897383638137796
            ],
            [
              10.289729199291628,
              36.896709756372296
            ],
            [
              10.28970587945037,
              36.89669152969736
            ],
            [
              10.289636544389625,
              36.896673803679796
            ],
            [
              10.289543893474653,
              36.89663785087067
            ],
            [
              10.28938159658604,
              36.89656569635346
            ],
            [
              10.287224518682049,
              36.895554240999026
            ],
            [
              10.284789552541532,
              36.89443487561785
            ],
            [
              10.28293445996511,
              36.89358638817482
            ],
            [
              10.282888136903878,
              36.89356840910095
            ],
            [
              10.28286512918378,
              36.893568658111434
            ],
            [
              10.282888752125753,
              36.89360536331788
            ],
            [
              10.28291237509074,
              36.893642068518986
            ],
            [
              10.282959005831252,
              36.89367852468992
            ],
            [
              10.282982628853071,
              36.89371522987552
            ],
            [
              10.283005944256862,
              36.893733457948656
            ],
            [
              10.283029567318604,
              36.893770163123826
            ],
            [
              10.283052882750388,
              36.89378839118706
            ],
            [
              10.283076505852053,
              36.893825096351804
            ],
            [
              10.283123135807289,
              36.8938615524641
            ],
            [
              10.283146452264639,
              36.893879780497166
            ],
            [
              10.283170075440044,
              36.89391648564136
            ],
            [
              10.283216706471011,
              36.893952941703915
            ],
            [
              10.283217014165313,
              36.893971418808825
            ],
            [
              10.283240021027718,
              36.89397116973847
            ],
            [
              10.283263644276863,
              36.89400787486211
            ],
            [
              10.283286959836966,
              36.894026102876204
            ],
            [
              10.283310583126037,
              36.8940628079894
            ],
            [
              10.283356906583785,
              36.894080786889404
            ],
            [
              10.283380222188228,
              36.89409901488413
            ],
            [
              10.283403537803757,
              36.89411724287399
            ],
            [
              10.283449553563257,
              36.8941167446338
            ],
            [
              10.28347317598307,
              36.89415344972266
            ],
            [
              10.283473791500093,
              36.89419040392748
            ],
            [
              10.283474099259024,
              36.894208881029805
            ],
            [
              10.283474714777734,
              36.894245835234265
            ],
            [
              10.283475330297568,
              36.89428278943849
            ],
            [
              10.283475638057904,
              36.89430126654051
            ],
            [
              10.283453246608994,
              36.894338469862575
            ],
            [
              10.283430854163344,
              36.89437567319117
            ],
            [
              10.283408461696363,
              36.89441287651574
            ],
            [
              10.283386069208053,
              36.89445007983628
            ],
            [
              10.283319507014772,
              36.89459864084596
            ],
            [
              10.283320122467691,
              36.89463559505023
            ],
            [
              10.283320430194573,
              36.89465407215227
            ],
            [
              10.28336644627783,
              36.894653573938115
            ],
            [
              10.283389454319037,
              36.89465332482436
            ],
            [
              10.283458170680815,
              36.89463410035529
            ],
            [
              10.283595294582023,
              36.89457717734231
            ],
            [
              10.28361830259823,
              36.89457692818467
            ],
            [
              10.283664934196269,
              36.89461338092321
            ],
            [
              10.283642849582998,
              36.894669061389266
            ],
            [
              10.283506033381176,
              36.89474446469144
            ],
            [
              10.283483639873278,
              36.89478166803986
            ],
            [
              10.283460940532207,
              36.89480039426261
            ],
            [
              10.283438547962042,
              36.89483759759235
            ],
            [
              10.283393147263107,
              36.89487505003828
            ],
            [
              10.28337044689701,
              36.89489377625496
            ],
            [
              10.283348054256466,
              36.89493097956845
            ],
            [
              10.283348669730596,
              36.89496793377023
            ],
            [
              10.283349285205853,
              36.89500488797177
            ],
            [
              10.283349592943903,
              36.895023365072475
            ],
            [
              10.283350208420847,
              36.89506031927365
            ],
            [
              10.283351131638373,
              36.895115750574995
            ],
            [
              10.283374755309286,
              36.895152455661794
            ],
            [
              10.283398379003213,
              36.89518916074325
            ],
            [
              10.283398994507392,
              36.8952261149427
            ],
            [
              10.28342231047821,
              36.89524434291882
            ],
            [
              10.283422925995167,
              36.89528129711759
            ],
            [
              10.283423541513246,
              36.8953182513161
            ],
            [
              10.283447165283734,
              36.895354956385425
            ],
            [
              10.2834474730493,
              36.8953734334843
            ],
            [
              10.283471096848913,
              36.89541013854799
            ],
            [
              10.283471712393103,
              36.895447092745016
            ],
            [
              10.28349533525252,
              36.89548379781332
            ],
            [
              10.283518960085798,
              36.89552050285516
            ],
            [
              10.28351926787053,
              36.89553897995302
            ],
            [
              10.283542891757506,
              36.89557568499976
            ],
            [
              10.283543507287844,
              36.89561263606247
            ],
            [
              10.283567438084587,
              36.89566782134322
            ],
            [
              10.283591063011343,
              36.89570452636785
            ],
            [
              10.283591678619969,
              36.895741480561284
            ],
            [
              10.283614993768362,
              36.89575970537246
            ],
            [
              10.283615609389765,
              36.895796659565235
            ],
            [
              10.283638925588495,
              36.8958148874928
            ],
            [
              10.283662549621084,
              36.89585159251134
            ],
            [
              10.283663165267475,
              36.89588854670284
            ],
            [
              10.283686789335293,
              36.895925251715475
            ],
            [
              10.28371041342613,
              36.89596195672275
            ],
            [
              10.283710721261958,
              36.89598043381783
            ],
            [
              10.283734345381918,
              36.89601713881947
            ],
            [
              10.283757969524894,
              36.89605384381576
            ],
            [
              10.283758277373218,
              36.8960723209102
            ],
            [
              10.283781593690888,
              36.89609054880667
            ],
            [
              10.283805217879898,
              36.89612725379224
            ],
            [
              10.283805833601251,
              36.896164207979965
            ],
            [
              10.283829457825492,
              36.89620091295959
            ],
            [
              10.283853081097318,
              36.89623761794444
            ],
            [
              10.283876706343026,
              36.89627432290279
            ],
            [
              10.283900022751075,
              36.89629255077369
            ],
            [
              10.283923647061279,
              36.896329255732184
            ],
            [
              10.283924262844259,
              36.89636620991692
            ],
            [
              10.283947579291956,
              36.89638443777745
            ],
            [
              10.283971202678867,
              36.89642114273551
            ],
            [
              10.283994828039665,
              36.8964578476671
            ],
            [
              10.28401845147261,
              36.89649455261447
            ],
            [
              10.284042075904006,
              36.896531257545895
            ],
            [
              10.284065393405871,
              36.89654948537073
            ],
            [
              10.28406600926213,
              36.89658643955203
            ],
            [
              10.284089324809756,
              36.89660466582658
            ],
            [
              10.284112949310206,
              36.89664137074196
            ],
            [
              10.284136573859778,
              36.89667807721809
            ],
            [
              10.284160198380162,
              36.896714780556636
            ],
            [
              10.284206831613217,
              36.89675123617185
            ],
            [
              10.284230456216545,
              36.896787941061014
            ],
            [
              10.28425408084289,
              36.89682464594482
            ],
            [
              10.284277705492254,
              36.89686135082326
            ],
            [
              10.284301022176145,
              36.8968795786084
            ],
            [
              10.284324645889999,
              36.89691628348699
            ],
            [
              10.284347963577328,
              36.896934511251644
            ],
            [
              10.284371588306554,
              36.89697121610923
            ],
            [
              10.284395212057246,
              36.89700791940592
            ],
            [
              10.284418837807952,
              36.897044624242234
            ],
            [
              10.284442153632327,
              36.897062853574084
            ],
            [
              10.284465778421406,
              36.897099556844424
            ],
            [
              10.284466394483042,
              36.897136511016534
            ],
            [
              10.2844897112964,
              36.897154738761316
            ],
            [
              10.284513028120847,
              36.89717296650126
            ],
            [
              10.284536653005095,
              36.897209671321654
            ],
            [
              10.28456027791236,
              36.897246376136685
            ],
            [
              10.284583902842646,
              36.89728308094635
            ],
            [
              10.284607527795949,
              36.897319785750675
            ],
            [
              10.284631152772274,
              36.89735649054964
            ],
            [
              10.284631460845699,
              36.897374967633716
            ],
            [
              10.284654777771616,
              36.89739319534325
            ],
            [
              10.284678402793977,
              36.89742990013149
            ],
            [
              10.284679018965537,
              36.897466854298465
            ],
            [
              10.284702644023133,
              36.89750355908077
            ],
            [
              10.284726269103748,
              36.89754026385774
            ],
            [
              10.284749894207382,
              36.89757696862935
            ],
            [
              10.284773519334033,
              36.89761367339561
            ],
            [
              10.284797144483706,
              36.89765037815651
            ],
            [
              10.284820769656399,
              36.89768708291204
            ],
            [
              10.284844702981065,
              36.89774226474363
            ],
            [
              10.284868328179785,
              36.897778967922044
            ],
            [
              10.284891953427643,
              36.89781567266123
            ],
            [
              10.28489226159521,
              36.89783415130811
            ],
            [
              10.284915886846077,
              36.89787085447554
            ],
            [
              10.284939510195175,
              36.89790755922486
            ],
            [
              10.284963137469108,
              36.897944263926554
            ],
            [
              10.284987070981312,
              36.897999445723585
            ],
            [
              10.285010694405573,
              36.89803615045657
            ],
            [
              10.285011002578123,
              36.89805462753579
            ],
            [
              10.285034629933334,
              36.89809133222084
            ],
            [
              10.28505825340974,
              36.89812803694281
            ],
            [
              10.285058561594786,
              36.8981465140214
            ],
            [
              10.285082187051234,
              36.8981832187166
            ],
            [
              10.285105812504577,
              36.89821992184031
            ],
            [
              10.285129438007065,
              36.89825662652479
            ],
            [
              10.285130054414646,
              36.89829358068006
            ],
            [
              10.28515367995237,
              36.89833028535862
            ],
            [
              10.285153988162689,
              36.898348762435894
            ],
            [
              10.28517730551311,
              36.89836699003182
            ],
            [
              10.28517792194625,
              36.898403944185716
            ],
            [
              10.285201239319411,
              36.898422171776346
            ],
            [
              10.285201855765328,
              36.89845912592956
            ],
            [
              10.285225173161228,
              36.89847735351489
            ],
            [
              10.285248798803249,
              36.89851405817145
            ],
            [
              10.28524941527416,
              36.898551012323395
            ],
            [
              10.285273040951417,
              36.89858771697402
            ],
            [
              10.285296974899786,
              36.898642898694604
            ],
            [
              10.285297283148163,
              36.898661375769855
            ],
            [
              10.285320908883676,
              36.89869808040919
            ],
            [
              10.285321525393487,
              36.89873503455895
            ],
            [
              10.285345459425674,
              36.89879021626687
            ],
            [
              10.28536877695801,
              36.89880844382042
            ],
            [
              10.285392402774804,
              36.898845148443115
            ],
            [
              10.285392711048454,
              36.898863625517045
            ],
            [
              10.285416336894375,
              36.898900330134104
            ],
            [
              10.285416645174417,
              36.89891880720769
            ],
            [
              10.285440271049469,
              36.8989555118191
            ],
            [
              10.28544057930977,
              36.89897398732623
            ],
            [
              10.28546420521395,
              36.899010691932006
            ],
            [
              10.285487831167282,
              36.89904739809853
            ],
            [
              10.28548844776542,
              36.899084352243705
            ],
            [
              10.28551207370173,
              36.89912105527207
            ],
            [
              10.28551269031321,
              36.89915800941643
            ],
            [
              10.285536007998894,
              36.899176236933116
            ],
            [
              10.285536624623157,
              36.89921319107677
            ],
            [
              10.285536932935711,
              36.89923166814852
            ],
            [
              10.285560558968625,
              36.89926837273116
            ],
            [
              10.28556117558066,
              36.89930532530776
            ],
            [
              10.285584801648811,
              36.89934202988446
            ],
            [
              10.285585418300323,
              36.89937898402639
            ],
            [
              10.285586034952962,
              36.89941593816807
            ],
            [
              10.285609661068568,
              36.89945264273827
            ],
            [
              10.285610586067962,
              36.8995080739495
            ],
            [
              10.285633903885394,
              36.899526301443416
            ],
            [
              10.285634520564718,
              36.89956325558348
            ],
            [
              10.285635137245173,
              36.89960020972331
            ],
            [
              10.285635753926751,
              36.89963716386289
            ],
            [
              10.285659380137266,
              36.8996738684201
            ],
            [
              10.285659688484587,
              36.89969234548951
            ],
            [
              10.285660305180075,
              36.89972929962817
            ],
            [
              10.285660613528242,
              36.89974777669741
            ],
            [
              10.28566123022542,
              36.89978473083569
            ],
            [
              10.285684856495607,
              36.899821435385846
            ],
            [
              10.285685164850728,
              36.89983991245461
            ],
            [
              10.285685781561812,
              36.899876866591974
            ],
            [
              10.285686398274025,
              36.899913820729104
            ],
            [
              10.285686706630557,
              36.89993229779758
            ],
            [
              10.28568732334446,
              36.89996925193435
            ],
            [
              10.285687940059491,
              36.90000620607087
            ],
            [
              10.285688556775652,
              36.90004316020716
            ],
            [
              10.285689173492937,
              36.900080114343204
            ],
            [
              10.285689790211352,
              36.90011706847902
            ],
            [
              10.285690406930893,
              36.9001540226146
            ],
            [
              10.285691332012318,
              36.90020945381751
            ],
            [
              10.285691948708541,
              36.900246406386366
            ],
            [
              10.28569256543203,
              36.900283360521094
            ],
            [
              10.285669864078153,
              36.9003020871806
            ],
            [
              10.285670480792241,
              36.90033904131531
            ],
            [
              10.285671097507457,
              36.90037599544979
            ],
            [
              10.285648704474209,
              36.90041319917279
            ],
            [
              10.285649321180589,
              36.900450153307105
            ],
            [
              10.285649629508066,
              36.900468628808056
            ],
            [
              10.28565024621614,
              36.90050558294203
            ],
            [
              10.285627544787454,
              36.90052430959423
            ],
            [
              10.285628161486128,
              36.90056126372817
            ],
            [
              10.285605768380325,
              36.9005984674434
            ],
            [
              10.285583375253184,
              36.90063567115459
            ],
            [
              10.28558368359298,
              36.900654148221555
            ],
            [
              10.285538280605348,
              36.90069160149776
            ],
            [
              10.285515887419185,
              36.90072880519681
            ],
            [
              10.285493185892378,
              36.900747531824564
            ],
            [
              10.285470792668526,
              36.900784735515515
            ],
            [
              10.285448091114274,
              36.90080346213501
            ],
            [
              10.285425389548932,
              36.90082218875031
            ],
            [
              10.285379986384973,
              36.90085964196839
            ],
            [
              10.285357284786357,
              36.90087836857114
            ],
            [
              10.2853348914594,
              36.90091557223768
            ],
            [
              10.28531218983334,
              36.90093429883218
            ],
            [
              10.285266478280985,
              36.900953274940356
            ],
            [
              10.285244084888612,
              36.90099047859058
            ],
            [
              10.285221383218188,
              36.90100920516834
            ],
            [
              10.285175671598157,
              36.901028181242644
            ],
            [
              10.285153278140369,
              36.90106538487656
            ],
            [
              10.2851078746997,
              36.90110283799445
            ],
            [
              10.285062162995075,
              36.90112181402639
            ],
            [
              10.285016761427196,
              36.90115926708945
            ],
            [
              10.284994057700134,
              36.901177993646435
            ],
            [
              10.284948656065708,
              36.90121544668441
            ],
            [
              10.284925954256364,
              36.9012341732077
            ],
            [
              10.284903560618678,
              36.901271376796764
            ],
            [
              10.284880858781886,
              36.90129010331179
            ],
            [
              10.284835455075031,
              36.90132755632929
            ],
            [
              10.284813061340826,
              36.90136475833599
            ],
            [
              10.284813369529207,
              36.90138323697239
            ],
            [
              10.284790667611405,
              36.90140196190478
            ],
            [
              10.284768273886767,
              36.90143916703565
            ],
            [
              10.284745571941519,
              36.90145789195978
            ],
            [
              10.284723486295123,
              36.90151357258694
            ],
            [
              10.284724102580068,
              36.901550526727796
            ],
            [
              10.284701708755339,
              36.90158773028056
            ],
            [
              10.28467931490927,
              36.90162493382929
            ],
            [
              10.2846566129142,
              36.90164366030343
            ],
            [
              10.284657229169817,
              36.901680614444444
            ],
            [
              10.284634835276096,
              36.901717817985165
            ],
            [
              10.28461244133492,
              36.90175501995571
            ],
            [
              10.284590047398526,
              36.90179222348835
            ],
            [
              10.28456734533277,
              36.9018109499463
            ],
            [
              10.284567961549097,
              36.901847904087575
            ],
            [
              10.284545259461723,
              36.90186663054154
            ],
            [
              10.284523173559657,
              36.9019223111328
            ],
            [
              10.284500780508438,
              36.90195951463878
            ],
            [
              10.284478077396493,
              36.9019782410911
            ],
            [
              10.284455376224468,
              36.901996967518095
            ],
            [
              10.284432982143699,
              36.90203417102247
            ],
            [
              10.28443329022183,
              36.90205264809341
            ],
            [
              10.284410895139231,
              36.902089851604394
            ],
            [
              10.28438850198631,
              36.902127055090176
            ],
            [
              10.284365799773358,
              36.90214578151143
            ],
            [
              10.284343097549316,
              36.902164507928504
            ],
            [
              10.284320703366841,
              36.90220171141267
            ],
            [
              10.284298001115351,
              36.90222043782149
            ],
            [
              10.28427560689518,
              36.90225764129755
            ],
            [
              10.284253212653674,
              36.9022948447696
            ],
            [
              10.284230510358382,
              36.902313571166054
            ],
            [
              10.28423112642356,
              36.90235052530907
            ],
            [
              10.284208732134395,
              36.90238772877309
            ],
            [
              10.284186029801129,
              36.90240645516152
            ],
            [
              10.28418664584694,
              36.902443409304595
            ],
            [
              10.284164252485631,
              36.90248061275003
            ],
            [
              10.284141549112771,
              36.90249933757486
            ],
            [
              10.284142165165322,
              36.90253629328411
            ],
            [
              10.284119462746355,
              36.9025550180944
            ],
            [
              10.284097069321035,
              36.90259222152773
            ],
            [
              10.284074673923348,
              36.90262942497819
            ],
            [
              10.28405228045535,
              36.902666628403466
            ],
            [
              10.2840298859905,
              36.9027038318353
            ],
            [
              10.284007491504315,
              36.90274103526308
            ],
            [
              10.283961777573584,
              36.902760010901034
            ],
            [
              10.283916065570853,
              36.902778986500635
            ],
            [
              10.283893363051282,
              36.902797712835515
            ],
            [
              10.28384795795276,
              36.90283516392663
            ],
            [
              10.283825255426015,
              36.902853891815084
            ],
            [
              10.283802860797607,
              36.90289109520613
            ],
            [
              10.283757455599822,
              36.90292854626398
            ],
            [
              10.283758071450677,
              36.90296550041
            ],
            [
              10.28366880143439,
              36.903132790964136
            ],
            [
              10.283577990633052,
              36.903207696097894
            ],
            [
              10.283371511800187,
              36.90324689287091
            ],
            [
              10.28309538432597,
              36.903249882491856
            ],
            [
              10.282819256811072,
              36.90325287147128
            ],
            [
              10.282497417568392,
              36.90327483486313
            ],
            [
              10.282268233890433,
              36.90333275581522
            ],
            [
              10.281787163194736,
              36.903467322344426
            ],
            [
              10.281010024689788,
              36.9037898898367
            ],
            [
              10.280025168258184,
              36.904077736565156
            ],
            [
              10.27968123348544,
              36.90415537065964
            ],
            [
              10.279382399267188,
              36.90417707725345
            ],
            [
              10.279289128073353,
              36.90410416238982
            ],
            [
              10.27914983529375,
              36.904031745721085
            ],
            [
              10.279032633231266,
              36.903903647681275
            ],
            [
              10.278892421719004,
              36.90377579780468
            ],
            [
              10.278634088835023,
              36.90346441953842
            ],
            [
              10.278470561452579,
              36.90331834025941
            ],
            [
              10.278401529390976,
              36.903319084878504
            ],
            [
              10.278264692657244,
              36.90339448243142
            ],
            [
              10.277809383303028,
              36.90369507882745
            ],
            [
              10.27717151486918,
              36.904090041414
            ],
            [
              10.27701135826165,
              36.90414720840947
            ],
            [
              10.276896303514155,
              36.904148448029666
            ],
            [
              10.276687979989244,
              36.90407676901774
            ],
            [
              10.276410931304682,
              36.90402431335064
            ],
            [
              10.276159036107488,
              36.90410094757323
            ],
            [
              10.275930763926349,
              36.904214286226285
            ],
            [
              10.275725807618679,
              36.90434585546446
            ],
            [
              10.2755914136547,
              36.90456906702929
            ],
            [
              10.275551204831972,
              36.904920627750826
            ],
            [
              10.27562360375483,
              36.90512313157679
            ],
            [
              10.275740802142643,
              36.90525123302816
            ],
            [
              10.276764015100028,
              36.905887027620295
            ],
            [
              10.277343897037987,
              36.90615798388829
            ],
            [
              10.277390226562742,
              36.90617596496619
            ],
            [
              10.277390532989017,
              36.90619444207504
            ],
            [
              10.282339966343397,
              36.90902392774841
            ],
            [
              10.282577781747891,
              36.90948336256666
            ],
            [
              10.282451399760506,
              36.910186983491904
            ],
            [
              10.282408758834412,
              36.91039072918861
            ],
            [
              10.281928986900022,
              36.913371253960825
            ],
            [
              10.281907202634091,
              36.91344541112475
            ],
            [
              10.281461123942078,
              36.91568635500246
            ],
            [
              10.281509355810712,
              36.91720121931648
            ],
            [
              10.281606336204344,
              36.91749585645565
            ],
            [
              10.281821775276503,
              36.91799249471044
            ],
            [
              10.282058386303353,
              36.91837802126508
            ],
            [
              10.282152600996218,
              36.918506364507
            ],
            [
              10.28224773922098,
              36.91869013877025
            ],
            [
              10.282461339269938,
              36.91907591499399
            ],
            [
              10.282742140768265,
              36.91935007808155
            ],
            [
              10.283139562850295,
              36.91971538270593
            ],
            [
              10.283629665663645,
              36.92011664277028
            ],
            [
              10.28428057690416,
              36.920497674579394
            ],
            [
              10.284836346171547,
              36.920694933944155
            ],
            [
              10.285505963562784,
              36.92081703430001
            ],
            [
              10.286242778355659,
              36.92082751940208
            ],
            [
              10.286794850454017,
              36.92080304546826
            ],
            [
              10.286909929771749,
              36.92080179578372
            ],
            [
              10.288331342719045,
              36.92045370475289
            ],
            [
              10.28922554887923,
              36.92024069913031
            ],
            [
              10.289798464011083,
              36.92008662209604
            ],
            [
              10.29092157755702,
              36.91979718759028
            ],
            [
              10.290921887399959,
              36.919815664558776
            ],
            [
              10.291066178159593,
              36.92018369949814
            ],
            [
              10.292212925771052,
              36.91993095600121
            ],
            [
              10.292786140500153,
              36.91979534168436
            ],
            [
              10.293908929054057,
              36.91948740224141
            ],
            [
              10.295604910135648,
              36.919043827762266
            ],
            [
              10.297619658389287,
              36.91839345238069
            ],
            [
              10.29933673804078,
              36.91783871031366
            ],
            [
              10.301465867864666,
              36.917150056832895
            ],
            [
              10.302264728862523,
              36.91946979573278
            ],
            [
              10.30437493251798,
              36.919021540653624
            ],
            [
              10.304395443066204,
              36.91887347548074
            ],
            [
              10.304529150204079,
              36.9186132792405
            ],
            [
              10.304641720311606,
              36.918464197462804
            ],
            [
              10.304776678602007,
              36.91827790844641
            ],
            [
              10.304912575841938,
              36.91814704989817
            ],
            [
              10.305071800716016,
              36.91803441462292
            ],
            [
              10.305140532058243,
              36.91801517738058
            ],
            [
              10.305163546917235,
              36.91801492391442
            ],
            [
              10.305255293069743,
              36.91799543313588
            ],
            [
              10.305393378274658,
              36.917993912182304
            ],
            [
              10.305671123364277,
              36.91808325403853
            ],
            [
              10.305926794520408,
              36.91822827944165
            ],
            [
              10.306089779833835,
              36.918337365183696
            ],
            [
              10.306204854566403,
              36.91833609687937
            ],
            [
              10.306319929291774,
              36.91833482846364
            ],
            [
              10.306457705378413,
              36.918314829358195
            ],
            [
              10.30661849631804,
              36.91829457634457
            ],
            [
              10.306847073358448,
              36.9181996543616
            ],
            [
              10.307395351473417,
              36.917953362889655
            ],
            [
              10.308239991671636,
              36.91753747643088
            ],
            [
              10.31223573575886,
              36.91562679474813
            ],
            [
              10.312666387319808,
              36.91523393900229
            ],
            [
              10.31282338906105,
              36.9149919574275
            ],
            [
              10.312867841409712,
              36.914899063435925
            ],
            [
              10.313047536577947,
              36.91463834828844
            ],
            [
              10.313067399117347,
              36.914453326651895
            ],
            [
              10.3130610966861,
              36.91408379018508
            ],
            [
              10.313037137742933,
              36.91402861468559
            ],
            [
              10.313035877296157,
              36.91395470738796
            ],
            [
              10.31298386724369,
              36.91360415915802
            ],
            [
              10.312696679908427,
              36.9129605308761
            ],
            [
              10.312172439338227,
              36.91191296106206
            ],
            [
              10.311886524751968,
              36.91134323774562
            ],
            [
              10.311462224083959,
              36.910756564715854
            ],
            [
              10.310618992544685,
              36.909897318491176
            ],
            [
              10.310595036774288,
              36.90984214396691
            ],
            [
              10.310384781342371,
              36.90965966546952
            ],
            [
              10.310289902546819,
              36.909494391431785
            ],
            [
              10.310075876713944,
              36.90909019158243
            ],
            [
              10.309978170481898,
              36.9087586254881
            ],
            [
              10.309959626503753,
              36.90766849358035
            ],
            [
              10.310003517518341,
              36.90618958574847
            ],
            [
              10.310130269630395,
              36.905522893850204
            ],
            [
              10.310443307246485,
              36.90498350472237
            ],
            [
              10.310602182562757,
              36.90485238561385
            ],
            [
              10.311010716621126,
              36.904515222818304
            ],
            [
              10.31155762166265,
              36.90419500633684
            ],
            [
              10.311580317662958,
              36.90417627484273
            ],
            [
              10.311626338947836,
              36.90417576557297
            ],
            [
              10.311672045561554,
              36.90415677942027
            ],
            [
              10.311694741522173,
              36.90413804790496
            ],
            [
              10.31174076278198,
              36.904137538591314
            ],
            [
              10.31176345871984,
              36.90411880706324
            ],
            [
              10.311809479966822,
              36.90411829772321
            ],
            [
              10.311855186499143,
              36.90409931150142
            ],
            [
              10.311878197116078,
              36.90409905681599
            ],
            [
              10.311900893008415,
              36.90408032526242
            ],
            [
              10.311946914229749,
              36.9040798158696
            ],
            [
              10.312015631307835,
              36.9040605748841
            ],
            [
              10.312061337752638,
              36.90404158858448
            ],
            [
              10.312107358947747,
              36.90404107912995
            ],
            [
              10.312153065357252,
              36.904022092795664
            ],
            [
              10.312199086538957,
              36.90402158330584
            ],
            [
              10.312221782328582,
              36.90400285169271
            ],
            [
              10.312267803497463,
              36.90400234217651
            ],
            [
              10.312336520420384,
              36.90398310100806
            ],
            [
              10.312382541575284,
              36.903982591447644
            ],
            [
              10.3124055521523,
              36.90398233666075
            ],
            [
              10.312451258449794,
              36.90396335021365
            ],
            [
              10.312497279590714,
              36.903962840609026
            ],
            [
              10.312543300730479,
              36.90396233098658
            ],
            [
              10.312589321869087,
              36.903961821346314
            ],
            [
              10.312612017543751,
              36.90394308966067
            ],
            [
              10.312681049231992,
              36.90394232515401
            ],
            [
              10.312704059794164,
              36.90394207030955
            ],
            [
              10.312749765990443,
              36.903923083749376
            ],
            [
              10.312795783199588,
              36.903922574072816
            ],
            [
              10.312841489360572,
              36.90390358747796
            ],
            [
              10.312887195498506,
              36.9038846008659
            ],
            [
              10.312910206041437,
              36.90388434598186
            ],
            [
              10.312955912150198,
              36.903865359343854
            ],
            [
              10.312978607705222,
              36.9038466275902
            ],
            [
              10.313024628766302,
              36.90384611778267
            ],
            [
              10.313047324298566,
              36.90382738601625
            ],
            [
              10.313093030338175,
              36.90380839932665
            ],
            [
              10.313367581191939,
              36.90371295724791
            ],
            [
              10.31341297197003,
              36.903675492017754
            ],
            [
              10.31348105812074,
              36.90361929805649
            ],
            [
              10.313549144144917,
              36.903563102491525
            ],
            [
              10.313571524343347,
              36.90352589377515
            ],
            [
              10.313616914937974,
              36.90348843003616
            ],
            [
              10.314036775296952,
              36.902467360148634
            ],
            [
              10.314527542259167,
              36.90155638288271
            ],
            [
              10.314700898422272,
              36.90092613142499
            ],
            [
              10.314675050577897,
              36.90076009495927
            ],
            [
              10.314674419868568,
              36.90072314125212
            ],
            [
              10.314673789160395,
              36.90068618754473
            ],
            [
              10.314673158453372,
              36.90064923383711
            ],
            [
              10.314695537291378,
              36.90061202491865
            ],
            [
              10.314694906575573,
              36.90057507121089
            ],
            [
              10.314694275860921,
              36.900538117502876
            ],
            [
              10.314693960504027,
              36.90051964064879
            ],
            [
              10.314693329791103,
              36.90048268694042
            ],
            [
              10.314692699079332,
              36.90044573323182
            ],
            [
              10.31469238372388,
              36.90042725637743
            ],
            [
              10.314691753013838,
              36.900390302668455
            ],
            [
              10.31469112230495,
              36.90035334895926
            ],
            [
              10.314690491597215,
              36.90031639524981
            ],
            [
              10.314689860890633,
              36.90027944154013
            ],
            [
              10.314689230185202,
              36.90024248783021
            ],
            [
              10.314688599480926,
              36.90020553412004
            ],
            [
              10.314710978215052,
              36.90016832676476
            ],
            [
              10.31471034750199,
              36.900131373054464
            ],
            [
              10.314709716790084,
              36.90009441934392
            ],
            [
              10.314709401434563,
              36.90007594248856
            ],
            [
              10.314708770724383,
              36.900038988777666
            ],
            [
              10.31470814001536,
              36.90000203506652
            ],
            [
              10.314707509307489,
              36.89996508135514
            ],
            [
              10.314706878600768,
              36.899928127643534
            ],
            [
              10.314706247921931,
              36.89989117549776
            ],
            [
              10.314705932542852,
              36.89987269707564
            ],
            [
              10.314705301865743,
              36.899835744929526
            ],
            [
              10.314704671163058,
              36.89979879121707
            ],
            [
              10.31470435581215,
              36.89978031436075
            ],
            [
              10.314726419038315,
              36.899724628580074
            ],
            [
              10.314725788328001,
              36.899687674867224
            ],
            [
              10.31472515761884,
              36.899650721154146
            ],
            [
              10.314724526910831,
              36.89961376744083
            ],
            [
              10.31472421155726,
              36.89959529058409
            ],
            [
              10.31472358085098,
              36.89955833687041
            ],
            [
              10.314723265498273,
              36.89953986001349
            ],
            [
              10.314745644004068,
              36.89950265108567
            ],
            [
              10.314745013289583,
              36.89946569737174
            ],
            [
              10.314744697932774,
              36.89944722051468
            ],
            [
              10.314744067220017,
              36.89941026680038
            ],
            [
              10.314743436508413,
              36.89937331308584
            ],
            [
              10.314742805797962,
              36.89933635937107
            ],
            [
              10.314765184237736,
              36.89929915043969
            ],
            [
              10.314764553518504,
              36.89926219672478
            ],
            [
              10.314764238159317,
              36.899243719867215
            ],
            [
              10.314763607441815,
              36.89920676615195
            ],
            [
              10.314802372286918,
              36.89878128953856
            ],
            [
              10.314801741561647,
              36.89874433582097
            ],
            [
              10.314801110864261,
              36.89870738366926
            ],
            [
              10.3148004801413,
              36.898670429951174
            ],
            [
              10.314822858368103,
              36.89863322100925
            ],
            [
              10.31482222763636,
              36.89859626729104
            ],
            [
              10.314821596905764,
              36.898559313572584
            ],
            [
              10.314821281540903,
              36.898540836713266
            ],
            [
              10.314820650812038,
              36.89850388299446
            ],
            [
              10.314820020084328,
              36.89846692927541
            ],
            [
              10.314842398245116,
              36.89842972032993
            ],
            [
              10.314841767508621,
              36.89839276661073
            ],
            [
              10.314841452140808,
              36.89837428975103
            ],
            [
              10.314840506039095,
              36.898318859171624
            ],
            [
              10.314839875306062,
              36.89828190545172
            ],
            [
              10.31483924457418,
              36.89824495173157
            ],
            [
              10.314838613843452,
              36.89820799801118
            ],
            [
              10.314837983113879,
              36.89817104429054
            ],
            [
              10.314837667749522,
              36.89815256743015
            ],
            [
              10.314837037021677,
              36.89811561370915
            ],
            [
              10.314859415076704,
              36.898078404760504
            ],
            [
              10.314858784340077,
              36.89804145103936
            ],
            [
              10.314858153604602,
              36.898004497318006
            ],
            [
              10.31485752287028,
              36.89796754359639
            ],
            [
              10.314879585529226,
              36.89791185934928
            ],
            [
              10.314878954786698,
              36.897874905627404
            ],
            [
              10.314878324018595,
              36.897837950339195
            ],
            [
              10.314900702003088,
              36.89780074294916
            ],
            [
              10.314900071252932,
              36.89776378922691
            ],
            [
              10.31489912512986,
              36.89770835864309
            ],
            [
              10.314921503041475,
              36.89767114968317
            ],
            [
              10.31492118766273,
              36.897652672821835
            ],
            [
              10.314920556906095,
              36.897615719098965
            ],
            [
              10.3149429347815,
              36.89757851013519
            ],
            [
              10.314942304016087,
              36.897541556412186
            ],
            [
              10.314964681886975,
              36.8975043490106
            ],
            [
              10.314964051112781,
              36.897467395287464
            ],
            [
              10.31496342033974,
              36.89743044156407
            ],
            [
              10.314963104953652,
              36.89741196470229
            ],
            [
              10.31496247418234,
              36.89737501097855
            ],
            [
              10.314961528027533,
              36.897319580392484
            ],
            [
              10.314960897259104,
              36.89728262666813
            ],
            [
              10.314960266491825,
              36.89724567294355
            ],
            [
              10.314912041831144,
              36.89711684538292
            ],
            [
              10.314772098854604,
              36.89700751552213
            ]
          ]
        ]
      }
    }
  ]
}
