{
  "type": "FeatureCollection",
  "sourceId": "isie-local-sector-2023-akla435258-whole",
  "features": [
    {
      "type": "Feature",
      "id": "osm:relation:7169576",
      "properties": {
        "id": "osm:relation:7169576",
        "kind": "sector",
        "sourceId": "isie-local-sector-2023-akla435258-whole",
        "officialCode": "435258",
        "nameAr": "العقلة",
        "nameFr": "El Okla",
        "governorateCode": "43",
        "governorateAr": "سيدي بوزيد",
        "governorateFr": "Sidi bouzid",
        "delegationCode": "4352",
        "parentAr": "سيدي بوزيد الشرقية",
        "parentFr": "Sidi bouzid est",
        "sourcePdfURL": "https://www.isie.tn/wp-content/uploads/2023/CartesCirconscriptionsElectoralesLocales2023/سيدي بوزيد/سيدي بوزيد الشرقية/العقلة - (سيدي بوزيد الشرقية).pdf",
        "sourcePdfSha256": "cc1febb677f106a4225551cc043ce9414df0f4f39f1adcd8bb161007ba316f63",
        "sourcePdfFile": "official/akla435258-whole-20260920/sources/akla.pdf",
        "sourcePdfPage": 1,
        "sourceDrawingIndex": 190,
        "sourceCrsEpsg": 32632,
        "nativeVertexCount": 98,
        "nativeContinuousExplicitlyClosed": true,
        "nativeGeometryValid": true,
        "wgs84Bounds": [
          9.561312152391459,
          35.06629058664855,
          9.684597262598338,
          35.13291794000533
        ],
        "geometryPolicy": "Exact unchanged saved native whole path, no repair/snap/cut/fill. Shared registration overlap and external source conflicts remain.",
        "qualification": [
          "ISIE local-election cartography 2023; retrieved 2026-09-20. Not a present-day survey or currency certification.",
          "One whole electoral circle for imada العقلة; JORT page 56 printed 5153 dated 2023-09-22.",
          "EPSG:32632 native evidence preserved exactly; no binary attached to baseline."
        ]
      },
      "geometry": {
        "type": "Polygon",
        "coordinates": [
          [
            [
              9.566282269828797,
              35.13291794000533
            ],
            [
              9.568968026057597,
              35.13247321185448
            ],
            [
              9.592731416976479,
              35.128758122168655
            ],
            [
              9.592731071178218,
              35.12871010043202
            ],
            [
              9.593489853966123,
              35.12856233447093
            ],
            [
              9.599736387923858,
              35.127523242376554
            ],
            [
              9.604991300291264,
              35.1267769002344
            ],
            [
              9.608727590077653,
              35.126181998258275
            ],
            [
              9.608844481749399,
              35.12618141382765
            ],
            [
              9.608961013170466,
              35.126132807694795
            ],
            [
              9.612348004918207,
              35.125731634271936
            ],
            [
              9.615850050795958,
              35.12508967162959
            ],
            [
              9.620753253801393,
              35.12424837490398
            ],
            [
              9.626007385270398,
              35.12345310379272
            ],
            [
              9.635872830548593,
              35.12191325793509
            ],
            [
              9.636865237853703,
              35.12176400052638
            ],
            [
              9.637798822051932,
              35.12156701985051
            ],
            [
              9.639278781494845,
              35.11646879437254
            ],
            [
              9.6392784085422,
              35.11642077295824
            ],
            [
              9.648766754014284,
              35.111664303715216
            ],
            [
              9.648766375562065,
              35.11161628235228
            ],
            [
              9.651735903555926,
              35.11025577185469
            ],
            [
              9.651855052990102,
              35.11054327425367
            ],
            [
              9.652381721727057,
              35.110636500027105
            ],
            [
              9.652617362189385,
              35.110875354001145
            ],
            [
              9.652617742890325,
              35.11092337533327
            ],
            [
              9.652966825932939,
              35.1107294101123
            ],
            [
              9.653384632543668,
              35.111831701957165
            ],
            [
              9.654491844554839,
              35.11144157189697
            ],
            [
              9.654550279349106,
              35.111441257742754
            ],
            [
              9.684597262598338,
              35.105657277316716
            ],
            [
              9.680114909912078,
              35.10063996398184
            ],
            [
              9.674299606974639,
              35.09687847590984
            ],
            [
              9.672174386841933,
              35.09420092358325
            ],
            [
              9.67099734375551,
              35.093150904093
            ],
            [
              9.65682082211668,
              35.09572541269429
            ],
            [
              9.656762398563648,
              35.09572572782027
            ],
            [
              9.653549873724055,
              35.09583905923411
            ],
            [
              9.653491450051758,
              35.09583937278491
            ],
            [
              9.652499388742266,
              35.09598876319821
            ],
            [
              9.647766313344265,
              35.09591798565919
            ],
            [
              9.647765935700152,
              35.095869964161786
            ],
            [
              9.648359462066946,
              35.08962376303189
            ],
            [
              9.648042814893227,
              35.086503924709696
            ],
            [
              9.648830026458485,
              35.08260983059345
            ],
            [
              9.646681529194222,
              35.07681041344469
            ],
            [
              9.646681152453974,
              35.076762391785394
            ],
            [
              9.646647249586993,
              35.072440453085825
            ],
            [
              9.645479107992411,
              35.07244664864074
            ],
            [
              9.645420700903308,
              35.07244695812317
            ],
            [
              9.64265236976858,
              35.069484136145476
            ],
            [
              9.640854503863984,
              35.07112640601576
            ],
            [
              9.638028283684816,
              35.075751505367656
            ],
            [
              9.635595450962999,
              35.07840551846151
            ],
            [
              9.63553703951478,
              35.07840582322939
            ],
            [
              9.63547825789863,
              35.07835811028763
            ],
            [
              9.634057182259204,
              35.07586828733513
            ],
            [
              9.631984873117164,
              35.07222926078728
            ],
            [
              9.631688423010218,
              35.07165451743222
            ],
            [
              9.631628912778242,
              35.07151075474324
            ],
            [
              9.63162854492988,
              35.071462732901004
            ],
            [
              9.631510628503044,
              35.07131927295089
            ],
            [
              9.630977988714678,
              35.07040958145409
            ],
            [
              9.629732769382965,
              35.067966820055084
            ],
            [
              9.628844258640207,
              35.06633860041683
            ],
            [
              9.628843892555595,
              35.06629058664855
            ],
            [
              9.627912010338363,
              35.06663155947108
            ],
            [
              9.621155699095757,
              35.06911539761794
            ],
            [
              9.612942733597292,
              35.07213445492522
            ],
            [
              9.612709823168496,
              35.07223167399687
            ],
            [
              9.612651410912932,
              35.072231967722104
            ],
            [
              9.611544525701596,
              35.072621718800555
            ],
            [
              9.606476849095898,
              35.07451997288779
            ],
            [
              9.599893408229866,
              35.07685769806949
            ],
            [
              9.596048720098663,
              35.078317280144454
            ],
            [
              9.591505349850474,
              35.080116292830404
            ],
            [
              9.577171015802216,
              35.08522751929475
            ],
            [
              9.57140238912493,
              35.087367748737535
            ],
            [
              9.571580640543567,
              35.087799127027736
            ],
            [
              9.573827620160216,
              35.09167847675904
            ],
            [
              9.57225424210597,
              35.092262161228014
            ],
            [
              9.572491597025204,
              35.09278930769759
            ],
            [
              9.573141586748832,
              35.09384277064721
            ],
            [
              9.573200342564736,
              35.09389052208244
            ],
            [
              9.570695134480204,
              35.094910776019155
            ],
            [
              9.570695466924295,
              35.09495879821175
            ],
            [
              9.573868068931906,
              35.09748914699259
            ],
            [
              9.574749475012284,
              35.09820534814166
            ],
            [
              9.574808237340948,
              35.09825309057182
            ],
            [
              9.569039960881597,
              35.10058530104941
            ],
            [
              9.571465136563209,
              35.10484804636058
            ],
            [
              9.57146546958186,
              35.10489606846788
            ],
            [
              9.578213538924272,
              35.11725428496605
            ],
            [
              9.572036276416542,
              35.11978066781478
            ],
            [
              9.561312152391459,
              35.124104644530675
            ],
            [
              9.562683942517337,
              35.128132279752684
            ],
            [
              9.56622348844567,
              35.13287018982771
            ],
            [
              9.566282269828797,
              35.13291794000533
            ]
          ]
        ]
      }
    }
  ]
}
