{"type":"FeatureCollection","status":"PROVISIONAL_SOURCE_CANDIDATE_NOT_INSTALLED","features":[{"type":"Feature","id":"osm:relation:7152287","properties":{"nameAr":"الزهراء","sourcePdfSha256":"d3095e2cb8ef1b65bdbf6a9bf3f932a2a25655fb39dde089366cb7970e74ce55","sourceDrawingIndex":628},"geometry":{"type":"Polygon","coordinates":[[[10.977677821953524,35.51810541304662],[10.978477645995616,35.5180922891223],[10.97927935742918,35.518156089950615],[10.979844882436597,35.51818529385744],[10.980504504350256,35.51821293620349],[10.981632719136394,35.51815591860123],[10.982948176224236,35.51805732038149],[10.98426362940238,35.51795870790804],[10.985672228828161,35.51782006315522],[10.9867034882255,35.517649137434574],[10.987452459779902,35.51748285713438],[10.987545606515724,35.517442837735636],[10.988765047120491,35.51726879181616],[10.99021686895079,35.51697544632912],[10.991152110105501,35.51672910054381],[10.991619730414069,35.51660592496316],[10.99199325494979,35.51648430243411],[10.993724475065923,35.51607084698534],[10.995502722857067,35.51565658848707],[10.99615851140332,35.51553028064386],[10.996484977279257,35.515409430069184],[10.998073102328094,35.51492131513221],[11.001061110507049,35.51394814792967],[11.003909822520635,35.513054193582896],[11.005404720460112,35.51260601645846],[11.007458381532214,35.51191761987377],[11.008064202443522,35.51167662912915],[11.008481840779012,35.511438770571125],[11.009317118002697,35.5109630524579],[11.009829798690909,35.51076208886843],[11.010810984548707,35.51047634280894],[11.012073460029574,35.51014741113233],[11.01296246993563,35.50994015321095],[11.013806350915926,35.50981061300865],[11.014698232964236,35.50971874510864],[11.014838398774433,35.50967791592173],[11.014885441278567,35.5096771297403],[11.015354904276203,35.50963079944107],[11.016244861359336,35.50946198848499],[11.017744432828193,35.50920599970395],[11.019290072047335,35.50891073729841],[11.020601450856978,35.508657865083364],[11.021164022285578,35.50857146827296],[11.022243084789645,35.50843792325675],[11.022712535040636,35.50839156793208],[11.024168881296815,35.508290158948704],[11.025436098994431,35.50815342636213],[11.02623386681275,35.50806305457484],[11.027500100728851,35.50788783344426],[11.02867128633936,35.50767571497774],[11.029513179762244,35.50746912874275],[11.030071847846324,35.50722882248462],[11.030305113019658,35.5071479276555],[11.030677561041447,35.50698772457734],[11.031331280191077,35.50678429505489],[11.031704693922416,35.50666255276709],[11.032596518334108,35.506570554158465],[11.033300172010184,35.50648172253772],[11.034048930459868,35.506315159028354],[11.03521910173529,35.5060645111881],[11.037227220146647,35.50545334879524],[11.03774465331507,35.50544460465647],[11.038734425540689,35.50550483903598],[11.039110740481197,35.50549847517307],[11.039485100723418,35.50541517641564],[11.039766363060679,35.50537193496071],[11.040000585829949,35.50532948876831],[11.041172669746476,35.50515571798888],[11.042721051735949,35.50497556106909],[11.043706918673015,35.504881887340595],[11.044271384928875,35.504872317986376],[11.045685470140311,35.50496378354067],[11.047806125765666,35.50508171699678],[11.048371569498162,35.50511059513441],[11.048653802636062,35.50510579984841],[11.049358399216427,35.50505534218949],[11.050720566368499,35.5049552144138],[11.051189974432164,35.50490874612556],[11.051236034207705,35.50486947921277],[11.051279157234022,35.504714812336665],[11.051226245463333,35.504484812704774],[11.051011665615755,35.50344941703136],[11.051005793296124,35.503218617042926],[11.051218469245061,35.50232988607719],[11.051340004141975,35.5015581553014],[11.051241036910055,35.50136742240495],[11.05119106411054,35.50125282258146],[11.048894093075601,35.50159974340806],[11.04856582090387,35.50164380462256],[11.048959814324917,35.50048260965696],[11.04977712427212,35.49931422108835],[11.049729110948599,35.49927655721304],[11.049539013507665,35.499202821915155],[11.049443964913236,35.49916595414911],[11.048398443896257,35.498760403435064],[11.047876171739611,35.498576857989136],[11.047637088623413,35.49842698484998],[11.048315250424166,35.4973379355032],[11.049397135843204,35.49547235733567],[11.049759711805528,35.49492742732042],[11.048106728469369,35.4946861310389],[11.046926025856834,35.49451376582499],[11.045886425624579,35.494338991751604],[11.044942853607857,35.49423954697868],[11.044516634015242,35.494131324105155],[11.043708305833794,35.493798675898184],[11.042947016353205,35.493465225221804],[11.042853926361518,35.493505285746885],[11.042711855166116,35.49346920908734],[11.042425764677308,35.49332012464316],[11.042328777603169,35.4932063137582],[11.042279797198239,35.49313017970302],[11.041711524679073,35.49298586906136],[11.041287262983907,35.49295456830724],[11.04067195336779,35.492811048946315],[11.040341756638208,35.49277815294529],[11.040008640852461,35.49262985503895],[11.03986754534752,35.492632241928824],[11.039953824529885,35.49232291468826],[11.040135139176614,35.49205046303946],[11.040221416894308,35.49174113889494],[11.040314506302455,35.49170108041583],[11.040172439312805,35.49166500060969],[11.040125408046732,35.49166579630314],[11.039557141351366,35.49152147513584],[11.039130942585459,35.491413232455955],[11.03799734201947,35.491239978779284],[11.037668124405663,35.49124554225697],[11.037194898274862,35.4911380873027],[11.037286045146711,35.49102109698385],[11.037552681359367,35.49040085942556],[11.037363587173353,35.4903655708321],[11.037220552033958,35.49029102033955],[11.036983456126741,35.4902180585677],[11.036794362577945,35.490182769057895],[11.036604297801649,35.49010901215058],[11.036726932137718,35.489375757686624],[11.035215183328573,35.48913189633329],[11.035226831633825,35.48959350193219],[11.035331570292053,35.490015049572],[11.035343219642114,35.49047665506981],[11.035302984346826,35.4907467187218],[11.035212805556135,35.49090217475567],[11.035080448727319,35.491250756809066],[11.03413497369957,35.4910742916069],[11.032668283067508,35.49075267488822],[11.031578826609564,35.49046316569604],[11.030016157956416,35.4900661628448],[11.029163807395754,35.48984961019904],[11.027509034467883,35.48953109133724],[11.026325542449662,35.489243114997706],[11.025473209232006,35.48902653235627],[11.024759065451677,35.48869217266236],[11.024141883281361,35.4884716352537],[11.02338168496441,35.48817652382274],[11.022953593376442,35.4879912877323],[11.02209935266764,35.48769774556098],[11.02186131244418,35.4875862858551],[11.02110209423776,35.48732963019608],[11.020439829621688,35.48718679301768],[11.018738119262101,35.48686893847744],[11.016039194250874,35.48618290099148],[11.015232981450623,35.48592699012326],[11.014995916321862,35.48585398398268],[11.014994955393792,35.485815516345276],[11.016280982526776,35.48456254717767],[11.016553533228485,35.48417315322192],[11.016217609921211,35.48390938390981],[11.016072682092222,35.48375787198193],[11.01573772328688,35.48353256883885],[11.015212740037908,35.48323347600022],[11.014688717234778,35.48297284520274],[11.013879656098934,35.48260152425298],[11.013643566139871,35.4825669826752],[11.012976553014333,35.482231764162414],[11.012119524913887,35.481822744710236],[11.011309527534099,35.48141293793338],[11.010501459357883,35.4810800576402],[11.010024490923593,35.480818621583275],[11.009357506745761,35.48048338524987],[11.009023541696209,35.480296530021086],[11.007921849179766,35.47950671743253],[11.007250103187658,35.47897912611147],[11.006960299408627,35.47867608184142],[11.00638643761203,35.47830079177241],[11.005717580421202,35.47788859812358],[11.0053845864174,35.47774020009142],[11.004908609673592,35.47751721039498],[11.003189006875454,35.47646823930576],[11.002136358983352,35.47575452799487],[11.000985864582795,35.47488849172804],[11.00074598663713,35.47470005176552],[11.000459083396612,35.47451239125725],[10.999555172183243,35.47410406045472],[10.998219503232475,35.47335652134574],[10.997505610367488,35.47302199110356],[10.996550901872617,35.47246053949433],[10.995882142042497,35.4720482844292],[10.995451342828114,35.47174754080773],[10.994114799282311,35.4709614852307],[10.993399039804297,35.4705499961564],[10.993016227748852,35.47028693437756],[10.992299534056544,35.46983696676133],[10.991535824584556,35.46938777099365],[10.991391918246542,35.46927469825076],[10.991104106617344,35.46904854568323],[10.990911288220847,35.46885930851095],[10.99024068545855,35.468370086690925],[10.989713043843663,35.46795546759861],[10.989521179494048,35.46780469633103],[10.989330259936247,35.46769239315467],[10.989091374239855,35.4675423966411],[10.988900455885124,35.46743009274005],[10.988091664210742,35.467058585648665],[10.987758745901882,35.46691013618126],[10.987615800344914,35.4668355236484],[10.987330849273345,35.46672477310903],[10.98614119836838,35.466167106646324],[10.985238395855012,35.46579712779786],[10.984143752889501,35.46527636149711],[10.982909016885916,35.46479637199908],[10.98233819705765,35.46453636543767],[10.9815304094687,35.46420328729888],[10.980819493417911,35.46398405868113],[10.980249629312683,35.46376251038723],[10.980156541365375,35.4638025225598],[10.980065338367343,35.463919471892076],[10.97997224815132,35.46395948396299],[10.979925231279957,35.46396025567218],[10.979878214406803,35.463961027363055],[10.979355371588591,35.463738703034444],[10.978975465480449,35.46359099974133],[10.978594617914426,35.46340482656793],[10.978167700163521,35.46325789175355],[10.977265908628409,35.46292631944883],[10.976648104977643,35.46266705546211],[10.976125278929969,35.462444716526605],[10.97598611368276,35.46252396442244],[10.975763271501972,35.463027908056],[10.975358950544996,35.463804212047805],[10.974956502177946,35.46465744577746],[10.974591656104371,35.46512522800826],[10.974365035243139,35.465475294495455],[10.974186371378128,35.4658630598334],[10.974052842771272,35.46617311804581],[10.97341339682314,35.46695326329088],[10.973097431419067,35.46749720316844],[10.972781460059572,35.46804114886349],[10.972649803070043,35.46842814318913],[10.972103426697199,35.46916827225939],[10.971831643567283,35.46959604073178],[10.971789321998235,35.46978914988119],[10.971156403215096,35.47083856564727],[10.970974896739474,35.471110920468135],[10.97071155539117,35.47188490229991],[10.970578004403714,35.47219495712642],[10.970405883246316,35.472851995617],[10.970135957705685,35.4733566982454],[10.96968920627946,35.474326094053104],[10.969555647642085,35.47463614462567],[10.96938351392126,35.47529318510365],[10.969249013976889,35.47556476986648],[10.969067491064228,35.4758371221661],[10.968659292283137,35.476459531179614],[10.968205937033256,35.47715963743133],[10.96807143224726,35.47743122099708],[10.968031911294908,35.47773973867426],[10.967941613738521,35.477895148448766],[10.967813672226358,35.47843601332215],[10.967776030329329,35.478821468425316],[10.967736509731896,35.47912998270385],[10.967601998381639,35.479401565851674],[10.967331097971712,35.479867790890744],[10.967109096222137,35.480410189248445],[10.966927554820435,35.480682538720835],[10.96679491394954,35.48103105866496],[10.966522128413134,35.481420344498446],[10.966206061899706,35.48196427496819],[10.965609699288716,35.482589738179016],[10.965289873718044,35.482979791229894],[10.964558969159292,35.48387683039715],[10.964102729263905,35.48446152291984],[10.963322896147657,35.485282383482165],[10.962775389514297,35.48598400917444],[10.9624085067097,35.48637481741617],[10.961860984964359,35.48707643933026],[10.961677539402043,35.48727184393609],[10.961447998262694,35.48750647883616],[10.961400966158422,35.48750724378394],[10.961543930506041,35.48758188668668],[10.962159077526499,35.48772581586675],[10.962967032749933,35.4880590240344],[10.963394995243199,35.4882444775859],[10.963727960903487,35.48839299244385],[10.964200148030876,35.48846227072068],[10.964816242963337,35.48864465149484],[10.965385308865756,35.48882779879593],[10.966094534071273,35.488970174319576],[10.966660789895423,35.48903790918317],[10.96699001281289,35.48903253972791],[10.967131108322292,35.48903023825804],[10.967134861256362,35.48918411320646],[10.967092519430807,35.489377224086915],[10.967094395881503,35.48945416155902],[10.967377526702982,35.4894880268923],[10.967848785140967,35.48951882182401],[10.96832004277421,35.48954961165777],[10.968933338175148,35.48961656795157],[10.969170375227112,35.48968966564084],[10.969641636191042,35.489720453488054],[10.96956823921091,35.49056830063807],[10.969858889355393,35.49090990607744],[10.970285004348199,35.49101839675134],[10.9706151745855,35.49105148579345],[10.970996136558561,35.491237679775196],[10.971231301589743,35.491233835887485],[10.971616027581241,35.49157390231584],[10.971812625222027,35.49191704049801],[10.972098588366766,35.492066303467666],[10.972570802683903,35.49213554473844],[10.97285206252392,35.49209245964945],[10.973225504484788,35.49197090085566],[10.97345596461638,35.49177470969006],[10.97378237087524,35.491653915670774],[10.97411254469978,35.491686995002226],[10.97472397394904,35.49167698407391],[10.975526362405075,35.49177929375646],[10.975952488705085,35.491887763991514],[10.976474566181935,35.492071624732965],[10.976998534115518,35.49233242333544],[10.97723464265107,35.49236703616209],[10.978994700732592,35.49314632381787],[10.980096313652016,35.493936402218836],[10.980438778296165,35.49446954977908],[10.980871537584393,35.494847280642546],[10.980872482566344,35.49488574902396],[10.9811171078626,35.49526656929092],[10.981223465120213,35.495765109289096],[10.981139791003486,35.49618980690888],[10.980915953511232,35.49665528775855],[10.980643189552719,35.4970446073375],[10.98027823988463,35.4975124080854],[10.979632954825489,35.49806177502514],[10.978892640737959,35.49857421757147],[10.97824733781043,35.49912358084496],[10.978067682287508,35.4994728800279],[10.97794261325716,35.5001291579834],[10.977811882078395,35.50055462528192],[10.977678316534847,35.50086468397605],[10.977737623094404,35.50136400184012],[10.977790324184593,35.50159403748703],[10.978554273025063,35.50204331068248],[10.9790274949483,35.5021509961301],[10.979359602459224,35.502260996322434],[10.97978767680265,35.50244638762188],[10.980121676271805,35.50263332234114],[10.980451897038636,35.502666382716036],[10.98069181789061,35.50285486103661],[10.981077585439307,35.50323335863599],[10.981082312318735,35.503425700248634],[10.981226268147548,35.50353878644492],[10.981278037430561,35.503730355032914],[10.981374952029674,35.503844214019416],[10.981577296755852,35.50441814314663],[10.981407101157476,35.50515213322466],[10.981291508504526,35.506193093213604],[10.981253924612233,35.506578545927205],[10.981211610719605,35.506771660426836],[10.981122254755016,35.50696554789549],[10.981077103866593,35.507043257458605],[10.980985856371602,35.50716020823956],[10.980893663192543,35.50723869065614],[10.980803360601824,35.507394109613614],[10.980757263814207,35.5074333507661],[10.98066696274992,35.5075887695995],[10.980348063731922,35.50801732696908],[10.980165564244068,35.50825122746899],[10.980073369039284,35.50832970931108],[10.979934130888694,35.508408963634444],[10.979746906716649,35.50845052192721],[10.979560625175727,35.50853054829273],[10.979188060953822,35.50869060019306],[10.978862538267826,35.508849878866776],[10.978442929944157,35.5090107006382],[10.978018599305091,35.50897917921389],[10.977735396368521,35.50894534132881],[10.977497349046972,35.50883379444097],[10.977354332205342,35.50875917239657],[10.976060594385245,35.50781829026478],[10.975628727150506,35.507479012841664],[10.975389744170243,35.50732899310499],[10.975147936025571,35.50706356752085],[10.975003981839652,35.50695047405625],[10.974812986061039,35.50683815092534],[10.974621048394175,35.50668735902152],[10.974430996079679,35.50661350369826],[10.97395681092976,35.5064673357226],[10.97372065990724,35.50643271787324],[10.972970817864997,35.50656044221445],[10.972784535283017,35.50664045491546],[10.971804182740662,35.5069643630553],[10.97124532362787,35.50720440495329],[10.97096683248459,35.50736289351574],[10.970457831932535,35.50771756849395],[10.970182158443347,35.5079914609704],[10.969777578219215,35.50876774654128],[10.969644909456846,35.50911626918254],[10.969609147247565,35.509578657059635],[10.969587488773902,35.51061807304736],[10.96935410569147,35.51262304493273],[10.968751860753676,35.51494190801603],[10.968463882676831,35.51663989474084],[10.968171196617194,35.518145544587306],[10.968155159107388,35.5194157674918],[10.968811969100502,35.519328074633364],[10.969983499701561,35.519116516427424],[10.970734404248516,35.519027275467124],[10.971297112291866,35.51894110746175],[10.971908749188884,35.51893110417851],[10.973552636816564,35.51878875164171],[10.97388103532845,35.51874489112903],[10.974489843476977,35.51861946962596],[10.975332946519284,35.518451728899215],[10.975894701032912,35.51832706483759],[10.976738743301716,35.51819777624451],[10.977677821953524,35.51810541304662]]]}}]}
