{"type":"FeatureCollection","status":"PROVISIONAL_SOURCE_CANDIDATE_NOT_INSTALLED","features":[{"type":"Feature","id":"osm:relation:7152245","properties":{"nameAr":"بومرداس","officialCode":"335251","sourcePdfSha256":"115afadb29dc0c378ec43d3484b6665d8335e4ac55fdf11ded90c4ea8d72eaea","sourceDrawingIndex":533},"geometry":{"type":"Polygon","coordinates":[[[10.718009039786804,35.48921499965812],[10.718050548811238,35.48921440919946],[10.719166231044891,35.48896084996391],[10.720242565955417,35.488809705264366],[10.720324860517353,35.48877457832573],[10.72044938675611,35.488772804536126],[10.720698439200964,35.48876925657161],[10.720864470620526,35.48876689102668],[10.721278834512024,35.48872703157477],[10.721736153732842,35.488754467906716],[10.722194196949582,35.488815846944284],[10.722817548241503,35.48884091154534],[10.722901289751015,35.48887367175214],[10.723192575100489,35.488903470926545],[10.723441627589114,35.48889991728907],[10.7240635305544,35.488857086583245],[10.7243555408239,35.488920827349595],[10.724605317988624,35.488951215715204],[10.724729119391991,35.48891549309811],[10.725846949806364,35.488763705926125],[10.726710648420756,35.48837785875472],[10.72741410626177,35.488265935364005],[10.727621647904263,35.4882629668205],[10.727704664552759,35.48826177930321],[10.728534830770435,35.488249900991065],[10.728617120921802,35.48821476850898],[10.729901696036881,35.488094512040384],[10.732383442033765,35.48765148938082],[10.732673997349885,35.48764732141701],[10.732797792852988,35.48761159066744],[10.733087612616572,35.487573477550704],[10.733708773111905,35.4874966532283],[10.734247645589582,35.48745496203027],[10.735159357768614,35.48737395786851],[10.735530739064519,35.48726675771852],[10.734952499280078,35.48547547175851],[10.734600036835728,35.48452980217598],[10.734467501262035,35.48415820359257],[10.734069902388052,35.483043412383495],[10.733413089384456,35.481456970597364],[10.733238332163387,35.48105202151567],[10.733105081123373,35.48064647946917],[10.733225953104316,35.48047497135754],[10.73326308818014,35.480270710004405],[10.73330095128349,35.480100392937366],[10.733329347728017,35.47948880283163],[10.733361384820455,35.47904693131528],[10.735154050963597,35.47939469494519],[10.735195554563749,35.47939409873145],[10.73527710374875,35.47932501772655],[10.735276374744759,35.479291073458924],[10.73590329635261,35.47948579378345],[10.73634816495443,35.47893612381815],[10.736558599768998,35.479068917572015],[10.736719506217502,35.47882892389],[10.737043505348671,35.47845076290488],[10.737164365700819,35.47827925111806],[10.73754081221652,35.478409655533916],[10.737783990195833,35.47813451937246],[10.737783260170055,35.47810057514329],[10.737824763047156,35.47809997804418],[10.737907768797696,35.478098783803155],[10.738145096287676,35.47755209612868],[10.73857971466502,35.476527202228304],[10.73857898434806,35.47649325800442],[10.738743531704976,35.476422980078894],[10.738944467474044,35.47611449494401],[10.739024549165638,35.47597752311683],[10.739667385443555,35.47498358227371],[10.740506182952535,35.475378955891145],[10.741158503652075,35.47482627928247],[10.741199266361864,35.47479173698558],[10.741485385104005,35.474583884016454],[10.740755746606588,35.47347389752122],[10.74149177543773,35.47295397049938],[10.742390874005213,35.47229586813344],[10.742137485042514,35.47209579432442],[10.742502931977102,35.47171702126197],[10.74254369961607,35.47168247845345],[10.742990677346848,35.471234621233194],[10.742989945256708,35.47120067418201],[10.743112246730755,35.471097048132556],[10.743396151095899,35.47078735851203],[10.743757192401862,35.47020491978088],[10.743464504954503,35.470107280135295],[10.743326098478486,35.46946413751555],[10.743325366357258,35.469430193337566],[10.743278011332297,35.46915924164171],[10.743276547147957,35.469091353280376],[10.743275082968514,35.46902346491819],[10.743189158576834,35.46888888585325],[10.743226264226175,35.468684621928666],[10.743717648807106,35.46837193740045],[10.743880703454668,35.46823376472719],[10.74429128523364,35.46802411143519],[10.744455077718055,35.467919879214584],[10.744658902067902,35.46774716491001],[10.744658169433011,35.46771322074646],[10.744818297384834,35.4674392701223],[10.7449413236217,35.46736958367077],[10.745063616850222,35.46726595294033],[10.745225208288252,35.467059890137804],[10.745675078351384,35.46674780041476],[10.745878897089025,35.46657508129888],[10.746123478424465,35.466367817931925],[10.746408814693707,35.466126010182265],[10.746490341039054,35.466056922108045],[10.74657406742573,35.466089666397224],[10.746615563937254,35.466089066450586],[10.746656327017922,35.46605452235294],[10.746737853074734,35.46598543411879],[10.747266301768068,35.465468473952065],[10.747433753949858,35.46553396141607],[10.74788213896901,35.465153972752965],[10.748327583453717,35.46463820894191],[10.748568481701284,35.46426122033595],[10.7487271213326,35.46391937672525],[10.748846467351663,35.46367996594871],[10.749167412941693,35.46316600129514],[10.748710234170696,35.463138664987945],[10.748168597774358,35.463044639604604],[10.747334297487184,35.46285298076488],[10.746416278188958,35.462628571574946],[10.745624220475875,35.4624702448834],[10.745165580933064,35.46237500950651],[10.744625418093177,35.46234885632123],[10.743707411234116,35.462124426119786],[10.74308207276827,35.46199763096082],[10.742078890776734,35.46167255272621],[10.740825289710987,35.4612831678656],[10.739865086942407,35.46102536123905],[10.739116003302064,35.460934282092445],[10.738698873109515,35.46083842145548],[10.737946880754281,35.460611557578794],[10.737029639542639,35.46042102262137],[10.73611240232018,35.460230477683844],[10.736273274893785,35.45999048203419],[10.736642342970546,35.45978144855603],[10.737013596784912,35.45967424991516],[10.737303321426738,35.45963612930776],[10.737341897463324,35.459499755275694],[10.73729675753915,35.45933063022202],[10.737624326759637,35.459122190520745],[10.73761484404725,35.45868091409582],[10.737563139464166,35.458206290026055],[10.737105990897971,35.45817890880744],[10.737178037887665,35.457668556087995],[10.737166370511762,35.457125446377354],[10.736917417792126,35.457129025570424],[10.736710686169195,35.457165952206],[10.736790025247497,35.45699503751194],[10.736616038411098,35.456624035100866],[10.735933223165611,35.45575102417765],[10.737629265597874,35.45548896031204],[10.73911856355625,35.45526380648711],[10.739573505389961,35.45518934468882],[10.739569124512915,35.45498568160593],[10.739394399733838,35.45458073899263],[10.73909228538862,35.454041810336314],[10.739004195188542,35.45380539428801],[10.738191803453525,35.452696579543556],[10.738105905909295,35.452561995773344],[10.738146666171678,35.45252745456805],[10.738640164727244,35.4523166252514],[10.73987316937811,35.451755599079306],[10.740036205525355,35.451617431907195],[10.739824378439891,35.45141675595886],[10.739276260583964,35.4510171916579],[10.738812584982222,35.45068431647792],[10.73859711521964,35.450313913464925],[10.738838749554994,35.44997088772613],[10.738831452506082,35.44963144402892],[10.738908591139111,35.449358694963486],[10.738527902722423,35.449024627023974],[10.738064971281757,35.44872569571586],[10.737770181397169,35.44852620632512],[10.737393882927254,35.448395797950745],[10.737016849696074,35.44823144405534],[10.73659687304887,35.447999796348945],[10.736396722167777,35.44834222163259],[10.736072106218034,35.448686434906705],[10.735543689007713,35.44920334632492],[10.735216881488345,35.44944572414925],[10.735013815918059,35.449652366599686],[10.734770702869648,35.449927496347776],[10.73432962089809,35.450646880914846],[10.73404938694882,35.45112626852779],[10.732662067349795,35.45029730050356],[10.73245026157234,35.45009660806982],[10.73261185342373,35.449890561663985],[10.732108183300607,35.44962614346427],[10.731480044683396,35.44936350962324],[10.731399247820601,35.449466529250685],[10.731275509464277,35.44950226001633],[10.730937065366504,35.44920151444939],[10.731057897810649,35.449030008860774],[10.730972742473321,35.44892936400106],[10.73046907657707,35.44866494157404],[10.729549810077588,35.44837250854085],[10.728881659397675,35.44817834055782],[10.728462430458032,35.44798060842912],[10.727915840703467,35.4476488763165],[10.726790606863961,35.44742727690621],[10.726583894578283,35.44746418855065],[10.726559795005057,35.44827944889593],[10.726519031688904,35.448313986289754],[10.726232238743714,35.44848785847661],[10.725864648234557,35.44876474890133],[10.725497772247152,35.44907558297929],[10.725253186627654,35.449282802236915],[10.725128721566966,35.449284579273595],[10.72500425649538,35.44928635618203],[10.72466655967177,35.449019536955475],[10.724539923998643,35.44891948235981],[10.724416183016045,35.44895520040179],[10.724293889197195,35.44905881334451],[10.724173042005253,35.44923030968899],[10.724012879862562,35.449504234611595],[10.723969944461274,35.44943693727139],[10.72371884364619,35.44933865465366],[10.723301066772894,35.44920879373971],[10.722882571721787,35.449044986628195],[10.722548496958192,35.448947887440454],[10.722296676558418,35.44881565709307],[10.722044856969928,35.44868342619402],[10.721793038192727,35.44855119474337],[10.721624918644615,35.44845172524112],[10.721330172203002,35.44825219444715],[10.720991769383412,35.44795141972866],[10.720143247201957,35.4470806747636],[10.71984634451588,35.44677930875857],[10.719761926853424,35.44671259734063],[10.7192947469717,35.44620992314513],[10.718658745288723,35.445573825305495],[10.717974776697126,35.444632816437526],[10.717546944186287,35.44402770763863],[10.717328707319307,35.44352148384147],[10.716940213710599,35.442813954231895],[10.716640454649191,35.44237679730075],[10.71608603068437,35.44167161586085],[10.715364963255933,35.44093484214512],[10.715237632163607,35.44080082925733],[10.715194708991374,35.44073353411984],[10.715110301619255,35.440666821974766],[10.714856360950714,35.44043274030572],[10.71417679962716,35.43969537005488],[10.713459357811393,35.43912830818658],[10.713213332054666,35.439267616492344],[10.71263831422127,35.439547407424456],[10.712062570617109,35.439793250860774],[10.71094968924586,35.44014856270258],[10.70996053293325,35.440468158702636],[10.709964836949641,35.440671828330835],[10.710226653072217,35.44127930919256],[10.709693812256807,35.44159244453049],[10.70932618629866,35.44186928568471],[10.708794768293679,35.44225030717277],[10.708387804691046,35.44262956702449],[10.707505151360536,35.44209876033667],[10.706895052571962,35.44268461585811],[10.70648950593347,35.44313175385368],[10.706450168241414,35.443234180388465],[10.706086818133445,35.44371467629212],[10.705919443036933,35.44364912899724],[10.705717026595101,35.44388967194814],[10.705148384289767,35.4444749336711],[10.705027502164805,35.444646414789545],[10.704333677814514,35.44519948096832],[10.704008933709382,35.44554361163371],[10.703723529310635,35.44578531863671],[10.703643414547377,35.44592226852545],[10.703688475867956,35.44609140871813],[10.703825090884614,35.44666671916144],[10.704126228886704,35.44717179626035],[10.704172722186168,35.44740882619591],[10.704307197777176,35.447882300822016],[10.704481729323037,35.44828729719934],[10.704658415763229,35.44879413098503],[10.70496457214879,35.44953682035314],[10.705140545508698,35.45000970537246],[10.705188474924835,35.450314624617356],[10.70523926722933,35.45075532367727],[10.705416676613003,35.45129610087918],[10.70551397127776,35.45197382303151],[10.705475344133983,35.45211018845798],[10.704976030157804,35.452049324835706],[10.703432316318803,35.45166363923889],[10.702721272217074,35.451402023307246],[10.701930106356183,35.45127734908239],[10.701178294302403,35.451050250333495],[10.699921476165096,35.450490701445645],[10.699461525417778,35.45032739570888],[10.698583122141146,35.45000019555286],[10.698206867873392,35.44986966638754],[10.697623172319819,35.44974204765527],[10.696620311759002,35.449416581401316],[10.69590788480633,35.44908703379068],[10.695614616422905,35.44895532882303],[10.69528128298997,35.44889209548148],[10.694444399878046,35.44856428215102],[10.693858583167637,35.448334809278016],[10.693647586978589,35.448167991009456],[10.693138359651158,35.44763184761634],[10.69293660158548,35.44790631268032],[10.692774911903479,35.44811231158221],[10.69236499827904,35.44835573632041],[10.692043741630414,35.448869562386506],[10.69187707622444,35.448837940856095],[10.691625303711145,35.44870564508322],[10.690910773614629,35.44827422863445],[10.690744108066148,35.44824260551432],[10.690661130933925,35.448243766471805],[10.69049943462389,35.44844975961592],[10.690374968589094,35.448451500787336],[10.690207595361775,35.44838593166549],[10.689829944698284,35.44818748236299],[10.689327121601293,35.44795682663305],[10.688827134224578,35.447861952700954],[10.688668975015192,35.44823766700868],[10.688549470795444,35.44847702316036],[10.688306914472474,35.44878600882512],[10.68769803865033,35.449439662507665],[10.687174254489888,35.450193987771875],[10.686933813395692,35.45060480383669],[10.686900110656266,35.4509787812008],[10.686779179882473,35.45115024520505],[10.686450799185645,35.45132460455674],[10.686255378305328,35.451904566795164],[10.68605217116633,35.45211113339585],[10.685564188559763,35.45259331090904],[10.684877229999794,35.4534857260359],[10.68479990413273,35.453758445569036],[10.684970820492657,35.45399374558728],[10.685138201576786,35.4540593217114],[10.685427226707423,35.4539873802583],[10.685510917441894,35.45402017090613],[10.685310532568387,35.454362514685236],[10.685153054384815,35.45477217007021],[10.685117220581365,35.4550443110846],[10.684759349786628,35.45579631493971],[10.684602569862719,35.45623991501176],[10.684409246254335,35.45692171038726],[10.684373411039864,35.4571938511589],[10.684253173019167,35.45739925816255],[10.684091440890596,35.45760524340247],[10.683888922926066,35.45784575199575],[10.683767269161638,35.457983267954646],[10.683647735171068,35.45822261682804],[10.683488119969033,35.458530437226656],[10.683408665257286,35.45870132000532],[10.683333449979793,35.4590758716769],[10.683259649131676,35.459518316753986],[10.683024106043572,35.46016674574365],[10.68282652214403,35.460644866981255],[10.682830054497666,35.460814593490554],[10.682712633200492,35.46115578030255],[10.682433466681136,35.46170294735826],[10.681955292315205,35.462660346002856],[10.681518603656071,35.4636171653872],[10.681240127062338,35.46419827811084],[10.681049581889738,35.465015849781096],[10.680776745069368,35.46586852109324],[10.680506019787453,35.46682302775655],[10.680552456958578,35.46706006767188],[10.681212899508964,35.46688110332429],[10.68203792021284,35.46663193392824],[10.683111217211362,35.46634534813502],[10.684019221867862,35.46609500920901],[10.684198648246923,35.46673765505957],[10.684250047592478,35.46721230705814],[10.68434223905486,35.46765243518582],[10.68444221246407,35.468465963605176],[10.684537236294497,35.46904187233234],[10.684497859085905,35.469144286655286],[10.684375482810195,35.469247858196034],[10.683720684557803,35.469698402036556],[10.68347522279001,35.46987159824363],[10.683435842039215,35.46997400940205],[10.683570947098508,35.4704814530072],[10.683706761029372,35.47102283872474],[10.683671624481237,35.47132892416833],[10.68372019630084,35.4716677980303],[10.68376735426836,35.47193878139897],[10.683905294054169,35.472582002315875],[10.68395528228753,35.4729887635179],[10.68396164771201,35.473294270427814],[10.68398357373661,35.47434656900296],[10.684034978570848,35.47482122329793],[10.684165850507744,35.47512499435734],[10.684170802335029,35.47536260785706],[10.684140619998647,35.475906309563044],[10.684149816474115,35.476347594183565],[10.684482547432022,35.47637691282994],[10.684856783389346,35.47640564591295],[10.68539278282515,35.47622839649324],[10.685724097355331,35.47618981850737],[10.685688260656137,35.47646195607338],[10.685605962370397,35.47649705951676],[10.685731178265735,35.476529267261874],[10.685940110632583,35.47659426155351],[10.685981613860738,35.47659368230426],[10.68630938956846,35.47638537688332],[10.686678664869046,35.47617649403021],[10.686801048230864,35.47607292005829],[10.686966351381104,35.476036656677685],[10.687134489094914,35.47613617363533],[10.687175990302604,35.476135594006394],[10.687216784551767,35.47610106920013],[10.687465093398052,35.47606364576393],[10.687630396193525,35.47602738148198],[10.687998248174887,35.475750601581964],[10.68803904187304,35.47571607651061],[10.688328851798428,35.47567807137921],[10.688370354504626,35.47567749132144],[10.688411148002743,35.47564296612926],[10.688451941465999,35.47560844092406],[10.688492734894394,35.475573915705844],[10.68840831118703,35.4755071856466],[10.688449813803706,35.475506605563936],[10.688862709971197,35.47539896863705],[10.689191892301608,35.4752585487823],[10.689274185866363,35.47522344011081],[10.689397274001372,35.4751538087277],[10.689561864356914,35.47508359964218],[10.689644159394692,35.47504849357928],[10.689847410640173,35.47484192036142],[10.689888204837732,35.47480739466969],[10.690172329333357,35.47449782446857],[10.690373449636828,35.474189415112576],[10.69073560272479,35.47364106941588],[10.69077497389299,35.47353865328814],[10.691213732945378,35.472683638693844],[10.692090937814502,35.472942995166164],[10.692508791637746,35.47307296167485],[10.69250808071681,35.47303901373466],[10.69303479770317,35.472420445552274],[10.692781526347787,35.47222026465827],[10.69269639192578,35.47211959250139],[10.692443834978725,35.47195335876083],[10.692232777868496,35.471786540274856],[10.691556692317292,35.47121877333136],[10.691884431818613,35.471010456463],[10.69204900975149,35.47094024137902],[10.6924597451607,35.4707307576042],[10.692500536199455,35.47069623109499],[10.692542036256283,35.47069564967323],[10.692623614673263,35.47062659663799],[10.692786769329636,35.470488490436004],[10.693276944577583,35.47010811559765],[10.693358523531767,35.47003906206821],[10.694086305722825,35.46911207560006],[10.694127093494568,35.469077548598634],[10.69416290109113,35.46880540618391],[10.69420297727975,35.46873693697982],[10.694202265760545,35.46870298904496],[10.694365415696145,35.468564883700964],[10.694619390572274,35.468799003767685],[10.694746022749014,35.46889909249699],[10.695083708327623,35.46916599509949],[10.695209629758216,35.46923213826657],[10.695251129004655,35.46923155593409],[10.695251840918205,35.469265500970344],[10.695293340180875,35.46926491862288],[10.695294052113042,35.469298863658224],[10.695503684560656,35.469397786797245],[10.695588105569554,35.46946451199448],[10.695713315752597,35.46949670958083],[10.695880737601675,35.4695622695049],[10.695680361565978,35.469904629513806],[10.696725685320466,35.47026345775145],[10.69735388395795,35.47052627317159],[10.697395383823165,35.47052569008349],[10.697436170822273,35.47049116199039],[10.697638679406472,35.47025063135291],[10.698002903164278,35.46980410034296],[10.701417940520713,35.47230266708313],[10.701215438568289,35.472543203816684],[10.701012220936803,35.47274979244257],[10.70097072000672,35.47275037680593],[10.700397566269539,35.47313195051977],[10.699989694920166,35.47347724075284],[10.699785757938402,35.473649885381526],[10.699500244639484,35.473891584438114],[10.69950309999481,35.474027367054944],[10.700134907316272,35.47445988851648],[10.700304485494097,35.474627276617326],[10.700345273207462,35.47459274753998],[10.701445095570048,35.473592570656],[10.702204988869589,35.47419305188387],[10.702839668937678,35.47476134115631],[10.702881886126692,35.474794700992334],[10.703471499320196,35.475193844431836],[10.703681868905598,35.47532669746383],[10.704362369806173,35.4760980617418],[10.704700834941676,35.47639887731949],[10.705040735117784,35.476767584382806],[10.70508295074948,35.47680094343279],[10.70525469644535,35.477070155612886],[10.705425003532863,35.47727148085852],[10.705725557046673,35.47774260611442],[10.705767060439614,35.47774202004485],[10.705810713560341,35.477843268366826],[10.706323090720323,35.47851512716115],[10.706747445832185,35.47895054584998],[10.707211878869842,35.479317486710954],[10.707296321632771,35.479384200146846],[10.70788240280326,35.479613599273925],[10.708329616828783,35.479165864470566],[10.708411907257544,35.479130745737216],[10.708575770122676,35.4790265633616],[10.708657342492918,35.47895749972167],[10.708698846446838,35.4789569126265],[10.70890493038311,35.47888608745521],[10.7091525178165,35.47881467469199],[10.709235525554858,35.47881350015091],[10.70923480751195,35.478779555415294],[10.709563243865016,35.478605133084194],[10.709645533160145,35.47857001353709],[10.709685600442194,35.47850153664944],[10.710086988062207,35.47785071470786],[10.710127773023512,35.477816182411686],[10.71052843529567,35.47713141440125],[10.710808172743661,35.47661812938705],[10.71114666347073,35.47691892899583],[10.711188885137608,35.47695228578524],[10.71152594070291,35.47718519194574],[10.712197180731913,35.47751522824644],[10.71308169617026,35.47811387528674],[10.714128638947376,35.47854043353474],[10.714307616551768,35.47914908118373],[10.714482275341743,35.47955405772991],[10.714571046076891,35.47982443658913],[10.714702762603368,35.480162115441104],[10.715221709772564,35.48113943532802],[10.716084974000315,35.482689090633045],[10.7164729492538,35.483362674458824],[10.716521664027006,35.483701527581196],[10.716873912708177,35.48464725331651],[10.71705436933483,35.485323784459965],[10.717247818044376,35.48661131134069],[10.717789944056472,35.488674839316346],[10.718009039786804,35.48921499965812]]]}}]}
