{
  "type": "FeatureCollection",
  "sourceId": "isie-local-sectors-2023-soliman-thirteen-native",
  "features": [
    {
      "type": "Feature",
      "id": "isie2023:borj-cedria-1",
      "properties": {
        "circleId": "isie2023:borj-cedria-1",
        "circleNameAr": "برج السدرية 1",
        "parentImadaCode": "135552",
        "sourcePdfURL": "https://www.isie.tn/wp-content/uploads/2023/CartesCirconscriptionsElectoralesLocales2023/%D8%A8%D9%86%20%D8%B9%D8%B1%D9%88%D8%B3/%D8%AD%D9%85%D8%A7%D9%85%20%D8%A7%D9%84%D8%B4%D8%B7/%D8%A8%D8%B1%D8%AC%20%D8%A7%D9%84%D8%B3%D8%AF%D8%B1%D9%8A%D8%A9%201.pdf",
        "sourcePdfSha256": "7ec8756584b1483d34bf1a548558deacc2c20559a9bd469514a7685951d819cc",
        "sourceGeometrySha256": "7845713628a7c8c195d3deb070407165e288bfd0dd1c1581a07f585f8f0bff99",
        "sourcePdf": {
          "file": "official/soliman-thirteen-native-20260912/maps/borj-cedria-1.pdf",
          "sha256": "7ec8756584b1483d34bf1a548558deacc2c20559a9bd469514a7685951d819cc"
        },
        "sourceRetrieval": {
          "file": "official/soliman-thirteen-native-20260912/maps/borj-cedria-1-retrieval.json",
          "sha256": "44ffc9025119816c89103d6b5cb5f4d4ebacb8fe00100870d94e0b60bb1dd051"
        },
        "sourceDrawingIndices": [
          480
        ]
      },
      "geometry": {
        "type": "Polygon",
        "coordinates": [
          [
            [
              10.40442735281737,
              36.7001307709543
            ],
            [
              10.40437068276875,
              36.70008645840479
            ],
            [
              10.40470169301671,
              36.69985764650284
            ],
            [
              10.405199433779533,
              36.6995818790669
            ],
            [
              10.405807232184056,
              36.69921484600025
            ],
            [
              10.406415024762548,
              36.69884780993097
            ],
            [
              10.406801053037908,
              36.698573356467335
            ],
            [
              10.407187899210216,
              36.698343877446234
            ],
            [
              10.407739819381673,
              36.697977495547626
            ],
            [
              10.408402620759576,
              36.697564816966434
            ],
            [
              10.408843662864207,
              36.697244724118015
            ],
            [
              10.40928634489764,
              36.69701457712077
            ],
            [
              10.4085036418614,
              36.69697886474776
            ],
            [
              10.407495092007773,
              36.69681087471406
            ],
            [
              10.406370739568985,
              36.696419337273
            ],
            [
              10.40557574960987,
              36.69570902729328
            ],
            [
              10.404431769563825,
              36.69423814891856
            ],
            [
              10.40407949739123,
              36.693297697228374
            ],
            [
              10.403952252960112,
              36.69244455227228
            ],
            [
              10.4037765417463,
              36.69199680955913
            ],
            [
              10.403434106767522,
              36.69159601492996
            ],
            [
              10.403033376979534,
              36.691060965676535
            ],
            [
              10.402689314633248,
              36.69057022471403
            ],
            [
              10.40184021049698,
              36.68995048945103
            ],
            [
              10.401839393348501,
              36.6899055212596
            ],
            [
              10.401783549628325,
              36.68990617921709
            ],
            [
              10.400164897128974,
              36.68997021681984
            ],
            [
              10.397484401823366,
              36.690001731488934
            ],
            [
              10.397372714034029,
              36.690003043295754
            ],
            [
              10.397258582653528,
              36.68986944253583
            ],
            [
              10.39690968079536,
              36.68910885121759
            ],
            [
              10.395056012612068,
              36.68544211338854
            ],
            [
              10.395055199478156,
              36.685397141220754
            ],
            [
              10.395106974293858,
              36.68517162564851
            ],
            [
              10.395272869153358,
              36.685079716975814
            ],
            [
              10.395550444243387,
              36.68498649823879
            ],
            [
              10.396053820689158,
              36.68502557481446
            ],
            [
              10.396782187201639,
              36.68515197163691
            ],
            [
              10.397004729805039,
              36.68510437724505
            ],
            [
              10.397169807824861,
              36.684967493846955
            ],
            [
              10.397279045101227,
              36.68483126599686
            ],
            [
              10.397268457979452,
              36.68424663209424
            ],
            [
              10.397376879654404,
              36.6840654320296
            ],
            [
              10.397652819233024,
              36.683882264243614
            ],
            [
              10.39770377093102,
              36.68361177553782
            ],
            [
              10.397868029862185,
              36.6834299191023
            ],
            [
              10.397920610028482,
              36.683249374565904
            ],
            [
              10.397862326919382,
              36.68311511419155
            ],
            [
              10.397748205278434,
              36.682981513552626
            ],
            [
              10.397690737276143,
              36.68289222521384
            ],
            [
              10.397744946706247,
              36.6828016211997
            ],
            [
              10.397912462741798,
              36.68279965325593
            ],
            [
              10.398305778277491,
              36.68292997684533
            ],
            [
              10.39858334190092,
              36.682836755056805
            ],
            [
              10.398694204026077,
              36.68279046640363
            ],
            [
              10.398914297479564,
              36.682607956001235
            ],
            [
              10.399297827380432,
              36.68219861096654
            ],
            [
              10.399514655150792,
              36.68183620725055
            ],
            [
              10.39978159884421,
              36.68115834546225
            ],
            [
              10.399716788515006,
              36.6806643090859
            ],
            [
              10.399704553186629,
              36.679989731143976
            ],
            [
              10.399689055600557,
              36.679135260807534
            ],
            [
              10.399687424313685,
              36.679045316554124
            ],
            [
              10.399797464740356,
              36.67895405866022
            ],
            [
              10.400077459840784,
              36.67899574622471
            ],
            [
              10.400524962909154,
              36.67903546167752
            ],
            [
              10.400913365053865,
              36.67889594440782
            ],
            [
              10.401027485871051,
              36.6790295459252
            ],
            [
              10.401254095581582,
              36.67920680440711
            ],
            [
              10.401702417157297,
              36.67929148748287
            ],
            [
              10.40220984424875,
              36.67955539918079
            ],
            [
              10.402488208080914,
              36.6795071368542
            ],
            [
              10.402878243831525,
              36.67945755734023
            ],
            [
              10.403266643570461,
              36.679318032447156
            ],
            [
              10.40337668003709,
              36.679226771330526
            ],
            [
              10.403485071067317,
              36.67904556612095
            ],
            [
              10.403425963972772,
              36.67886633646124
            ],
            [
              10.403253560072077,
              36.6785984795047
            ],
            [
              10.402856989221833,
              36.67828828740698
            ],
            [
              10.402738779489049,
              36.67792982729221
            ],
            [
              10.402675588351318,
              36.67752573677353
            ],
            [
              10.40244979772588,
              36.677393452999944
            ],
            [
              10.401999852707908,
              36.677218832115244
            ],
            [
              10.401602477259974,
              36.67686365959444
            ],
            [
              10.40154419299236,
              36.67672940091648
            ],
            [
              10.401542559688645,
              36.676639456698084
            ],
            [
              10.401596760463296,
              36.67654885483877
            ],
            [
              10.401926863641982,
              36.67627507582931
            ],
            [
              10.403140492191989,
              36.67545110411767
            ],
            [
              10.403083841439635,
              36.67540679037511
            ],
            [
              10.40252550925513,
              36.67541337238972
            ],
            [
              10.401574710862093,
              36.67533461157242
            ],
            [
              10.401183062062549,
              36.675294242170445
            ],
            [
              10.401124779791047,
              36.67515998321198
            ],
            [
              10.401066497728877,
              36.67502572421772
            ],
            [
              10.401005767022697,
              36.67475654878683
            ],
            [
              10.400946669249977,
              36.6745773175781
            ],
            [
              10.400939323214281,
              36.67417257214577
            ],
            [
              10.400595352737952,
              36.67368182189234
            ],
            [
              10.400533808909216,
              36.67336767395101
            ],
            [
              10.400530545060287,
              36.67318778533319
            ],
            [
              10.400359786689497,
              36.67300987169486
            ],
            [
              10.400348364911283,
              36.67238026142275
            ],
            [
              10.400346733257619,
              36.672290317092475
            ],
            [
              10.40023180818184,
              36.67211174236959
            ],
            [
              10.399889482819,
              36.671710933973834
            ],
            [
              10.399776190634377,
              36.671622303115576
            ],
            [
              10.399665344931561,
              36.671668588694246
            ],
            [
              10.399446098979537,
              36.67189607610839
            ],
            [
              10.399278606691869,
              36.67189804571019
            ],
            [
              10.399056108146834,
              36.671945643561465
            ],
            [
              10.39883441478384,
              36.67203821331032
            ],
            [
              10.398725197651666,
              36.67217444242948
            ],
            [
              10.398619239427022,
              36.6724905602453
            ],
            [
              10.398566667404213,
              36.672671105217105
            ],
            [
              10.398346600654174,
              36.67285361468855
            ],
            [
              10.398014869769549,
              36.673037443285146
            ],
            [
              10.397792357572827,
              36.6730850351513
            ],
            [
              10.397566588305883,
              36.67295274537779
            ],
            [
              10.397001761376254,
              36.6725995233431
            ],
            [
              10.396833453599763,
              36.67255651730855
            ],
            [
              10.396330976566801,
              36.67256241441936
            ],
            [
              10.396161855818251,
              36.67247443518218
            ],
            [
              10.395991108865791,
              36.67229651119771
            ],
            [
              10.395990295576219,
              36.672251538948366
            ],
            [
              10.395987855718323,
              36.67211662219823
            ],
            [
              10.395816296798559,
              36.671893725673144
            ],
            [
              10.395643925812255,
              36.67162585661098
            ],
            [
              10.39551356595941,
              36.67059280780008
            ],
            [
              10.395287807807703,
              36.67046050960186
            ],
            [
              10.39500297013658,
              36.670148980114526
            ],
            [
              10.39477721414942,
              36.670016680892395
            ],
            [
              10.394495629504739,
              36.6698850354578
            ],
            [
              10.394269879874718,
              36.66975273517766
            ],
            [
              10.394044126277596,
              36.669620434505624
            ],
            [
              10.393428381038692,
              36.66953768235271
            ],
            [
              10.393259270195122,
              36.669449698738234
            ],
            [
              10.393312664394841,
              36.66931412812194
            ],
            [
              10.393476904558849,
              36.66913227774613
            ],
            [
              10.39397368049657,
              36.6688115869006
            ],
            [
              10.394415436128085,
              36.66853652053649
            ],
            [
              10.394524656056085,
              36.66840029523811
            ],
            [
              10.394409750403772,
              36.66822171818487
            ],
            [
              10.394294845223657,
              36.66804313719241
            ],
            [
              10.394234144353069,
              36.667773961194854
            ],
            [
              10.39332304252566,
              36.66679503148389
            ],
            [
              10.393094053552318,
              36.66648283934319
            ],
            [
              10.39258431500993,
              36.66608396860729
            ],
            [
              10.392469417331858,
              36.66590538563393
            ],
            [
              10.392408724712833,
              36.66563620844141
            ],
            [
              10.392516322172055,
              36.665410040196335
            ],
            [
              10.392838294915556,
              36.664686562596046
            ],
            [
              10.392945889941899,
              36.6644603977942
            ],
            [
              10.392888441891438,
              36.664371106457516
            ],
            [
              10.392382773404478,
              36.66419709628858
            ],
            [
              10.391989563625701,
              36.66406675049954
            ],
            [
              10.391587439894764,
              36.6634417069968
            ],
            [
              10.391413482467541,
              36.66308388592005
            ],
            [
              10.391298592145487,
              36.66290530157757
            ],
            [
              10.390902960579963,
              36.662640034745124
            ],
            [
              10.390615740500227,
              36.662193576100805
            ],
            [
              10.390386781338592,
              36.661881381755016
            ],
            [
              10.389758961114488,
              36.66112402243958
            ],
            [
              10.389194256897952,
              36.66077076009655
            ],
            [
              10.3889701608776,
              36.66072839375509
            ],
            [
              10.388800261013825,
              36.66059543074671
            ],
            [
              10.388797834737012,
              36.660460513319165
            ],
            [
              10.388964498870953,
              36.66041358644892
            ],
            [
              10.389242798682346,
              36.66036535628192
            ],
            [
              10.3899061954922,
              36.65999775535957
            ],
            [
              10.390183688341441,
              36.659904550523024
            ],
            [
              10.390516193012521,
              36.65976572041308
            ],
            [
              10.390791254650436,
              36.6595376006621
            ],
            [
              10.390898844249005,
              36.65931143378838
            ],
            [
              10.390893174681114,
              36.658996626665065
            ],
            [
              10.390889935036187,
              36.65881674068436
            ],
            [
              10.39099671816157,
              36.65854560121818
            ],
            [
              10.391049299448673,
              36.65836505900158
            ],
            [
              10.390818725887227,
              36.65796291642218
            ],
            [
              10.39058977893993,
              36.65765071819134
            ],
            [
              10.390473279697268,
              36.65738218774976
            ],
            [
              10.390526666445147,
              36.65724661824403
            ],
            [
              10.390799289875208,
              36.65688358117135
            ],
            [
              10.390796860437836,
              36.65674866377411
            ],
            [
              10.390683600894876,
              36.656660023361354
            ],
            [
              10.390514521706585,
              36.6565720350007
            ],
            [
              10.39034382855632,
              36.65639410138071
            ],
            [
              10.390115693012369,
              36.65612687455728
            ],
            [
              10.390001625906477,
              36.65599326477663
            ],
            [
              10.389439385834887,
              36.655774920019724
            ],
            [
              10.389215299536172,
              36.655732553856964
            ],
            [
              10.388823755546095,
              36.65569214142822
            ],
            [
              10.388766323773622,
              36.655602847681
            ],
            [
              10.388876344948889,
              36.65551159996558
            ],
            [
              10.389377903808072,
              36.65546076413101
            ],
            [
              10.389766210164911,
              36.655321284773414
            ],
            [
              10.39015370569818,
              36.655136831685354
            ],
            [
              10.39032035284038,
              36.655089903191914
            ],
            [
              10.390318733876388,
              36.65499995821533
            ],
            [
              10.390203049267456,
              36.65477639978057
            ],
            [
              10.390312258092207,
              36.65464017829473
            ],
            [
              10.390422276062859,
              36.6545489292041
            ],
            [
              10.390755562543246,
              36.654455071342944
            ],
            [
              10.390865579720911,
              36.6543638218566
            ],
            [
              10.39108723310539,
              36.65427126755104
            ],
            [
              10.391083993565667,
              36.65409138144217
            ],
            [
              10.391026555734626,
              36.65400208884722
            ],
            [
              10.39052095978034,
              36.653828068951526
            ],
            [
              10.390350268147943,
              36.653650135188414
            ],
            [
              10.390237823150274,
              36.65360646670001
            ],
            [
              10.389790471787768,
              36.653566709184894
            ],
            [
              10.389510574029726,
              36.65352499518621
            ],
            [
              10.389285685424456,
              36.65343765648473
            ],
            [
              10.388947544885474,
              36.6532616788977
            ],
            [
              10.38871942834281,
              36.6529944450977
            ],
            [
              10.388660372491502,
              36.652815210065235
            ],
            [
              10.38865471337493,
              36.65250040229854
            ],
            [
              10.388876364270217,
              36.652407852137415
            ],
            [
              10.389263847643537,
              36.65222340212139
            ],
            [
              10.389485496989234,
              36.652130850854405
            ],
            [
              10.389706336757907,
              36.65199332666172
            ],
            [
              10.390097053053731,
              36.65198876408372
            ],
            [
              10.39003880876285,
              36.65185449840722
            ],
            [
              10.389754871837434,
              36.65158792223055
            ],
            [
              10.389189430079254,
              36.65118968911758
            ],
            [
              10.388626419177875,
              36.65092636701556
            ],
            [
              10.38851236722984,
              36.650792751611014
            ],
            [
              10.388454930171113,
              36.650703457668044
            ],
            [
              10.388453313634791,
              36.65061351255383
            ],
            [
              10.388563328279961,
              36.650522265195555
            ],
            [
              10.388670922307899,
              36.6502961038309
            ],
            [
              10.388668497165241,
              36.650161186162165
            ],
            [
              10.388717032131021,
              36.64975578199717
            ],
            [
              10.388600552124748,
              36.649487248987974
            ],
            [
              10.388707331526032,
              36.64921611126454
            ],
            [
              10.38881653549563,
              36.64907989113717
            ],
            [
              10.38914737958112,
              36.64885112041787
            ],
            [
              10.389369019536803,
              36.64875856951826
            ],
            [
              10.389535653568563,
              36.6487116423549
            ],
            [
              10.389701478456972,
              36.64861974241374
            ],
            [
              10.389643237575479,
              36.64848547640164
            ],
            [
              10.389361740910864,
              36.64835381651771
            ],
            [
              10.38868631457088,
              36.64804683212522
            ],
            [
              10.388348203981613,
              36.647870848286864
            ],
            [
              10.388176722827914,
              36.647647938267234
            ],
            [
              10.388174298780813,
              36.647513020510104
            ],
            [
              10.388280269122015,
              36.647196910521075
            ],
            [
              10.3883846176717,
              36.64679085532026
            ],
            [
              10.388604641016613,
              36.64660836069057
            ],
            [
              10.38854074157095,
              36.64615928596306
            ],
            [
              10.388644284020637,
              36.64570825787777
            ],
            [
              10.388864299007565,
              36.64552576286933
            ],
            [
              10.388861065598812,
              36.64534587251404
            ],
            [
              10.388967838832873,
              36.645074734513905
            ],
            [
              10.388910410587116,
              36.64498544819708
            ],
            [
              10.3885755457959,
              36.64498935502833
            ],
            [
              10.388180824900452,
              36.64476904884328
            ],
            [
              10.387843532993372,
              36.64463803581785
            ],
            [
              10.387563668615421,
              36.644596316476594
            ],
            [
              10.387232030110528,
              36.64478011004435
            ],
            [
              10.386952165499046,
              36.644738389270834
            ],
            [
              10.386670687058372,
              36.644606722559814
            ],
            [
              10.386500836837081,
              36.64447375497851
            ],
            [
              10.386438570276521,
              36.644114623905914
            ],
            [
              10.386373883783481,
              36.64362057481901
            ],
            [
              10.386425660040079,
              36.643395061539564
            ],
            [
              10.386643248274403,
              36.643077652699475
            ],
            [
              10.386807450698406,
              36.64289581159045
            ],
            [
              10.386695028161745,
              36.64285213925206
            ],
            [
              10.386583407967718,
              36.64285343951166
            ],
            [
              10.386031759963725,
              36.643219720529515
            ],
            [
              10.385754321022935,
              36.643312914785696
            ],
            [
              10.385705768697802,
              36.643718318467336
            ],
            [
              10.38554317470647,
              36.6439901034512
            ],
            [
              10.385157335008389,
              36.644264486261875
            ],
            [
              10.384937319274306,
              36.64444697451274
            ],
            [
              10.384780362824536,
              36.6450335672008
            ],
            [
              10.384840199825273,
              36.64525778128952
            ],
            [
              10.384901653891816,
              36.64557193298113
            ],
            [
              10.384959082898078,
              36.64566122887988
            ],
            [
              10.38518555169361,
              36.6458385218116
            ],
            [
              10.385187164149562,
              36.64592846712265
            ],
            [
              10.384963919466196,
              36.645931064842664
            ],
            [
              10.384572427047898,
              36.64589063727573
            ],
            [
              10.384125928290265,
              36.64589583009895
            ],
            [
              10.383960102259307,
              36.64598772233321
            ],
            [
              10.383795081255535,
              36.64612458702383
            ],
            [
              10.38335180168189,
              36.64630966771339
            ],
            [
              10.382798504034996,
              36.64658598900563
            ],
            [
              10.382576866693121,
              36.64667852768791
            ],
            [
              10.381960510976569,
              36.64655073910094
            ],
            [
              10.38117350316306,
              36.646244999356036
            ],
            [
              10.380782819137837,
              36.646249532003154
            ],
            [
              10.380278898123066,
              36.64616541238825
            ],
            [
              10.379770962722745,
              36.64585642682795
            ],
            [
              10.379265439682847,
              36.645682357310406
            ],
            [
              10.378811723248514,
              36.64528277514639
            ],
            [
              10.378476048699245,
              36.64524168088417
            ],
            [
              10.37830941486385,
              36.64528859258166
            ],
            [
              10.377698689635178,
              36.645475591111
            ],
            [
              10.377256200017332,
              36.64570562216211
            ],
            [
              10.376981150118334,
              36.64593371472405
            ],
            [
              10.376761105245842,
              36.64611618837836
            ],
            [
              10.376484445333151,
              36.64625433426237
            ],
            [
              10.376375223100903,
              36.646390543515544
            ],
            [
              10.376379228723318,
              36.64661540760563
            ],
            [
              10.376550674028868,
              36.64683833541441
            ],
            [
              10.376778735076575,
              36.6471055901934
            ],
            [
              10.376781139211023,
              36.6472405086094
            ],
            [
              10.376502071713675,
              36.647243736169585
            ],
            [
              10.376167190658245,
              36.64724760837916
            ],
            [
              10.375609856124443,
              36.64729903279722
            ],
            [
              10.375497433087999,
              36.647255349920414
            ],
            [
              10.374939297640584,
              36.64726179837492
            ],
            [
              10.374435375552451,
              36.64717765405036
            ],
            [
              10.374156308006725,
              36.64718087611049
            ],
            [
              10.373655585438378,
              36.64727661989976
            ],
            [
              10.373432335778977,
              36.64727919609006
            ],
            [
              10.37309665489876,
              36.647238086798914
            ],
            [
              10.372705959797548,
              36.64724259311579
            ],
            [
              10.372315264609549,
              36.647247098151766
            ],
            [
              10.371981980134038,
              36.647340904381785
            ],
            [
              10.371647098022342,
              36.6473447638932
            ],
            [
              10.370809897196766,
              36.64735440850001
            ],
            [
              10.369581197794025,
              36.64732357042399
            ],
            [
              10.369244726151692,
              36.64723747723691
            ],
            [
              10.368742403056162,
              36.64724325459469
            ],
            [
              10.368350910737194,
              36.64720277366736
            ],
            [
              10.367905197579068,
              36.64725287881897
            ],
            [
              10.367680355272432,
              36.6471654982777
            ],
            [
              10.367230662687632,
              36.64699073599479
            ],
            [
              10.367004225770419,
              36.64681340821469
            ],
            [
              10.366777789891033,
              36.646636079977256
            ],
            [
              10.366439728705394,
              36.64646003277565
            ],
            [
              10.366214885568013,
              36.64637264942792
            ],
            [
              10.365987657699243,
              36.64615034659591
            ],
            [
              10.366096898209623,
              36.64601414649076
            ],
            [
              10.365930254658394,
              36.64606104105106
            ],
            [
              10.365818628859303,
              36.64606232195037
            ],
            [
              10.365539569063047,
              36.646065523686886
            ],
            [
              10.365093860277923,
              36.64611561822664
            ],
            [
              10.364146627767568,
              36.64621644199169
            ],
            [
              10.36381175415959,
              36.64622027932155
            ],
            [
              10.360979549548063,
              36.64706237495716
            ],
            [
              10.361933134533663,
              36.64732136083269
            ],
            [
              10.362496825012164,
              36.647629784811826
            ],
            [
              10.362779068548356,
              36.647806482292054
            ],
            [
              10.36294968465956,
              36.6479844573396
            ],
            [
              10.363120301561494,
              36.64816243212119
            ],
            [
              10.363177703037913,
              36.648251739024914
            ],
            [
              10.36329012555147,
              36.648295425962324
            ],
            [
              10.36351576505698,
              36.64842779542721
            ],
            [
              10.36362739437701,
              36.64842651661539
            ],
            [
              10.363682415101085,
              36.64838089650373
            ],
            [
              10.363845889646104,
              36.64815412043529
            ],
            [
              10.36395513671003,
              36.64801792220233
            ],
            [
              10.364121780994665,
              36.64797103036276
            ],
            [
              10.36423340962729,
              36.64796975099663
            ],
            [
              10.364401646767567,
              36.648012804783725
            ],
            [
              10.364459049452984,
              36.64810210341968
            ],
            [
              10.36457226687509,
              36.64819076978957
            ],
            [
              10.364742887908001,
              36.648368742153274
            ],
            [
              10.364972502663553,
              36.64872596626858
            ],
            [
              10.365259524146076,
              36.64917249569875
            ],
            [
              10.365319313176697,
              36.649396720504626
            ],
            [
              10.365435712906073,
              36.64966527798182
            ],
            [
              10.365497887566644,
              36.650024421653384
            ],
            [
              10.365785712117763,
              36.650515918734584
            ],
            [
              10.365901315372453,
              36.65073950270909
            ],
            [
              10.366019309743212,
              36.65109800543197
            ],
            [
              10.366134124015131,
              36.65127661609714
            ],
            [
              10.366191531353662,
              36.65136592138212
            ],
            [
              10.366138100505468,
              36.65150147715562
            ],
            [
              10.366085464833843,
              36.65168200969093
            ],
            [
              10.366032828929145,
              36.651862542202764
            ],
            [
              10.365870153446908,
              36.65213430170885
            ],
            [
              10.365870948626231,
              36.6521792746821
            ],
            [
              10.365876514930854,
              36.65249408548494
            ],
            [
              10.36587890051642,
              36.65262900439511
            ],
            [
              10.365825468380903,
              36.65276456384179
            ],
            [
              10.365884466944445,
              36.65294381517308
            ],
            [
              10.365885262155501,
              36.65298878813995
            ],
            [
              10.36599769322624,
              36.65303247993608
            ],
            [
              10.366109324344366,
              36.65303119871545
            ],
            [
              10.366110119688713,
              36.65307617167743
            ],
            [
              10.366114891791826,
              36.65334600944183
            ],
            [
              10.363966353597736,
              36.65813873615455
            ],
            [
              10.362326321653656,
              36.66328545937539
            ],
            [
              10.360046618146006,
              36.667000053132526
            ],
            [
              10.35977460596145,
              36.66740799971818
            ],
            [
              10.3593948927098,
              36.66804208230057
            ],
            [
              10.359080503270635,
              36.669215201832166
            ],
            [
              10.35850515929464,
              36.67142588582157
            ],
            [
              10.358193118047106,
              36.672733921803285
            ],
            [
              10.358143615959122,
              36.673094342723495
            ],
            [
              10.358145989764198,
              36.67322925778842
            ],
            [
              10.358678565398145,
              36.67493248964282
            ],
            [
              10.359091571262729,
              36.67618726455326
            ],
            [
              10.359051574729603,
              36.67708736057582
            ],
            [
              10.359076125380952,
              36.67848151687466
            ],
            [
              10.359095925509443,
              36.67960583548409
            ],
            [
              10.359105429993166,
              36.68014551016749
            ],
            [
              10.359118895044167,
              36.680910045402854
            ],
            [
              10.359519270382505,
              36.68144525462448
            ],
            [
              10.359977075479147,
              36.68206976603553
            ],
            [
              10.359977868093718,
              36.68211473889264
            ],
            [
              10.360321623522683,
              36.68260561042563
            ],
            [
              10.360950927843488,
              36.68345306654239
            ],
            [
              10.361637669406663,
              36.684389829394256
            ],
            [
              10.361980651895099,
              36.68483571891296
            ],
            [
              10.362610782684014,
              36.68572814184352
            ],
            [
              10.362668217615767,
              36.685817447823716
            ],
            [
              10.36295219276918,
              36.686084086437184
            ],
            [
              10.370853823206724,
              36.687567666202995
            ],
            [
              10.371022150756106,
              36.687610712294834
            ],
            [
              10.37180874755212,
              36.68787153270819
            ],
            [
              10.373269464934113,
              36.688349481843794
            ],
            [
              10.374620916763211,
              36.68896362065839
            ],
            [
              10.376195766055869,
              36.68957515625986
            ],
            [
              10.377779479928057,
              36.690681367437186
            ],
            [
              10.377780283157879,
              36.69072633989418
            ],
            [
              10.377887128322419,
              36.69670765825788
            ],
            [
              10.380229250502373,
              36.69960431138068
            ],
            [
              10.381001503454094,
              36.699055569105624
            ],
            [
              10.38152591388061,
              36.70026398562166
            ],
            [
              10.382094904289051,
              36.70084213446708
            ],
            [
              10.383449070340577,
              36.701591082505004
            ],
            [
              10.383504922948221,
              36.701590432969944
            ],
            [
              10.380794967030074,
              36.7093587366815
            ],
            [
              10.39439556754956,
              36.70452201972034
            ],
            [
              10.401940226008755,
              36.70159951225535
            ],
            [
              10.40442735281737,
              36.7001307709543
            ]
          ]
        ]
      }
    },
    {
      "type": "Feature",
      "id": "isie2023:borj-cedria-2",
      "properties": {
        "circleId": "isie2023:borj-cedria-2",
        "circleNameAr": "برج السدرية 2",
        "parentImadaCode": "135552",
        "sourcePdfURL": "https://www.isie.tn/wp-content/uploads/2023/CartesCirconscriptionsElectoralesLocales2023/%D8%A8%D9%86%20%D8%B9%D8%B1%D9%88%D8%B3/%D8%AD%D9%85%D8%A7%D9%85%20%D8%A7%D9%84%D8%B4%D8%B7/%D8%A8%D8%B1%D8%AC%20%D8%A7%D9%84%D8%B3%D8%AF%D8%B1%D9%8A%D8%A9%202.pdf",
        "sourcePdfSha256": "07d984e4d0c9e95043c195071818e3407c38cd9e03fd1617899613c86d083849",
        "sourceGeometrySha256": "faed5876858f1d011e80da9cc32682030c944c6330f8ab7b585bcf58ccb24c24",
        "sourcePdf": {
          "file": "official/soliman-thirteen-native-20260912/maps/borj-cedria-2.pdf",
          "sha256": "07d984e4d0c9e95043c195071818e3407c38cd9e03fd1617899613c86d083849"
        },
        "sourceRetrieval": {
          "file": "official/soliman-thirteen-native-20260912/maps/borj-cedria-2-retrieval.json",
          "sha256": "0e88a2117532572f612bd0366dec714be6dc845a779c5ea4c92a3c8bcd28e5c0"
        },
        "sourceDrawingIndices": [
          210
        ]
      },
      "geometry": {
        "type": "Polygon",
        "coordinates": [
          [
            [
              10.404407363233622,
              36.70013698067049
            ],
            [
              10.401914997353746,
              36.701603585685895
            ],
            [
              10.394375676510943,
              36.7045103730126
            ],
            [
              10.380782966186818,
              36.70937533356784
            ],
            [
              10.379670607222673,
              36.70978278822765
            ],
            [
              10.379618387155169,
              36.7097974843096
            ],
            [
              10.38001411594076,
              36.71041279920538
            ],
            [
              10.383429530446486,
              36.716572193204904
            ],
            [
              10.383824326234214,
              36.71713114834912
            ],
            [
              10.383860807560733,
              36.71721525727912
            ],
            [
              10.38397025164142,
              36.71746758279544
            ],
            [
              10.384005233647756,
              36.71746717413859
            ],
            [
              10.384039967312795,
              36.71745267919763
            ],
            [
              10.384057457941386,
              36.71745247486464
            ],
            [
              10.38410993205072,
              36.717451861824294
            ],
            [
              10.384144664946753,
              36.717437366861965
            ],
            [
              10.38417964767834,
              36.71743695814546
            ],
            [
              10.38421438055399,
              36.717422463163174
            ],
            [
              10.384249363277787,
              36.71742205442634
            ],
            [
              10.38428434600088,
              36.717421645679224
            ],
            [
              10.384336570206798,
              36.71740694628445
            ],
            [
              10.384388794392159,
              36.717392246867135
            ],
            [
              10.384441267711628,
              36.71739163369023
            ],
            [
              10.384476000515496,
              36.71737713863292
            ],
            [
              10.384528474564284,
              36.71737652540912
            ],
            [
              10.384580698689929,
              36.71736182590872
            ],
            [
              10.384615430711497,
              36.717347330820125
            ],
            [
              10.384632922795014,
              36.71734712638576
            ],
            [
              10.384667654799742,
              36.71733263128225
            ],
            [
              10.384702637476089,
              36.717332222413056
            ],
            [
              10.38473737020197,
              36.71731772728089
            ],
            [
              10.384789844204539,
              36.71731711394273
            ],
            [
              10.384824576906492,
              36.717302618785595
            ],
            [
              10.384877050896845,
              36.71730200540919
            ],
            [
              10.384912033556201,
              36.717301596478755
            ],
            [
              10.38496450680238,
              36.71730098307249
            ],
            [
              10.384999489459977,
              36.717300574116365
            ],
            [
              10.38505196344505,
              36.71729996066289
            ],
            [
              10.385086946100886,
              36.717299551681066
            ],
            [
              10.385121928756016,
              36.71729914268896
            ],
            [
              10.385156661405624,
              36.71728464863027
            ],
            [
              10.385191644052965,
              36.71728423961781
            ],
            [
              10.385226625958065,
              36.71728383060376
            ],
            [
              10.385261359300543,
              36.71726933531242
            ],
            [
              10.38531383251701,
              36.717268721752625
            ],
            [
              10.385348565094025,
              36.717254226444936
            ],
            [
              10.385366056409465,
              36.71725402191194
            ],
            [
              10.385418280281359,
              36.71723932204873
            ],
            [
              10.385819078783783,
              36.717150099435166
            ],
            [
              10.385958257831334,
              36.71710620382111
            ],
            [
              10.386062705113599,
              36.71707680356057
            ],
            [
              10.386202385053117,
              36.71706108014733
            ],
            [
              10.38635955544965,
              36.71704515190198
            ],
            [
              10.386446760749829,
              36.71703004223897
            ],
            [
              10.386568448697753,
              36.71698635060426
            ],
            [
              10.386620922434197,
              36.71698573646362
            ],
            [
              10.386655654627459,
              36.71697124078158
            ],
            [
              10.386690637110453,
              36.71697083133158
            ],
            [
              10.386725369283328,
              36.716956335629575
            ],
            [
              10.386760351017,
              36.71695592616791
            ],
            [
              10.386812824728478,
              36.716955311943124
            ],
            [
              10.386847556870338,
              36.71694081620604
            ],
            [
              10.386882539336687,
              36.71694040669993
            ],
            [
              10.386952504267274,
              36.716939587656896
            ],
            [
              10.387004977963361,
              36.71693897334763
            ],
            [
              10.387039710060026,
              36.716924477555345
            ],
            [
              10.387092183002364,
              36.71692386321653
            ],
            [
              10.387127165457397,
              36.716923453638685
            ],
            [
              10.387162147911722,
              36.71692304405057
            ],
            [
              10.387196879991505,
              36.71690854940711
            ],
            [
              10.387249353661039,
              36.71690793499056
            ],
            [
              10.387284336106514,
              36.71690752536668
            ],
            [
              10.387319067371301,
              36.71689302830892
            ],
            [
              10.387371541027559,
              36.716892413838735
            ],
            [
              10.387406273052397,
              36.71687791913517
            ],
            [
              10.387458746696437,
              36.71687730462676
            ],
            [
              10.387755094588854,
              36.716817477040834
            ],
            [
              10.388260835005502,
              36.71672701695656
            ],
            [
              10.388609905021475,
              36.716680658624
            ],
            [
              10.388801554986236,
              36.71663614469667
            ],
            [
              10.388993957622974,
              36.716633889143516
            ],
            [
              10.389168116835764,
              36.7165895796868
            ],
            [
              10.389342525882876,
              36.716559356214916
            ],
            [
              10.389534676723823,
              36.716543013574096
            ],
            [
              10.389778549001507,
              36.71648379760964
            ],
            [
              10.389918226208898,
              36.716468068686375
            ],
            [
              10.390127867768957,
              36.716451519894164
            ],
            [
              10.390546648579546,
              36.716390248766636
            ],
            [
              10.39166331120331,
              36.71622215773108
            ],
            [
              10.392222268819538,
              36.71617332325076
            ],
            [
              10.39248413138355,
              36.716142067494296
            ],
            [
              10.392641299087622,
              36.71612613100758
            ],
            [
              10.392972872351823,
              36.71607996558097
            ],
            [
              10.39313003980774,
              36.716064028453374
            ],
            [
              10.39339215160414,
              36.716046856935904
            ],
            [
              10.393741719626679,
              36.716028656062406
            ],
            [
              10.393863904845105,
              36.716013129483954
            ],
            [
              10.3939511080772,
              36.715998014365724
            ],
            [
              10.394020568699458,
              36.715969019978864
            ],
            [
              10.394160494888018,
              36.71596737351535
            ],
            [
              10.394387877330178,
              36.71596469763311
            ],
            [
              10.39452755322606,
              36.71594896332898
            ],
            [
              10.39482489788999,
              36.715945463113115
            ],
            [
              10.394964573687957,
              36.715929730686476
            ],
            [
              10.395103997551608,
              36.71589990951488
            ],
            [
              10.395313887286655,
              36.71589743784289
            ],
            [
              10.39555825651792,
              36.71586638135436
            ],
            [
              10.395802876031082,
              36.715849411769675
            ],
            [
              10.396169681249367,
              36.71581691154277
            ],
            [
              10.396361575639936,
              36.71578647176693
            ],
            [
              10.396571214340613,
              36.71576991168078
            ],
            [
              10.39690354132255,
              36.71576599391733
            ],
            [
              10.397113178337108,
              36.715749432897425
            ],
            [
              10.39744474838852,
              36.7157032550807
            ],
            [
              10.39746223926226,
              36.71570304877771
            ],
            [
              10.397724348558219,
              36.715685867762986
            ],
            [
              10.3980214409252,
              36.71566827338843
            ],
            [
              10.39835376578022,
              36.71566435160305
            ],
            [
              10.398510931047834,
              36.71564840740878
            ],
            [
              10.398685587092322,
              36.715632256525865
            ],
            [
              10.398860241572356,
              36.7156161054056
            ],
            [
              10.399070131681325,
              36.71561362710939
            ],
            [
              10.39943743782738,
              36.715609289218385
            ],
            [
              10.399717038537677,
              36.71559189721742
            ],
            [
              10.399926674313887,
              36.71557533126327
            ],
            [
              10.40004885736425,
              36.71555979837447
            ],
            [
              10.400153802291925,
              36.71555855822635
            ],
            [
              10.400328204930839,
              36.71552831877958
            ],
            [
              10.400537840368145,
              36.715511751754995
            ],
            [
              10.400835184065782,
              36.71550823654427
            ],
            [
              10.40102732999451,
              36.71549187544079
            ],
            [
              10.401219221406857,
              36.71546142788757
            ],
            [
              10.40149907403589,
              36.715458117876494
            ],
            [
              10.401691219664132,
              36.71544175570651
            ],
            [
              10.401848635218546,
              36.71543989330042
            ],
            [
              10.401953326826693,
              36.7154245654147
            ],
            [
              10.401988308380085,
              36.715424151483916
            ],
            [
              10.402040527639054,
              36.715409445608536
            ],
            [
              10.402092999956633,
              36.71540882467027
            ],
            [
              10.402145219140943,
              36.715394116361665
            ],
            [
              10.402180200677652,
              36.715393702374776
            ],
            [
              10.40223267298138,
              36.71539308137516
            ],
            [
              10.402284890686373,
              36.715378375411476
            ],
            [
              10.40233736297732,
              36.71537775436594
            ],
            [
              10.402389835266664,
              36.71537713329728
            ],
            [
              10.402459798316627,
              36.715376305169784
            ],
            [
              10.402512270602228,
              36.71537568404718
            ],
            [
              10.402564742886225,
              36.71537506290146
            ],
            [
              10.402599724407999,
              36.71537464879146
            ],
            [
              10.402634705929062,
              36.71537423467121
            ],
            [
              10.402687178209312,
              36.715373613471534
            ],
            [
              10.40272215972859,
              36.71537319932557
            ],
            [
              10.402757141247156,
              36.71537278516933
            ],
            [
              10.402774632006173,
              36.71537257808737
            ],
            [
              10.402827104282146,
              36.715371956826054
            ],
            [
              10.402862085798573,
              36.71537154263899
            ],
            [
              10.402914304821598,
              36.715356835190384
            ],
            [
              10.402966777083721,
              36.71535621386772
            ],
            [
              10.403001758590912,
              36.71535579963977
            ],
            [
              10.403054230850358,
              36.715355178278564
            ],
            [
              10.403089212355768,
              36.71535476402492
            ],
            [
              10.403141431320957,
              36.71534005647778
            ],
            [
              10.403193903566553,
              36.71533943505524
            ],
            [
              10.403228885062726,
              36.71533902076071
            ],
            [
              10.403263863592143,
              36.715338606491024
            ],
            [
              10.403316082510674,
              36.71532389886813
            ],
            [
              10.403386045484547,
              36.71532307019727
            ],
            [
              10.403455755085417,
              36.715308154145774
            ],
            [
              10.403508227302234,
              36.71530753258514
            ],
            [
              10.403542955436244,
              36.71529303324738
            ],
            [
              10.403577936906135,
              36.7152926188507
            ],
            [
              10.403612918375313,
              36.71529220444377
            ],
            [
              10.40366539057774,
              36.71529158281409
            ],
            [
              10.403700118652138,
              36.71527708223726
            ],
            [
              10.403735100112435,
              36.715276667794555
            ],
            [
              10.403787572301542,
              36.71527604611125
            ],
            [
              10.403840044489046,
              36.715275424404815
            ],
            [
              10.403874772521759,
              36.71526092377783
            ],
            [
              10.403909753972105,
              36.71526050928397
            ],
            [
              10.403962226146286,
              36.715259887523885
            ],
            [
              10.403997207594847,
              36.71525947300432
            ],
            [
              10.404032189042697,
              36.715259058474494
            ],
            [
              10.404084661213133,
              36.71525843666049
            ],
            [
              10.404119642659197,
              36.71525802210496
            ],
            [
              10.404189605549185,
              36.715257192963094
            ],
            [
              10.404224586993108,
              36.71525677837674
            ],
            [
              10.404277059157655,
              36.71525615647795
            ],
            [
              10.404312040599795,
              36.71525574186591
            ],
            [
              10.404347022041218,
              36.715255327243604
            ],
            [
              10.404399240681727,
              36.715240619150784
            ],
            [
              10.404451712831344,
              36.71523999717524
            ],
            [
              10.404486691297494,
              36.715239582547184
            ],
            [
              10.404521419186516,
              36.715225081734324
            ],
            [
              10.404556400610891,
              36.71522466705079
            ],
            [
              10.404591382034555,
              36.71522425235696
            ],
            [
              10.404643600604098,
              36.71520954415829
            ],
            [
              10.40469607272707,
              36.71520892207547
            ],
            [
              10.404748291264855,
              36.71519421383145
            ],
            [
              10.404783019082037,
              36.71517971294362
            ],
            [
              10.404835237582395,
              36.71516500466215
            ],
            [
              10.404887709670758,
              36.71516438249552
            ],
            [
              10.404939928139356,
              36.71514967416872
            ],
            [
              10.404974909523252,
              36.71514925936291
            ],
            [
              10.405009890906433,
              36.71514884454683
            ],
            [
              10.4050448722889,
              36.71514842972047
            ],
            [
              10.405079853670655,
              36.71514801488384
            ],
            [
              10.405114835051691,
              36.71514760003693
            ],
            [
              10.40562155751178,
              36.71511341133597
            ],
            [
              10.406110785818841,
              36.71507942809512
            ],
            [
              10.406163257820218,
              36.715078805367455
            ],
            [
              10.406180748486985,
              36.715078597786444
            ],
            [
              10.406233220486222,
              36.71507797502797
            ],
            [
              10.406285692483845,
              36.715077352246354
            ],
            [
              10.406320673814703,
              36.71507693704577
            ],
            [
              10.406390382592134,
              36.715062020485284
            ],
            [
              10.406425363914463,
              36.71506160525408
            ],
            [
              10.406460345236077,
              36.7150611900126
            ],
            [
              10.406495072655868,
              36.715046688632945
            ],
            [
              10.40653005396967,
              36.71504627337113
            ],
            [
              10.406582525939033,
              36.71504565045914
            ],
            [
              10.406634997906789,
              36.71504502752402
            ],
            [
              10.406687215936898,
              36.715030318439
            ],
            [
              10.406739684925837,
              36.715029695493186
            ],
            [
              10.40680964752995,
              36.71502886481584
            ],
            [
              10.40686211948116,
              36.715028241780864
            ],
            [
              10.40691459143076,
              36.71502761872275
            ],
            [
              10.4069495727296,
              36.71502720333784
            ],
            [
              10.407002044676517,
              36.71502658024121
            ],
            [
              10.407054516621825,
              36.715025957121455
            ],
            [
              10.407106988565527,
              36.71502533397857
            ],
            [
              10.407561999439094,
              36.71503401856006
            ],
            [
              10.407596726629107,
              36.715019516863514
            ],
            [
              10.408576199369477,
              36.71500787662658
            ],
            [
              10.408960993243426,
              36.7150033014584
            ],
            [
              10.409398255938061,
              36.71499810092972
            ],
            [
              10.409503199679966,
              36.71499685255546
            ],
            [
              10.4095556715485,
              36.714996228333646
            ],
            [
              10.409608143415419,
              36.71499560408872
            ],
            [
              10.409660615280728,
              36.71499497982068
            ],
            [
              10.409695342038633,
              36.71498047752038
            ],
            [
              10.409730323274177,
              36.71498006131877
            ],
            [
              10.409782795126151,
              36.71497943699709
            ],
            [
              10.409817776359905,
              36.714979020769796
            ],
            [
              10.409835521486778,
              36.71499289876021
            ],
            [
              10.409887993345102,
              36.71499227439197
            ],
            [
              10.409922974583086,
              36.71499185813363
            ],
            [
              10.409975700974696,
              36.71500531983389
            ],
            [
              10.410028427384017,
              36.71501878151037
            ],
            [
              10.410063408631899,
              36.71501836521051
            ],
            [
              10.410098389879066,
              36.715017948900375
            ],
            [
              10.410133371125516,
              36.71501753257997
            ],
            [
              10.41016835237125,
              36.71501711624929
            ],
            [
              10.410203333616264,
              36.715016699908325
            ],
            [
              10.410273550694725,
              36.71502995330076
            ],
            [
              10.410465944590698,
              36.71502766316293
            ],
            [
              10.410500925836002,
              36.71502724673441
            ],
            [
              10.41053590708059,
              36.71502683029563
            ],
            [
              10.410570888324461,
              36.715026413846566
            ],
            [
              10.410606124219004,
              36.71504008349036
            ],
            [
              10.410641105467825,
              36.71503966702054
            ],
            [
              10.410676086715926,
              36.71503925054044
            ],
            [
              10.410728558586733,
              36.71503862580102
            ],
            [
              10.410781030455931,
              36.71503800103847
            ],
            [
              10.410833757016563,
              36.715051462354566
            ],
            [
              10.410886228892105,
              36.715050837545476
            ],
            [
              10.410921464850757,
              36.71506450709441
            ],
            [
              10.410956446105885,
              36.71506409053169
            ],
            [
              10.410991427360297,
              36.71506367395868
            ],
            [
              10.411061644601864,
              36.71507692688216
            ],
            [
              10.411096625860507,
              36.71507651027812
            ],
            [
              10.411131607118435,
              36.7150760936638
            ],
            [
              10.41116684312986,
              36.71508976313885
            ],
            [
              10.411201824392734,
              36.715089346503774
            ],
            [
              10.41123680565489,
              36.71508892985842
            ],
            [
              10.411272041689871,
              36.71510259930176
            ],
            [
              10.411307022956976,
              36.71510218263565
            ],
            [
              10.41181552264835,
              36.71516657033561
            ],
            [
              10.411850758816165,
              36.71518023960445
            ],
            [
              10.411903230756234,
              36.71517961434521
            ],
            [
              10.411938212048716,
              36.715179197492866
            ],
            [
              10.411973448242916,
              36.715192866724756
            ],
            [
              10.412025920188789,
              36.71519224141127
            ],
            [
              10.412043410837056,
              36.7151920329683
            ],
            [
              10.412078647033203,
              36.71520570097455
            ],
            [
              10.412131373938543,
              36.71521916290192
            ],
            [
              10.412166355245507,
              36.71521874598215
            ],
            [
              10.412218827204605,
              36.715218120583245
            ],
            [
              10.412271554119311,
              36.71523158125383
            ],
            [
              10.412289044774637,
              36.71523137277458
            ],
            [
              10.412341771709707,
              36.71524483341357
            ],
            [
              10.412394498662483,
              36.71525829402877
            ],
            [
              10.41246446130322,
              36.71525746002358
            ],
            [
              10.412499697600136,
              36.71527112790275
            ],
            [
              10.4125521695873,
              36.715270502356155
            ],
            [
              10.412587660942105,
              36.71529825749336
            ],
            [
              10.41262289730014,
              36.71531192652904
            ],
            [
              10.412675621378092,
              36.71532538705286
            ],
            [
              10.41271086072944,
              36.715339056026465
            ],
            [
              10.412746097126984,
              36.715352725024715
            ],
            [
              10.412798821252757,
              36.715366185492805
            ],
            [
              10.412956747550426,
              36.71539248056015
            ],
            [
              10.413009219609748,
              36.715391854810335
            ],
            [
              10.41304445608168,
              36.715405523718466
            ],
            [
              10.413096928147883,
              36.715404897929794
            ],
            [
              10.413132164640535,
              36.71541856681147
            ],
            [
              10.413167146022769,
              36.71541814959569
            ],
            [
              10.413342818387367,
              36.71545832161953
            ],
            [
              10.413729400296456,
              36.71555233357755
            ],
            [
              10.41376463696323,
              36.71556600226776
            ],
            [
              10.413799873642226,
              36.71557967094722
            ],
            [
              10.413835110333446,
              36.715593339615964
            ],
            [
              10.413870347036893,
              36.71560700827397
            ],
            [
              10.413923074483735,
              36.71562046820002
            ],
            [
              10.413958308248422,
              36.71563413686671
            ],
            [
              10.41399328971589,
              36.715633719406085
            ],
            [
              10.414028271182637,
              36.71563330193516
            ],
            [
              10.414063507915278,
              36.71564696934082
            ],
            [
              10.414115980122547,
              36.71564634309946
            ],
            [
              10.414151216919187,
              36.715660012866536
            ],
            [
              10.414186198395464,
              36.71565959534897
            ],
            [
              10.41422143516671,
              36.71567326270693
            ],
            [
              10.414256416647934,
              36.7156728451686
            ],
            [
              10.414309144201882,
              36.71568630492103
            ],
            [
              10.414326890303348,
              36.71570018341318
            ],
            [
              10.414344381049354,
              36.71569997462967
            ],
            [
              10.414379617865764,
              36.71571364193971
            ],
            [
              10.41439736398602,
              36.715727520420884
            ],
            [
              10.414414854737688,
              36.71572731162691
            ],
            [
              10.414450091578548,
              36.71574097891547
            ],
            [
              10.414467837695945,
              36.71575485619174
            ],
            [
              10.414485328453276,
              36.71575464738726
            ],
            [
              10.414503074580065,
              36.71576852465803
            ],
            [
              10.414520820713232,
              36.71578240192597
            ],
            [
              10.41455605761897,
              36.71579607037605
            ],
            [
              10.414573548384979,
              36.71579586155841
            ],
            [
              10.414591039150805,
              36.71579565273821
            ],
            [
              10.414608785305772,
              36.715809529992505
            ],
            [
              10.414626276074431,
              36.71580932116705
            ],
            [
              10.414661513010282,
              36.71582298958517
            ],
            [
              10.414679003781593,
              36.71582278075189
            ],
            [
              10.414696749958354,
              36.715836657992554
            ],
            [
              10.4147142407325,
              36.71583644915404
            ],
            [
              10.414731986918653,
              36.7158503263892
            ],
            [
              10.415224536168733,
              36.71599942463227
            ],
            [
              10.415453449920008,
              36.71608122494133
            ],
            [
              10.415488431567535,
              36.716080807036995
            ],
            [
              10.415523668751694,
              36.71609447399933
            ],
            [
              10.415541415162062,
              36.71610835230272
            ],
            [
              10.415576652367838,
              36.716122019248814
            ],
            [
              10.415594143200005,
              36.716121810279645
            ],
            [
              10.415629380442498,
              36.71613547840371
            ],
            [
              10.415646871277316,
              36.71613526942672
            ],
            [
              10.41603499309132,
              36.71631379015983
            ],
            [
              10.416119890776333,
              36.7161718854722
            ],
            [
              10.416687720693295,
              36.714685743119944
            ],
            [
              10.416669207175463,
              36.714629607973684
            ],
            [
              10.41659592060368,
              36.714447325553834
            ],
            [
              10.416486886451032,
              36.71422320425246
            ],
            [
              10.416358828433424,
              36.71391477428449
            ],
            [
              10.416267286042522,
              36.7136904436591
            ],
            [
              10.41619272606016,
              36.71343773052381
            ],
            [
              10.416152632679223,
              36.713156428330706
            ],
            [
              10.416265856860848,
              36.712647867570325
            ],
            [
              10.416601592991439,
              36.71186895436293
            ],
            [
              10.415439344206101,
              36.71144608185289
            ],
            [
              10.414858864432896,
              36.71126985582869
            ],
            [
              10.414191446311904,
              36.71112284405388
            ],
            [
              10.41313849530466,
              36.7109381584464
            ],
            [
              10.413050281746155,
              36.710896943043146
            ],
            [
              10.412817815766852,
              36.71061793345171
            ],
            [
              10.41176070488547,
              36.70923571144141
            ],
            [
              10.411260054652434,
              36.708635843180645
            ],
            [
              10.410332800002314,
              36.70766064629027
            ],
            [
              10.410454458990976,
              36.70761692957214
            ],
            [
              10.410626038827983,
              36.707431729324014
            ],
            [
              10.41066050744707,
              36.70740314067992
            ],
            [
              10.410813324368759,
              36.7071477165792
            ],
            [
              10.410892875086128,
              36.70671000807273
            ],
            [
              10.410815791042351,
              36.70631642957229
            ],
            [
              10.410595744659842,
              36.705755485448925
            ],
            [
              10.410201584040708,
              36.70523887933851
            ],
            [
              10.409757759337335,
              36.704877843443654
            ],
            [
              10.409457914268595,
              36.704740518728734
            ],
            [
              10.409387452404872,
              36.70471317849459
            ],
            [
              10.408999658767552,
              36.704548720302164
            ],
            [
              10.408403790062328,
              36.70448535823407
            ],
            [
              10.407932877594895,
              36.70456140018493
            ],
            [
              10.407550678543007,
              36.70470683235285
            ],
            [
              10.407195071961823,
              36.70438700509693
            ],
            [
              10.407070115262325,
              36.70424759848892
            ],
            [
              10.406570292954779,
              36.703689967034855
            ],
            [
              10.406410111593503,
              36.70353688744843
            ],
            [
              10.406089237464219,
              36.70320255771806
            ],
            [
              10.40607149577455,
              36.70318867907005
            ],
            [
              10.405928547742096,
              36.703021305145576
            ],
            [
              10.405304808649573,
              36.70238060442467
            ],
            [
              10.404636217684763,
              36.70119095409256
            ],
            [
              10.404407363233622,
              36.70013698067049
            ]
          ]
        ]
      }
    }
  ]
}
