{
  "type": "FeatureCollection",
  "name": "Hadi Shaker OSM-peer clip candidates; not installed",
  "features": [
    {
      "type": "Feature",
      "properties": {
        "id": "osm:relation:7103328",
        "name": "النور",
        "kind": "sector",
        "parentName": "معتمدية نابل",
        "governorateId": 350,
        "delegationId": 468,
        "originalSourceId": "osm",
        "derivedUsingSourceIds": [
          "osm",
          "isie-local-sectors-2023-hammamet-nine-neighbours"
        ],
        "operation": "peer geometry minus 0.1 m buffered pinned osm:relation:7103327 mask",
        "maskFeatureId": "osm:relation:7103327",
        "candidateOnly": true,
        "boundaryAccuracyVerified": false,
        "originalCatalogBinarySliceSha256": "6871434f5cee76f22f5d59ef1be228fb43c7aa60d46640d980945a54d2b39c4a",
        "derivedSourceId": "derived-nabeul-hadi-shaker-osm-isie-mask-20260925"
      },
      "geometry": {
        "type": "Polygon",
        "coordinates": [
          [
            [
              10.70846,
              36.493669
            ],
            [
              10.709525,
              36.492749
            ],
            [
              10.711513,
              36.491125
            ],
            [
              10.71218,
              36.490013
            ],
            [
              10.713866,
              36.489476
            ],
            [
              10.716172,
              36.488019
            ],
            [
              10.716951,
              36.487699
            ],
            [
              10.717205,
              36.487213
            ],
            [
              10.717587,
              36.487252
            ],
            [
              10.717921,
              36.487456
            ],
            [
              10.718096,
              36.48674
            ],
            [
              10.718096,
              36.486408
            ],
            [
              10.718716,
              36.48605
            ],
            [
              10.719352,
              36.485295
            ],
            [
              10.718843,
              36.484861
            ],
            [
              10.719018,
              36.484311
            ],
            [
              10.719686,
              36.48394
            ],
            [
              10.720163,
              36.483723
            ],
            [
              10.720767,
              36.4838
            ],
            [
              10.721514,
              36.483864
            ],
            [
              10.72161,
              36.483595
            ],
            [
              10.721085,
              36.483378
            ],
            [
              10.720926,
              36.482866
            ],
            [
              10.720783,
              36.482534
            ],
            [
              10.721387,
              36.482201
            ],
            [
              10.721419,
              36.481716
            ],
            [
              10.72153,
              36.481434
            ],
            [
              10.721514,
              36.481076
            ],
            [
              10.721435,
              36.480654
            ],
            [
              10.721371,
              36.48045
            ],
            [
              10.721499,
              36.480143
            ],
            [
              10.722126,
              36.479436
            ],
            [
              10.721689,
              36.479644
            ],
            [
              10.721244,
              36.479517
            ],
            [
              10.721101,
              36.479184
            ],
            [
              10.721355,
              36.478864
            ],
            [
              10.721992,
              36.478596
            ],
            [
              10.722166,
              36.478391
            ],
            [
              10.723311,
              36.476831
            ],
            [
              10.723741,
              36.476448
            ],
            [
              10.72444,
              36.476256
            ],
            [
              10.725219,
              36.475949
            ],
            [
              10.725569,
              36.475898
            ],
            [
              10.725856,
              36.475553
            ],
            [
              10.725887,
              36.475067
            ],
            [
              10.725951,
              36.474581
            ],
            [
              10.726189,
              36.474313
            ],
            [
              10.726619,
              36.473955
            ],
            [
              10.726778,
              36.473648
            ],
            [
              10.726826,
              36.473123
            ],
            [
              10.726953,
              36.472663
            ],
            [
              10.727573,
              36.471742
            ],
            [
              10.728193,
              36.471499
            ],
            [
              10.728893,
              36.471295
            ],
            [
              10.729354,
              36.471116
            ],
            [
              10.72991,
              36.470694
            ],
            [
              10.730531,
              36.470502
            ],
            [
              10.73123,
              36.470438
            ],
            [
              10.732582,
              36.470195
            ],
            [
              10.733122,
              36.470029
            ],
            [
              10.733504,
              36.46962
            ],
            [
              10.733584,
              36.469338
            ],
            [
              10.73387,
              36.469095
            ],
            [
              10.734315,
              36.468558
            ],
            [
              10.735015,
              36.468111
            ],
            [
              10.735839,
              36.467699
            ],
            [
              10.736232,
              36.467321
            ],
            [
              10.736456,
              36.466962
            ],
            [
              10.736523,
              36.466667
            ],
            [
              10.736702,
              36.466171
            ],
            [
              10.737267,
              36.465727
            ],
            [
              10.737472,
              36.465522
            ],
            [
              10.737901,
              36.465547
            ],
            [
              10.73819,
              36.465451
            ],
            [
              10.738485,
              36.465068
            ],
            [
              10.738653,
              36.464813
            ],
            [
              10.739082,
              36.464168
            ],
            [
              10.739315,
              36.463655
            ],
            [
              10.739528,
              36.463213
            ],
            [
              10.739603,
              36.462794
            ],
            [
              10.739784,
              36.462467
            ],
            [
              10.740054,
              36.46234
            ],
            [
              10.740405,
              36.462366
            ],
            [
              10.740514,
              36.462341
            ],
            [
              10.740866,
              36.461955
            ],
            [
              10.741145,
              36.461565
            ],
            [
              10.741507,
              36.460616
            ],
            [
              10.741961,
              36.459683
            ],
            [
              10.743059,
              36.458114
            ],
            [
              10.741077,
              36.457263
            ],
            [
              10.738109,
              36.456482
            ],
            [
              10.737657,
              36.457497
            ],
            [
              10.737161,
              36.458203
            ],
            [
              10.73683,
              36.458691
            ],
            [
              10.736016,
              36.459886
            ],
            [
              10.73551,
              36.460546
            ],
            [
              10.735077,
              36.460996
            ],
            [
              10.734535,
              36.461663
            ],
            [
              10.734426,
              36.461797
            ],
            [
              10.73397,
              36.462583
            ],
            [
              10.733694,
              36.463059
            ],
            [
              10.733363,
              36.463567
            ],
            [
              10.731136,
              36.462501
            ],
            [
              10.730865,
              36.462361
            ],
            [
              10.730031,
              36.461876
            ],
            [
              10.729746,
              36.461679
            ],
            [
              10.729493,
              36.461471
            ],
            [
              10.729339,
              36.461298
            ],
            [
              10.729242,
              36.461148
            ],
            [
              10.728548,
              36.459629
            ],
            [
              10.727962,
              36.45916
            ],
            [
              10.725608,
              36.460638
            ],
            [
              10.724095,
              36.461515
            ],
            [
              10.722027,
              36.46287
            ],
            [
              10.721166,
              36.463463
            ],
            [
              10.720676,
              36.4638
            ],
            [
              10.714766,
              36.467873
            ],
            [
              10.708353,
              36.471961
            ],
            [
              10.70684,
              36.47325
            ],
            [
              10.706002,
              36.474745
            ],
            [
              10.704727,
              36.477631
            ],
            [
              10.703986,
              36.479227
            ],
            [
              10.704031,
              36.479261
            ],
            [
              10.705607,
              36.480094
            ],
            [
              10.706366,
              36.480636
            ],
            [
              10.70719,
              36.481328
            ],
            [
              10.707252,
              36.481328
            ],
            [
              10.707253,
              36.481328
            ],
            [
              10.70776,
              36.481723
            ],
            [
              10.707947,
              36.48177
            ],
            [
              10.708196,
              36.481767
            ],
            [
              10.708384,
              36.481814
            ],
            [
              10.708385,
              36.481814
            ],
            [
              10.708574,
              36.481912
            ],
            [
              10.708574,
              36.481913
            ],
            [
              10.708766,
              36.482161
            ],
            [
              10.709019,
              36.482358
            ],
            [
              10.709336,
              36.482605
            ],
            [
              10.709904,
              36.482949
            ],
            [
              10.709904,
              36.48295
            ],
            [
              10.709906,
              36.483001
            ],
            [
              10.710096,
              36.483148
            ],
            [
              10.710285,
              36.483246
            ],
            [
              10.710412,
              36.483395
            ],
            [
              10.710793,
              36.483691
            ],
            [
              10.711047,
              36.483939
            ],
            [
              10.711238,
              36.484137
            ],
            [
              10.711492,
              36.484335
            ],
            [
              10.71162,
              36.484484
            ],
            [
              10.71187,
              36.484581
            ],
            [
              10.711871,
              36.484581
            ],
            [
              10.712061,
              36.484729
            ],
            [
              10.71225,
              36.484827
            ],
            [
              10.712439,
              36.484925
            ],
            [
              10.712564,
              36.484973
            ],
            [
              10.712565,
              36.484973
            ],
            [
              10.712693,
              36.485122
            ],
            [
              10.71288,
              36.48517
            ],
            [
              10.713067,
              36.485217
            ],
            [
              10.713068,
              36.485217
            ],
            [
              10.713131,
              36.485267
            ],
            [
              10.713497,
              36.48496
            ],
            [
              10.713498,
              36.48496
            ],
            [
              10.713499,
              36.48496
            ],
            [
              10.716265,
              36.486127
            ],
            [
              10.716265,
              36.486128
            ],
            [
              10.716265,
              36.486129
            ],
            [
              10.711198,
              36.490779
            ],
            [
              10.706687,
              36.494456
            ],
            [
              10.706949,
              36.4945
            ],
            [
              10.70846,
              36.493669
            ]
          ]
        ]
      }
    },
    {
      "type": "Feature",
      "properties": {
        "id": "osm:relation:7103329",
        "name": "بئر شلّوف",
        "kind": "sector",
        "parentName": "معتمدية نابل",
        "governorateId": 350,
        "delegationId": 623,
        "originalSourceId": "osm",
        "derivedUsingSourceIds": [
          "osm",
          "isie-local-sectors-2023-hammamet-nine-neighbours"
        ],
        "operation": "peer geometry minus 0.1 m buffered pinned osm:relation:7103327 mask",
        "maskFeatureId": "osm:relation:7103327",
        "candidateOnly": true,
        "boundaryAccuracyVerified": false,
        "originalCatalogBinarySliceSha256": "c61d2b7db288dcb639d070d76d24debef35292dccc193ae8965a500c482f04f6",
        "derivedSourceId": "derived-nabeul-hadi-shaker-osm-isie-mask-20260925"
      },
      "geometry": {
        "type": "Polygon",
        "coordinates": [
          [
            [
              10.676152,
              36.449331
            ],
            [
              10.676776,
              36.449544
            ],
            [
              10.677559,
              36.449855
            ],
            [
              10.678962,
              36.450463
            ],
            [
              10.680024,
              36.451016
            ],
            [
              10.680871,
              36.451452
            ],
            [
              10.680388,
              36.451881
            ],
            [
              10.679709,
              36.452112
            ],
            [
              10.681395,
              36.453123
            ],
            [
              10.682643,
              36.453959
            ],
            [
              10.683918,
              36.454332
            ],
            [
              10.684638,
              36.454743
            ],
            [
              10.684738,
              36.455593
            ],
            [
              10.68483,
              36.455732
            ],
            [
              10.685003,
              36.455813
            ],
            [
              10.685194,
              36.455981
            ],
            [
              10.685012,
              36.456238
            ],
            [
              10.684328,
              36.456296
            ],
            [
              10.6839,
              36.456303
            ],
            [
              10.683618,
              36.456553
            ],
            [
              10.683518,
              36.457117
            ],
            [
              10.683855,
              36.457578
            ],
            [
              10.684274,
              36.457901
            ],
            [
              10.684392,
              36.45826
            ],
            [
              10.68441,
              36.458956
            ],
            [
              10.684684,
              36.45933
            ],
            [
              10.685777,
              36.459315
            ],
            [
              10.686278,
              36.459161
            ],
            [
              10.689622,
              36.460905
            ],
            [
              10.689139,
              36.461169
            ],
            [
              10.691216,
              36.462693
            ],
            [
              10.691261,
              36.463023
            ],
            [
              10.69291,
              36.4641
            ],
            [
              10.694186,
              36.464371
            ],
            [
              10.696427,
              36.46473
            ],
            [
              10.696427,
              36.465565
            ],
            [
              10.69455,
              36.466613
            ],
            [
              10.693616,
              36.467571
            ],
            [
              10.694697,
              36.468179
            ],
            [
              10.694697,
              36.46818
            ],
            [
              10.69429,
              36.468718
            ],
            [
              10.694636,
              36.468943
            ],
            [
              10.69566,
              36.469473
            ],
            [
              10.696164,
              36.469767
            ],
            [
              10.696982,
              36.470208
            ],
            [
              10.697232,
              36.470255
            ],
            [
              10.697417,
              36.470202
            ],
            [
              10.697784,
              36.469895
            ],
            [
              10.697785,
              36.469895
            ],
            [
              10.697786,
              36.469895
            ],
            [
              10.698227,
              36.47019
            ],
            [
              10.699393,
              36.469419
            ],
            [
              10.699394,
              36.469419
            ],
            [
              10.699395,
              36.469419
            ],
            [
              10.699395,
              36.46942
            ],
            [
              10.69946,
              36.46957
            ],
            [
              10.69965,
              36.469718
            ],
            [
              10.699903,
              36.469865
            ],
            [
              10.700155,
              36.470012
            ],
            [
              10.700471,
              36.470209
            ],
            [
              10.700974,
              36.470453
            ],
            [
              10.700974,
              36.470454
            ],
            [
              10.700974,
              36.470455
            ],
            [
              10.700234,
              36.470767
            ],
            [
              10.700233,
              36.470767
            ],
            [
              10.699923,
              36.470822
            ],
            [
              10.69965,
              36.471166
            ],
            [
              10.699871,
              36.471976
            ],
            [
              10.699494,
              36.472131
            ],
            [
              10.699583,
              36.472335
            ],
            [
              10.700219,
              36.472928
            ],
            [
              10.700849,
              36.473271
            ],
            [
              10.701232,
              36.473719
            ],
            [
              10.701232,
              36.47372
            ],
            [
              10.701428,
              36.474118
            ],
            [
              10.701681,
              36.474316
            ],
            [
              10.701935,
              36.474513
            ],
            [
              10.70219,
              36.474811
            ],
            [
              10.70219,
              36.474812
            ],
            [
              10.702261,
              36.475214
            ],
            [
              10.702335,
              36.475716
            ],
            [
              10.702224,
              36.476371
            ],
            [
              10.701991,
              36.477079
            ],
            [
              10.701689,
              36.477535
            ],
            [
              10.701388,
              36.477992
            ],
            [
              10.701336,
              36.478446
            ],
            [
              10.701345,
              36.478898
            ],
            [
              10.701543,
              36.479398
            ],
            [
              10.701929,
              36.479946
            ],
            [
              10.702122,
              36.480244
            ],
            [
              10.702752,
              36.480587
            ],
            [
              10.703298,
              36.479976
            ],
            [
              10.703601,
              36.479621
            ],
            [
              10.703903,
              36.479164
            ],
            [
              10.703903,
              36.479163
            ],
            [
              10.703904,
              36.479163
            ],
            [
              10.703905,
              36.479163
            ],
            [
              10.703986,
              36.479227
            ],
            [
              10.704727,
              36.477631
            ],
            [
              10.706002,
              36.474745
            ],
            [
              10.70684,
              36.47325
            ],
            [
              10.708353,
              36.471961
            ],
            [
              10.714766,
              36.467873
            ],
            [
              10.720676,
              36.4638
            ],
            [
              10.721166,
              36.463463
            ],
            [
              10.722027,
              36.46287
            ],
            [
              10.724095,
              36.461515
            ],
            [
              10.725608,
              36.460638
            ],
            [
              10.727962,
              36.45916
            ],
            [
              10.728935,
              36.45848
            ],
            [
              10.730247,
              36.457652
            ],
            [
              10.731827,
              36.456662
            ],
            [
              10.731689,
              36.456624
            ],
            [
              10.7313,
              36.456516
            ],
            [
              10.730793,
              36.456314
            ],
            [
              10.730375,
              36.456116
            ],
            [
              10.729568,
              36.455715
            ],
            [
              10.730308,
              36.454589
            ],
            [
              10.730586,
              36.45415
            ],
            [
              10.731519,
              36.452952
            ],
            [
              10.73085,
              36.452688
            ],
            [
              10.728827,
              36.451889
            ],
            [
              10.726167,
              36.451032
            ],
            [
              10.723871,
              36.450145
            ],
            [
              10.719963,
              36.448005
            ],
            [
              10.718587,
              36.448789
            ],
            [
              10.71712,
              36.45016
            ],
            [
              10.716091,
              36.451171
            ],
            [
              10.715025,
              36.453186
            ],
            [
              10.712975,
              36.452666
            ],
            [
              10.710324,
              36.452717
            ],
            [
              10.703533,
              36.451621
            ],
            [
              10.701547,
              36.450844
            ],
            [
              10.698832,
              36.450346
            ],
            [
              10.696609,
              36.44973
            ],
            [
              10.692983,
              36.448147
            ],
            [
              10.691745,
              36.447589
            ],
            [
              10.689759,
              36.447197
            ],
            [
              10.68247,
              36.443686
            ],
            [
              10.680384,
              36.44214
            ],
            [
              10.678781,
              36.441131
            ],
            [
              10.678124,
              36.441486
            ],
            [
              10.677951,
              36.442365
            ],
            [
              10.67807,
              36.442915
            ],
            [
              10.678079,
              36.443846
            ],
            [
              10.677623,
              36.444285
            ],
            [
              10.676521,
              36.444938
            ],
            [
              10.675929,
              36.445561
            ],
            [
              10.675063,
              36.446352
            ],
            [
              10.674435,
              36.447056
            ],
            [
              10.673937,
              36.4474
            ],
            [
              10.674904,
              36.447836
            ],
            [
              10.675113,
              36.448276
            ],
            [
              10.675933,
              36.448627
            ],
            [
              10.676152,
              36.449331
            ]
          ]
        ]
      }
    },
    {
      "type": "Feature",
      "properties": {
        "id": "osm:relation:7103334",
        "name": "عمرون",
        "kind": "sector",
        "parentName": "معتمدية دار شعبان الفهري",
        "governorateId": 350,
        "delegationId": 468,
        "originalSourceId": "osm",
        "derivedUsingSourceIds": [
          "osm",
          "isie-local-sectors-2023-hammamet-nine-neighbours"
        ],
        "operation": "peer geometry minus 0.1 m buffered pinned osm:relation:7103327 mask",
        "maskFeatureId": "osm:relation:7103327",
        "candidateOnly": true,
        "boundaryAccuracyVerified": false,
        "originalCatalogBinarySliceSha256": "769ddda039d92d67adcf4f3edb8fca8186ff64bf2f51f15e78e5e6baa2821908",
        "derivedSourceId": "derived-nabeul-hadi-shaker-osm-isie-mask-20260925"
      },
      "geometry": {
        "type": "Polygon",
        "coordinates": [
          [
            [
              10.685661,
              36.546501
            ],
            [
              10.687506,
              36.548494
            ],
            [
              10.689255,
              36.551074
            ],
            [
              10.691004,
              36.553527
            ],
            [
              10.691799,
              36.5546
            ],
            [
              10.692817,
              36.555851
            ],
            [
              10.694343,
              36.557001
            ],
            [
              10.694343,
              36.558355
            ],
            [
              10.694861,
              36.559449
            ],
            [
              10.695947,
              36.559776
            ],
            [
              10.697093,
              36.559036
            ],
            [
              10.699188,
              36.558991
            ],
            [
              10.702988,
              36.557061
            ],
            [
              10.705419,
              36.55733
            ],
            [
              10.707375,
              36.555669
            ],
            [
              10.707766,
              36.554726
            ],
            [
              10.708688,
              36.55412
            ],
            [
              10.710952,
              36.552033
            ],
            [
              10.711678,
              36.540652
            ],
            [
              10.712922,
              36.54008
            ],
            [
              10.713704,
              36.539114
            ],
            [
              10.7139,
              36.538778
            ],
            [
              10.713466,
              36.538295
            ],
            [
              10.713886,
              36.537857
            ],
            [
              10.714682,
              36.537128
            ],
            [
              10.715241,
              36.536263
            ],
            [
              10.715408,
              36.53559
            ],
            [
              10.715925,
              36.534849
            ],
            [
              10.716316,
              36.534647
            ],
            [
              10.716987,
              36.535051
            ],
            [
              10.716889,
              36.535399
            ],
            [
              10.71675,
              36.536084
            ],
            [
              10.717197,
              36.536443
            ],
            [
              10.717644,
              36.536364
            ],
            [
              10.718119,
              36.53614
            ],
            [
              10.718887,
              36.535635
            ],
            [
              10.719306,
              36.535567
            ],
            [
              10.72013,
              36.535186
            ],
            [
              10.720941,
              36.53449
            ],
            [
              10.721793,
              36.533996
            ],
            [
              10.722953,
              36.532806
            ],
            [
              10.723623,
              36.532424
            ],
            [
              10.724378,
              36.53239
            ],
            [
              10.725188,
              36.531638
            ],
            [
              10.725733,
              36.530976
            ],
            [
              10.726613,
              36.529909
            ],
            [
              10.726767,
              36.529303
            ],
            [
              10.726822,
              36.528551
            ],
            [
              10.727018,
              36.527911
            ],
            [
              10.727242,
              36.527619
            ],
            [
              10.728275,
              36.527361
            ],
            [
              10.72917,
              36.52708
            ],
            [
              10.729784,
              36.526654
            ],
            [
              10.730259,
              36.525812
            ],
            [
              10.730287,
              36.525576
            ],
            [
              10.731335,
              36.52561
            ],
            [
              10.732006,
              36.525284
            ],
            [
              10.73255,
              36.524869
            ],
            [
              10.732858,
              36.524352
            ],
            [
              10.732956,
              36.523566
            ],
            [
              10.733123,
              36.523084
            ],
            [
              10.734311,
              36.522287
            ],
            [
              10.734884,
              36.521983
            ],
            [
              10.73568,
              36.521635
            ],
            [
              10.735903,
              36.521029
            ],
            [
              10.736267,
              36.520434
            ],
            [
              10.73677,
              36.519715
            ],
            [
              10.737776,
              36.518986
            ],
            [
              10.739075,
              36.518694
            ],
            [
              10.740164,
              36.51829
            ],
            [
              10.741184,
              36.517436
            ],
            [
              10.742428,
              36.516145
            ],
            [
              10.74437,
              36.514225
            ],
            [
              10.746549,
              36.511553
            ],
            [
              10.748561,
              36.509778
            ],
            [
              10.750279,
              36.50943
            ],
            [
              10.752389,
              36.50806
            ],
            [
              10.75461,
              36.507364
            ],
            [
              10.756804,
              36.50669
            ],
            [
              10.758983,
              36.5055
            ],
            [
              10.760548,
              36.504085
            ],
            [
              10.762238,
              36.5023
            ],
            [
              10.7633,
              36.501064
            ],
            [
              10.764571,
              36.499582
            ],
            [
              10.764823,
              36.498829
            ],
            [
              10.764571,
              36.498066
            ],
            [
              10.763803,
              36.495797
            ],
            [
              10.763398,
              36.494135
            ],
            [
              10.763216,
              36.493629
            ],
            [
              10.763342,
              36.493191
            ],
            [
              10.764013,
              36.492574
            ],
            [
              10.763789,
              36.492113
            ],
            [
              10.763314,
              36.491709
            ],
            [
              10.761337,
              36.490518
            ],
            [
              10.760359,
              36.489957
            ],
            [
              10.759898,
              36.48962
            ],
            [
              10.759283,
              36.488609
            ],
            [
              10.759193,
              36.487789
            ],
            [
              10.759465,
              36.487059
            ],
            [
              10.759444,
              36.48529
            ],
            [
              10.759081,
              36.482661
            ],
            [
              10.758913,
              36.48174
            ],
            [
              10.757125,
              36.478797
            ],
            [
              10.755306,
              36.47484
            ],
            [
              10.753793,
              36.475584
            ],
            [
              10.751874,
              36.475695
            ],
            [
              10.750963,
              36.475558
            ],
            [
              10.747083,
              36.474049
            ],
            [
              10.739741,
              36.47058
            ],
            [
              10.738502,
              36.472216
            ],
            [
              10.739848,
              36.472809
            ],
            [
              10.739721,
              36.47309
            ],
            [
              10.740389,
              36.473384
            ],
            [
              10.739832,
              36.474561
            ],
            [
              10.7412,
              36.475136
            ],
            [
              10.739559,
              36.477604
            ],
            [
              10.741184,
              36.478525
            ],
            [
              10.736,
              36.484163
            ],
            [
              10.734966,
              36.484035
            ],
            [
              10.732963,
              36.483063
            ],
            [
              10.731595,
              36.482578
            ],
            [
              10.7315,
              36.481516
            ],
            [
              10.730323,
              36.481606
            ],
            [
              10.729321,
              36.481504
            ],
            [
              10.727636,
              36.480813
            ],
            [
              10.726141,
              36.480596
            ],
            [
              10.724471,
              36.480174
            ],
            [
              10.723183,
              36.479854
            ],
            [
              10.722126,
              36.479436
            ],
            [
              10.721499,
              36.480143
            ],
            [
              10.721371,
              36.48045
            ],
            [
              10.721435,
              36.480654
            ],
            [
              10.721514,
              36.481076
            ],
            [
              10.72153,
              36.481434
            ],
            [
              10.721419,
              36.481716
            ],
            [
              10.721387,
              36.482201
            ],
            [
              10.720783,
              36.482534
            ],
            [
              10.720926,
              36.482866
            ],
            [
              10.721085,
              36.483378
            ],
            [
              10.72161,
              36.483595
            ],
            [
              10.721514,
              36.483864
            ],
            [
              10.720767,
              36.4838
            ],
            [
              10.720163,
              36.483723
            ],
            [
              10.719686,
              36.48394
            ],
            [
              10.719018,
              36.484311
            ],
            [
              10.718843,
              36.484861
            ],
            [
              10.719352,
              36.485295
            ],
            [
              10.718716,
              36.48605
            ],
            [
              10.718096,
              36.486408
            ],
            [
              10.718096,
              36.48674
            ],
            [
              10.717921,
              36.487456
            ],
            [
              10.717587,
              36.487252
            ],
            [
              10.717205,
              36.487213
            ],
            [
              10.716951,
              36.487699
            ],
            [
              10.716172,
              36.488019
            ],
            [
              10.713866,
              36.489476
            ],
            [
              10.71218,
              36.490013
            ],
            [
              10.711513,
              36.491125
            ],
            [
              10.709525,
              36.492749
            ],
            [
              10.70846,
              36.493669
            ],
            [
              10.706949,
              36.4945
            ],
            [
              10.706687,
              36.494456
            ],
            [
              10.706425,
              36.49467
            ],
            [
              10.705203,
              36.495794
            ],
            [
              10.705082,
              36.495945
            ],
            [
              10.705082,
              36.495946
            ],
            [
              10.704839,
              36.496201
            ],
            [
              10.704594,
              36.496406
            ],
            [
              10.70441,
              36.496559
            ],
            [
              10.704164,
              36.496663
            ],
            [
              10.703797,
              36.49697
            ],
            [
              10.703796,
              36.49697
            ],
            [
              10.703611,
              36.497023
            ],
            [
              10.692807,
              36.50437
            ],
            [
              10.692806,
              36.50437
            ],
            [
              10.691929,
              36.504131
            ],
            [
              10.691126,
              36.504394
            ],
            [
              10.691233,
              36.505033
            ],
            [
              10.691507,
              36.505816
            ],
            [
              10.691531,
              36.505844
            ],
            [
              10.691595,
              36.505894
            ],
            [
              10.691595,
              36.505895
            ],
            [
              10.691659,
              36.505993
            ],
            [
              10.691722,
              36.506043
            ],
            [
              10.691722,
              36.506044
            ],
            [
              10.691787,
              36.506143
            ],
            [
              10.691788,
              36.506194
            ],
            [
              10.691854,
              36.506344
            ],
            [
              10.691861,
              36.506696
            ],
            [
              10.691863,
              36.506796
            ],
            [
              10.691864,
              36.506842
            ],
            [
              10.691904,
              36.506956
            ],
            [
              10.69193,
              36.506996
            ],
            [
              10.691923,
              36.507009
            ],
            [
              10.692415,
              36.50842
            ],
            [
              10.692097,
              36.510056
            ],
            [
              10.692956,
              36.511283
            ],
            [
              10.694387,
              36.513379
            ],
            [
              10.693576,
              36.514312
            ],
            [
              10.69321,
              36.514963
            ],
            [
              10.692701,
              36.515475
            ],
            [
              10.691652,
              36.516165
            ],
            [
              10.691366,
              36.516842
            ],
            [
              10.690761,
              36.517149
            ],
            [
              10.690857,
              36.51789
            ],
            [
              10.690332,
              36.518222
            ],
            [
              10.690316,
              36.518567
            ],
            [
              10.68968,
              36.518797
            ],
            [
              10.689505,
              36.519104
            ],
            [
              10.689807,
              36.520561
            ],
            [
              10.689855,
              36.52111
            ],
            [
              10.689601,
              36.521442
            ],
            [
              10.689632,
              36.522248
            ],
            [
              10.690634,
              36.522759
            ],
            [
              10.690523,
              36.523334
            ],
            [
              10.691063,
              36.523985
            ],
            [
              10.69127,
              36.524688
            ],
            [
              10.692654,
              36.525072
            ],
            [
              10.693465,
              36.526567
            ],
            [
              10.69453,
              36.527167
            ],
            [
              10.69348,
              36.528036
            ],
            [
              10.692208,
              36.528611
            ],
            [
              10.69189,
              36.52893
            ],
            [
              10.690793,
              36.530068
            ],
            [
              10.690698,
              36.53086
            ],
            [
              10.691286,
              36.532099
            ],
            [
              10.691286,
              36.532457
            ],
            [
              10.690523,
              36.533415
            ],
            [
              10.688742,
              36.534284
            ],
            [
              10.688281,
              36.534092
            ],
            [
              10.687597,
              36.534041
            ],
            [
              10.685943,
              36.534655
            ],
            [
              10.685132,
              36.535447
            ],
            [
              10.685021,
              36.536213
            ],
            [
              10.68227,
              36.537644
            ],
            [
              10.681443,
              36.537759
            ],
            [
              10.680346,
              36.537683
            ],
            [
              10.678486,
              36.537759
            ],
            [
              10.67653,
              36.538168
            ],
            [
              10.681781,
              36.542719
            ],
            [
              10.683912,
              36.544917
            ],
            [
              10.684961,
              36.545709
            ],
            [
              10.685661,
              36.546501
            ]
          ]
        ]
      }
    },
    {
      "type": "Feature",
      "properties": {
        "id": "osm:relation:7103337",
        "name": "الفرينين",
        "kind": "sector",
        "parentName": "معتمدية دار شعبان الفهري",
        "governorateId": 350,
        "delegationId": 463,
        "originalSourceId": "osm",
        "derivedUsingSourceIds": [
          "osm",
          "isie-local-sectors-2023-hammamet-nine-neighbours"
        ],
        "operation": "peer geometry minus 0.1 m buffered pinned osm:relation:7103327 mask",
        "maskFeatureId": "osm:relation:7103327",
        "candidateOnly": true,
        "boundaryAccuracyVerified": false,
        "originalCatalogBinarySliceSha256": "2fc7c93d063c7fa0e92ab583c5f71a7edd89e9df10e8b4e6cce90424893f9ffe",
        "derivedSourceId": "derived-nabeul-hadi-shaker-osm-isie-mask-20260925"
      },
      "geometry": {
        "type": "Polygon",
        "coordinates": [
          [
            [
              10.648289,
              36.564214
            ],
            [
              10.650809,
              36.565779
            ],
            [
              10.651724,
              36.565606
            ],
            [
              10.652869,
              36.566155
            ],
            [
              10.655007,
              36.567777
            ],
            [
              10.656788,
              36.568978
            ],
            [
              10.657965,
              36.568927
            ],
            [
              10.658776,
              36.568825
            ],
            [
              10.659157,
              36.569042
            ],
            [
              10.660636,
              36.571008
            ],
            [
              10.660938,
              36.571123
            ],
            [
              10.661908,
              36.571379
            ],
            [
              10.662306,
              36.571813
            ],
            [
              10.662163,
              36.572043
            ],
            [
              10.661304,
              36.572784
            ],
            [
              10.661129,
              36.573307
            ],
            [
              10.660398,
              36.573895
            ],
            [
              10.659396,
              36.575312
            ],
            [
              10.65876,
              36.575899
            ],
            [
              10.65744,
              36.577394
            ],
            [
              10.65709,
              36.579207
            ],
            [
              10.656772,
              36.579334
            ],
            [
              10.655421,
              36.580305
            ],
            [
              10.654944,
              36.580969
            ],
            [
              10.654562,
              36.581786
            ],
            [
              10.653306,
              36.582437
            ],
            [
              10.65259,
              36.583306
            ],
            [
              10.651652,
              36.584136
            ],
            [
              10.650873,
              36.585106
            ],
            [
              10.650014,
              36.586344
            ],
            [
              10.648329,
              36.586664
            ],
            [
              10.647422,
              36.587545
            ],
            [
              10.646262,
              36.589498
            ],
            [
              10.645872,
              36.590763
            ],
            [
              10.646613,
              36.590456
            ],
            [
              10.647539,
              36.590661
            ],
            [
              10.648026,
              36.590447
            ],
            [
              10.648512,
              36.590186
            ],
            [
              10.64974,
              36.589833
            ],
            [
              10.650967,
              36.589907
            ],
            [
              10.652125,
              36.590112
            ],
            [
              10.652959,
              36.589926
            ],
            [
              10.653492,
              36.590056
            ],
            [
              10.654279,
              36.590874
            ],
            [
              10.655021,
              36.591637
            ],
            [
              10.655577,
              36.591339
            ],
            [
              10.65692,
              36.591395
            ],
            [
              10.657881,
              36.591869
            ],
            [
              10.658287,
              36.591656
            ],
            [
              10.659144,
              36.59133
            ],
            [
              10.660024,
              36.591033
            ],
            [
              10.660823,
              36.59014
            ],
            [
              10.661332,
              36.589601
            ],
            [
              10.662143,
              36.589591
            ],
            [
              10.663104,
              36.59001
            ],
            [
              10.663741,
              36.589628
            ],
            [
              10.664401,
              36.589145
            ],
            [
              10.664818,
              36.588829
            ],
            [
              10.664934,
              36.588838
            ],
            [
              10.666081,
              36.589136
            ],
            [
              10.666926,
              36.589489
            ],
            [
              10.667713,
              36.58948
            ],
            [
              10.668918,
              36.589405
            ],
            [
              10.669648,
              36.589005
            ],
            [
              10.670759,
              36.588643
            ],
            [
              10.671906,
              36.588968
            ],
            [
              10.672462,
              36.58894
            ],
            [
              10.672925,
              36.588978
            ],
            [
              10.67377,
              36.588801
            ],
            [
              10.674349,
              36.589089
            ],
            [
              10.674732,
              36.588922
            ],
            [
              10.674975,
              36.588717
            ],
            [
              10.675704,
              36.588503
            ],
            [
              10.676226,
              36.588513
            ],
            [
              10.676504,
              36.587583
            ],
            [
              10.677222,
              36.587322
            ],
            [
              10.677638,
              36.586895
            ],
            [
              10.678148,
              36.58669
            ],
            [
              10.678866,
              36.587043
            ],
            [
              10.680372,
              36.586448
            ],
            [
              10.681507,
              36.585853
            ],
            [
              10.682248,
              36.585258
            ],
            [
              10.684541,
              36.585072
            ],
            [
              10.685768,
              36.584998
            ],
            [
              10.68621,
              36.583681
            ],
            [
              10.685824,
              36.581345
            ],
            [
              10.685798,
              36.579919
            ],
            [
              10.685876,
              36.57903
            ],
            [
              10.689609,
              36.577355
            ],
            [
              10.693419,
              36.575267
            ],
            [
              10.696894,
              36.573572
            ],
            [
              10.695993,
              36.572248
            ],
            [
              10.696122,
              36.571287
            ],
            [
              10.696096,
              36.57015
            ],
            [
              10.695916,
              36.569902
            ],
            [
              10.6958,
              36.569478
            ],
            [
              10.696058,
              36.569054
            ],
            [
              10.696122,
              36.568733
            ],
            [
              10.695659,
              36.566862
            ],
            [
              10.694989,
              36.563843
            ],
            [
              10.694552,
              36.562354
            ],
            [
              10.694243,
              36.560421
            ],
            [
              10.694783,
              36.559987
            ],
            [
              10.694861,
              36.559449
            ],
            [
              10.694343,
              36.558355
            ],
            [
              10.694343,
              36.557001
            ],
            [
              10.692817,
              36.555851
            ],
            [
              10.691799,
              36.5546
            ],
            [
              10.691004,
              36.553527
            ],
            [
              10.689255,
              36.551074
            ],
            [
              10.687506,
              36.548494
            ],
            [
              10.685661,
              36.546501
            ],
            [
              10.684961,
              36.545709
            ],
            [
              10.683912,
              36.544917
            ],
            [
              10.681781,
              36.542719
            ],
            [
              10.67653,
              36.538168
            ],
            [
              10.675162,
              36.538577
            ],
            [
              10.673795,
              36.538845
            ],
            [
              10.668515,
              36.535025
            ],
            [
              10.665749,
              36.53293
            ],
            [
              10.663988,
              36.530996
            ],
            [
              10.663232,
              36.531342
            ],
            [
              10.663231,
              36.531342
            ],
            [
              10.66323,
              36.531342
            ],
            [
              10.662851,
              36.531046
            ],
            [
              10.662668,
              36.531199
            ],
            [
              10.662608,
              36.5313
            ],
            [
              10.662608,
              36.531301
            ],
            [
              10.662486,
              36.531403
            ],
            [
              10.662363,
              36.531505
            ],
            [
              10.662362,
              36.531505
            ],
            [
              10.662175,
              36.531508
            ],
            [
              10.661988,
              36.53151
            ],
            [
              10.661866,
              36.531562
            ],
            [
              10.661743,
              36.531665
            ],
            [
              10.66162,
              36.531717
            ],
            [
              10.661619,
              36.531717
            ],
            [
              10.661371,
              36.53177
            ],
            [
              10.660874,
              36.531878
            ],
            [
              10.660505,
              36.532034
            ],
            [
              10.660504,
              36.532034
            ],
            [
              10.660256,
              36.532088
            ],
            [
              10.66007,
              36.532141
            ],
            [
              10.659883,
              36.532143
            ],
            [
              10.659698,
              36.532196
            ],
            [
              10.659269,
              36.532554
            ],
            [
              10.65884,
              36.532862
            ],
            [
              10.658535,
              36.533168
            ],
            [
              10.658291,
              36.533422
            ],
            [
              10.658171,
              36.533625
            ],
            [
              10.657991,
              36.533979
            ],
            [
              10.657871,
              36.534182
            ],
            [
              10.657871,
              36.534183
            ],
            [
              10.657687,
              36.534337
            ],
            [
              10.65732,
              36.534643
            ],
            [
              10.65683,
              36.535053
            ],
            [
              10.656337,
              36.535311
            ],
            [
              10.656031,
              36.535567
            ],
            [
              10.655787,
              36.535822
            ],
            [
              10.655359,
              36.53623
            ],
            [
              10.654992,
              36.536537
            ],
            [
              10.654561,
              36.536794
            ],
            [
              10.654192,
              36.537001
            ],
            [
              10.653883,
              36.537156
            ],
            [
              10.653882,
              36.537156
            ],
            [
              10.653695,
              36.537158
            ],
            [
              10.653447,
              36.537212
            ],
            [
              10.653263,
              36.537315
            ],
            [
              10.653141,
              36.537418
            ],
            [
              10.653021,
              36.537619
            ],
            [
              10.653021,
              36.53762
            ],
            [
              10.652898,
              36.537723
            ],
            [
              10.652777,
              36.537874
            ],
            [
              10.652777,
              36.537875
            ],
            [
              10.652532,
              36.53808
            ],
            [
              10.652286,
              36.538234
            ],
            [
              10.652041,
              36.538439
            ],
            [
              10.651858,
              36.538642
            ],
            [
              10.651857,
              36.538642
            ],
            [
              10.651856,
              36.538642
            ],
            [
              10.650849,
              36.538153
            ],
            [
              10.65079,
              36.538254
            ],
            [
              10.65079,
              36.538255
            ],
            [
              10.650789,
              36.538255
            ],
            [
              10.650604,
              36.538308
            ],
            [
              10.65042,
              36.538411
            ],
            [
              10.650419,
              36.538411
            ],
            [
              10.650233,
              36.538464
            ],
            [
              10.65011,
              36.538516
            ],
            [
              10.650109,
              36.538516
            ],
            [
              10.649861,
              36.538569
            ],
            [
              10.649615,
              36.538622
            ],
            [
              10.650121,
              36.539017
            ],
            [
              10.650121,
              36.539018
            ],
            [
              10.650121,
              36.539019
            ],
            [
              10.649447,
              36.539581
            ],
            [
              10.649446,
              36.539581
            ],
            [
              10.649445,
              36.539581
            ],
            [
              10.647295,
              36.538102
            ],
            [
              10.64717,
              36.538054
            ],
            [
              10.647169,
              36.538054
            ],
            [
              10.646473,
              36.53756
            ],
            [
              10.645966,
              36.537165
            ],
            [
              10.645587,
              36.536919
            ],
            [
              10.644956,
              36.536575
            ],
            [
              10.644387,
              36.536181
            ],
            [
              10.643945,
              36.535885
            ],
            [
              10.643565,
              36.535639
            ],
            [
              10.64306,
              36.535294
            ],
            [
              10.64306,
              36.535293
            ],
            [
              10.642867,
              36.535045
            ],
            [
              10.642677,
              36.534897
            ],
            [
              10.642361,
              36.5347
            ],
            [
              10.642109,
              36.534552
            ],
            [
              10.642109,
              36.534551
            ],
            [
              10.64198,
              36.534352
            ],
            [
              10.641723,
              36.534004
            ],
            [
              10.641529,
              36.533654
            ],
            [
              10.641141,
              36.533006
            ],
            [
              10.641074,
              36.532755
            ],
            [
              10.640946,
              36.532607
            ],
            [
              10.640946,
              36.532606
            ],
            [
              10.640882,
              36.532506
            ],
            [
              10.640877,
              36.532305
            ],
            [
              10.640873,
              36.532104
            ],
            [
              10.640871,
              36.532005
            ],
            [
              10.640438,
              36.532111
            ],
            [
              10.640319,
              36.532153
            ],
            [
              10.637503,
              36.533365
            ],
            [
              10.635176,
              36.534183
            ],
            [
              10.633493,
              36.535948
            ],
            [
              10.63122,
              36.53915
            ],
            [
              10.625799,
              36.541647
            ],
            [
              10.622163,
              36.544426
            ],
            [
              10.634677,
              36.555401
            ],
            [
              10.641928,
              36.560906
            ],
            [
              10.647414,
              36.563716
            ],
            [
              10.648289,
              36.564214
            ]
          ]
        ]
      }
    },
    {
      "type": "Feature",
      "properties": {
        "id": "osm:relation:7103684",
        "name": "بلّي",
        "kind": "sector",
        "parentName": "معتمدية بو عرقوب",
        "governorateId": 350,
        "delegationId": 463,
        "originalSourceId": "osm",
        "derivedUsingSourceIds": [
          "osm",
          "isie-local-sectors-2023-hammamet-nine-neighbours"
        ],
        "operation": "peer geometry minus 0.1 m buffered pinned osm:relation:7103327 mask",
        "maskFeatureId": "osm:relation:7103327",
        "candidateOnly": true,
        "boundaryAccuracyVerified": false,
        "originalCatalogBinarySliceSha256": "c54606e14c5664d71a41fe5b1edcf767879cd50da73c8b2d2b29388d8bc4fe0c",
        "derivedSourceId": "derived-nabeul-hadi-shaker-osm-isie-mask-20260925"
      },
      "geometry": {
        "type": "Polygon",
        "coordinates": [
          [
            [
              10.551356,
              36.577288
            ],
            [
              10.555312,
              36.578085
            ],
            [
              10.558331,
              36.579058
            ],
            [
              10.564248,
              36.581146
            ],
            [
              10.568049,
              36.582491
            ],
            [
              10.56903,
              36.581031
            ],
            [
              10.569757,
              36.57981
            ],
            [
              10.57136,
              36.579992
            ],
            [
              10.572742,
              36.578974
            ],
            [
              10.57322,
              36.578903
            ],
            [
              10.574199,
              36.579226
            ],
            [
              10.575421,
              36.579509
            ],
            [
              10.576633,
              36.579315
            ],
            [
              10.577471,
              36.578854
            ],
            [
              10.57811,
              36.578819
            ],
            [
              10.579696,
              36.579155
            ],
            [
              10.580754,
              36.578801
            ],
            [
              10.581459,
              36.578412
            ],
            [
              10.581966,
              36.578147
            ],
            [
              10.58298,
              36.57827
            ],
            [
              10.583575,
              36.578005
            ],
            [
              10.583972,
              36.577598
            ],
            [
              10.58439,
              36.577828
            ],
            [
              10.585426,
              36.578501
            ],
            [
              10.586616,
              36.578102
            ],
            [
              10.589988,
              36.57973
            ],
            [
              10.590671,
              36.576961
            ],
            [
              10.592478,
              36.572076
            ],
            [
              10.595762,
              36.5702
            ],
            [
              10.597503,
              36.56912
            ],
            [
              10.598825,
              36.568147
            ],
            [
              10.603233,
              36.564395
            ],
            [
              10.606582,
              36.5622
            ],
            [
              10.61013,
              36.559509
            ],
            [
              10.611783,
              36.558305
            ],
            [
              10.613039,
              36.557226
            ],
            [
              10.613656,
              36.556146
            ],
            [
              10.613772,
              36.556056
            ],
            [
              10.615045,
              36.555066
            ],
            [
              10.616147,
              36.55303
            ],
            [
              10.617601,
              36.5508
            ],
            [
              10.61921,
              36.549153
            ],
            [
              10.621546,
              36.54517
            ],
            [
              10.621832,
              36.544762
            ],
            [
              10.622163,
              36.544426
            ],
            [
              10.625799,
              36.541647
            ],
            [
              10.63122,
              36.53915
            ],
            [
              10.633493,
              36.535948
            ],
            [
              10.635176,
              36.534183
            ],
            [
              10.637503,
              36.533365
            ],
            [
              10.640319,
              36.532153
            ],
            [
              10.639264,
              36.53253
            ],
            [
              10.638955,
              36.532685
            ],
            [
              10.638954,
              36.532685
            ],
            [
              10.638767,
              36.532687
            ],
            [
              10.638766,
              36.532687
            ],
            [
              10.638639,
              36.532538
            ],
            [
              10.638511,
              36.532389
            ],
            [
              10.638257,
              36.532191
            ],
            [
              10.63813,
              36.532042
            ],
            [
              10.637814,
              36.531845
            ],
            [
              10.637558,
              36.531547
            ],
            [
              10.637239,
              36.531199
            ],
            [
              10.636731,
              36.530754
            ],
            [
              10.636285,
              36.530257
            ],
            [
              10.635968,
              36.53001
            ],
            [
              10.635713,
              36.529762
            ],
            [
              10.635522,
              36.529563
            ],
            [
              10.635396,
              36.529465
            ],
            [
              10.635271,
              36.529416
            ],
            [
              10.63527,
              36.529416
            ],
            [
              10.635143,
              36.529317
            ],
            [
              10.635143,
              36.529316
            ],
            [
              10.635079,
              36.529216
            ],
            [
              10.635013,
              36.529066
            ],
            [
              10.634887,
              36.528969
            ],
            [
              10.634887,
              36.528968
            ],
            [
              10.634887,
              36.528967
            ],
            [
              10.635746,
              36.528351
            ],
            [
              10.63851,
              36.526452
            ],
            [
              10.639064,
              36.526093
            ],
            [
              10.639065,
              36.526093
            ],
            [
              10.639249,
              36.52604
            ],
            [
              10.64018,
              36.525517
            ],
            [
              10.638405,
              36.526206
            ],
            [
              10.630691,
              36.53166
            ],
            [
              10.628069,
              36.534404
            ],
            [
              10.627657,
              36.534664
            ],
            [
              10.61802,
              36.540743
            ],
            [
              10.614119,
              36.543364
            ],
            [
              10.612026,
              36.544957
            ],
            [
              10.611012,
              36.545471
            ],
            [
              10.606692,
              36.547666
            ],
            [
              10.597459,
              36.55211
            ],
            [
              10.593338,
              36.554075
            ],
            [
              10.590781,
              36.555172
            ],
            [
              10.586396,
              36.556004
            ],
            [
              10.581988,
              36.556934
            ],
            [
              10.578738,
              36.557465
            ],
            [
              10.577048,
              36.558184
            ],
            [
              10.574892,
              36.559129
            ],
            [
              10.572314,
              36.559837
            ],
            [
              10.570033,
              36.560483
            ],
            [
              10.568435,
              36.561217
            ],
            [
              10.566408,
              36.562315
            ],
            [
              10.563851,
              36.563899
            ],
            [
              10.561835,
              36.565191
            ],
            [
              10.560645,
              36.565919
            ],
            [
              10.559066,
              36.566875
            ],
            [
              10.558603,
              36.567064
            ],
            [
              10.558213,
              36.567148
            ],
            [
              10.557404,
              36.567246
            ],
            [
              10.554618,
              36.567289
            ],
            [
              10.554074,
              36.567327
            ],
            [
              10.553702,
              36.567399
            ],
            [
              10.553099,
              36.567551
            ],
            [
              10.552642,
              36.567747
            ],
            [
              10.552216,
              36.568
            ],
            [
              10.551031,
              36.568798
            ],
            [
              10.550266,
              36.569213
            ],
            [
              10.552447,
              36.572864
            ],
            [
              10.55194,
              36.574474
            ],
            [
              10.551466,
              36.576881
            ],
            [
              10.551356,
              36.577288
            ]
          ]
        ]
      }
    }
  ],
  "derivedSource": {
    "id": "derived-nabeul-hadi-shaker-osm-isie-mask-20260925",
    "status": "provisional_best_effort_boundary_candidate"
  }
}
